,aug_id,original_id,sample_frequency,name,description,units,source,url,domain,subdomain,tags,country_name,country_code,region_name,region_code,state,country,city,locality,nieghbourhood,location,map_coordinates,timestamps
110,GDACS_1307659,1307659,7 days,"Green earthquake alert (Magnitude 4.5M, Depth:61.21km) in Japan 26/01/2022 21:09 UTC, 34630000 people within 100km.","On 1/26/2022 9:09:15 PM, an earthquake occurred in Japan potentially affecting 34630000 people within 100km. The earthquake had Magnitude 4.5M, Depth:61.21km.",,GDACS,https://www.gdacs.org/report.aspx?eventtype=EQ&eventid=1307659,gdacs.org,www,"['EQ', 'Green']",Japan,JPN,East Asia & Pacific,EAS,Ibaraki,Japan,Kōda,,,"Kōda, Ibaraki, Japan","['35.9284', '140.4239']","['Wed, 26 Jan 2022 21:09:15 GMT', 'Wed, 26 Jan 2022 21:09:15 GMT']"
111,GDACS_1307651,1307651,7 days,"Green earthquake alert (Magnitude 4.5M, Depth:10km) in Chile 26/01/2022 19:42 UTC, 150000 people within 100km.","On 1/26/2022 7:42:52 PM, an earthquake occurred in Chile potentially affecting 150000 people within 100km. The earthquake had Magnitude 4.5M, Depth:10km.",,GDACS,https://www.gdacs.org/report.aspx?eventtype=EQ&eventid=1307651,gdacs.org,www,"['EQ', 'Green']",Chile,CHL,Latin America & Caribbean,LCN,Antofagasta,Chile,San Bartolo,,,"San Bartolo, Antofagasta, Chile","['-22.775', '-68.4971']","['Wed, 26 Jan 2022 19:42:52 GMT', 'Wed, 26 Jan 2022 19:42:52 GMT']"
112,GDACS_1307637,1307637,7 days,"Green earthquake alert (Magnitude 4.7M, Depth:40.52km) in Indonesia 26/01/2022 18:02 UTC, About 2000 people within 100km.","On 1/26/2022 6:02:41 PM, an earthquake occurred in Indonesia potentially affecting About 2000 people within 100km. The earthquake had Magnitude 4.7M, Depth:40.52km.",,GDACS,https://www.gdacs.org/report.aspx?eventtype=EQ&eventid=1307637,gdacs.org,www,"['EQ', 'Green']",Indonesia,IDN,East Asia & Pacific,EAS,North Maluku,Indonesia,Pasirputih,,,"Pasirputih, North Maluku, Indonesia","['1.5201', '126.5777']","['Wed, 26 Jan 2022 18:02:41 GMT', 'Wed, 26 Jan 2022 18:02:41 GMT']"
113,GDACS_1307772,1307772,7 days,"Green earthquake alert (Magnitude 5.6M, Depth:10km) in Antarctica 26/01/2022 16:36 UTC, No people within 100km.","On 1/26/2022 4:36:19 PM, an earthquake occurred in Antarctica potentially affecting No people within 100km. The earthquake had Magnitude 5.6M, Depth:10km.",,GDACS,https://www.gdacs.org/report.aspx?eventtype=EQ&eventid=1307772,gdacs.org,www,"['EQ', 'Green']",Antarctica,ATA,,,,,,,,,"['-63.5138', '169.9041']","['Wed, 26 Jan 2022 16:36:19 GMT', 'Wed, 26 Jan 2022 16:36:19 GMT']"
114,GDACS_1307587,1307587,7 days,"Green earthquake alert (Magnitude 4.9M, Depth:56.5km) in Vanuatu 26/01/2022 11:11 UTC, About 30000 people within 100km.","On 1/26/2022 11:11:41 AM, an earthquake occurred in Vanuatu potentially affecting About 30000 people within 100km. The earthquake had Magnitude 4.9M, Depth:56.5km.",,GDACS,https://www.gdacs.org/report.aspx?eventtype=EQ&eventid=1307587,gdacs.org,www,"['EQ', 'Green']",Vanuatu,VUT,East Asia & Pacific,EAS,Tafea,Vanuatu,Bouniakoup,,,"Bouniakoup, Tafea, Vanuatu","['-19.2329', '168.5554']","['Wed, 26 Jan 2022 11:11:41 GMT', 'Wed, 26 Jan 2022 11:11:41 GMT']"
115,GDACS_1307578,1307578,7 days,"Green earthquake alert (Magnitude 4.9M, Depth:62.25km) in Indonesia 26/01/2022 09:52 UTC, No people within 100km.","On 1/26/2022 9:52:42 AM, an earthquake occurred in Indonesia potentially affecting No people within 100km. The earthquake had Magnitude 4.9M, Depth:62.25km.",,GDACS,https://www.gdacs.org/report.aspx?eventtype=EQ&eventid=1307578,gdacs.org,www,"['EQ', 'Green']",Indonesia,IDN,East Asia & Pacific,EAS,,,,,,,"['4.2674', '128.285']","['Wed, 26 Jan 2022 09:52:42 GMT', 'Wed, 26 Jan 2022 09:52:42 GMT']"
116,GDACS_1307667,1307667,7 days,"Green earthquake alert (Magnitude 4.6M, Depth:10km) in Tonga 26/01/2022 09:39 UTC, About 84000 people within 100km.","On 1/26/2022 9:39:49 AM, an earthquake occurred in Tonga potentially affecting About 84000 people within 100km. The earthquake had Magnitude 4.6M, Depth:10km.",,GDACS,https://www.gdacs.org/report.aspx?eventtype=EQ&eventid=1307667,gdacs.org,www,"['EQ', 'Green']",Tonga,TON,East Asia & Pacific,EAS,Vava‘u,Tonga,Kotomaka,,,"Kotomaka, Vava‘u, Tonga","['-20.523', '-175.2148']","['Wed, 26 Jan 2022 09:39:49 GMT', 'Wed, 26 Jan 2022 09:39:49 GMT']"
117,GDACS_1307554,1307554,7 days,"Green earthquake alert (Magnitude 4.8M, Depth:10km) in United States 26/01/2022 04:31 UTC, No people within 100km.","On 1/26/2022 4:31:23 AM, an earthquake occurred in United States potentially affecting No people within 100km. The earthquake had Magnitude 4.8M, Depth:10km.",,GDACS,https://www.gdacs.org/report.aspx?eventtype=EQ&eventid=1307554,gdacs.org,www,"['EQ', 'Green']",United States,USA,North America,NAC,Alaska,United States,Amchitka,,,"Amchitka, Alaska, United States","['51.9689', '178.2999']","['Wed, 26 Jan 2022 04:31:23 GMT', 'Wed, 26 Jan 2022 04:31:23 GMT']"
118,GDACS_1307582,1307582,7 days,"Green earthquake alert (Magnitude 4.6M, Depth:10km) in Venezuela 26/01/2022 03:41 UTC, No people within 100km.","On 1/26/2022 3:41:56 AM, an earthquake occurred in Venezuela potentially affecting No people within 100km. The earthquake had Magnitude 4.6M, Depth:10km.",,GDACS,https://www.gdacs.org/report.aspx?eventtype=EQ&eventid=1307582,gdacs.org,www,"['EQ', 'Green']",Venezuela,VEN,Latin America & Caribbean,LCN,Monagas,Venezuela,Campo de Tiro,,,"Campo de Tiro, Monagas, Venezuela","['10.0852', '-59.5845']","['Wed, 26 Jan 2022 03:41:56 GMT', 'Wed, 26 Jan 2022 03:41:56 GMT']"
119,GDACS_1307545,1307545,7 days,"Green earthquake alert (Magnitude 5M, Depth:10km) in The Democratic Republic of Congo 26/01/2022 02:06 UTC, 290000 people within 100km.","On 1/26/2022 2:06:10 AM, an earthquake occurred in The Democratic Republic of Congo potentially affecting 290000 people within 100km. The earthquake had Magnitude 5M, Depth:10km.",,GDACS,https://www.gdacs.org/report.aspx?eventtype=EQ&eventid=1307545,gdacs.org,www,"['EQ', 'Green']",The Democratic Republic of Congo,COD,Sub-Saharan Africa,SSF,Tanganyika,DR Congo,Kabanga-Kasinda,,,"Kabanga-Kasinda, Tanganyika, DR Congo","['-7.2773', '27.9681']","['Wed, 26 Jan 2022 02:06:10 GMT', 'Wed, 26 Jan 2022 02:06:10 GMT']"
120,GDACS_1307516,1307516,7 days,"Green earthquake alert (Magnitude 4.9M, Depth:10km) in United States 26/01/2022 01:02 UTC, No people within 100km.","On 1/26/2022 1:02:06 AM, an earthquake occurred in United States potentially affecting No people within 100km. The earthquake had Magnitude 4.9M, Depth:10km.",,GDACS,https://www.gdacs.org/report.aspx?eventtype=EQ&eventid=1307516,gdacs.org,www,"['EQ', 'Green']",United States,USA,North America,NAC,Alaska,United States,Amchitka,,,"Amchitka, Alaska, United States","['51.9725', '178.2988']","['Wed, 26 Jan 2022 01:02:06 GMT', 'Wed, 26 Jan 2022 01:02:06 GMT']"
17,GDACS_1014958,1014958,7 days,"Drought is on going in Argentina, Chile",The  Drought alert level is Green.,,GDACS,https://www.gdacs.org/report.aspx?eventtype=DR&eventid=1014958,gdacs.org,www,"['DR', 'Green']","Argentina, Chile",ARG,Latin America & Caribbean,LCN,Araucanía,Chile,Quichamahuida,,,"Quichamahuida, Araucanía, Chile","['-38.225', '-72.609']","['Wed, 21 Oct 2020 00:00:00 GMT', 'Tue, 01 Feb 2022 00:00:00 GMT']"
20,GDACS_1014473,1014473,7 days,"Drought is on going in Iran, Kyrgyzstan, Kazakhstan, Tajikistan, Turkmenistan, Uzbekistan",The  Drought alert level is Green.,,GDACS,https://www.gdacs.org/report.aspx?eventtype=DR&eventid=1014473,gdacs.org,www,"['DR', 'Green']","Iran, Kyrgyzstan, Kazakhstan, Tajikistan, Turkmenistan, Uzbekistan",IRN,Middle East & North Africa,MEA,Mangghystaū,Kazakhstan,Kamennyy,,,"Kamennyy, Mangghystaū, Kazakhstan","['44.684', '55.077']","['Wed, 21 Oct 2020 00:00:00 GMT', 'Tue, 01 Feb 2022 00:00:00 GMT']"
21,GDACS_1014495,1014495,7 days,Drought is on going in Madagascar,The  Drought alert level is Red.,,GDACS,https://www.gdacs.org/report.aspx?eventtype=DR&eventid=1014495,gdacs.org,www,"['DR', 'Red']",Madagascar,MDG,Sub-Saharan Africa,SSF,Amoron'i Mania,Madagascar,Ambalavato,,,"Ambalavato, Amoron'i Mania, Madagascar","['-20.247', '46.202']","['Wed, 21 Oct 2020 00:00:00 GMT', 'Tue, 01 Feb 2022 00:00:00 GMT']"
12,GDACS_1015088,1015088,7 days,Drought is on going in United States,The  Drought alert level is Green.,,GDACS,https://www.gdacs.org/report.aspx?eventtype=DR&eventid=1015088,gdacs.org,www,"['DR', 'Green']",United States,USA,North America,NAC,Colorado,United States,Wareland,,,"Wareland, Colorado, United States","['39.072', '-103.218']","['Wed, 21 Jul 2021 00:00:00 GMT', 'Tue, 01 Feb 2022 00:00:00 GMT']"
16,GDACS_1015039,1015039,7 days,"Drought is on going in Angola, Democratic Republic of Congo, Republic of Congo",The  Drought alert level is Green.,,GDACS,https://www.gdacs.org/report.aspx?eventtype=DR&eventid=1015039,gdacs.org,www,"['DR', 'Green']","Angola, Democratic Republic of Congo, Republic of Congo",AGO,Sub-Saharan Africa,SSF,Bas-Congo,DR Congo,Kintadi,,,"Kintadi, Bas-Congo, DR Congo","['-5', '13.5']","['Wed, 21 Jul 2021 00:00:00 GMT', 'Tue, 01 Feb 2022 00:00:00 GMT']"
124,GDACS_1307511,1307511,7 days,"Green earthquake alert (Magnitude 4.5M, Depth:10km) in Philippines 25/01/2022 23:59 UTC, No people within 100km.","On 1/25/2022 11:59:17 PM, an earthquake occurred in Philippines potentially affecting No people within 100km. The earthquake had Magnitude 4.5M, Depth:10km.",,GDACS,https://www.gdacs.org/report.aspx?eventtype=EQ&eventid=1307511,gdacs.org,www,"['EQ', 'Green']",Philippines,PHL,East Asia & Pacific,EAS,,Indonesia,Miangas,,,"Miangas, , Indonesia","['5.3974', '126.4219']","['Tue, 25 Jan 2022 23:59:17 GMT', 'Tue, 25 Jan 2022 23:59:17 GMT']"
125,GDACS_1307515,1307515,7 days,"Green earthquake alert (Magnitude 4.9M, Depth:10km) in Tonga 25/01/2022 23:34 UTC, About 79000 people within 100km.","On 1/25/2022 11:34:22 PM, an earthquake occurred in Tonga potentially affecting About 79000 people within 100km. The earthquake had Magnitude 4.9M, Depth:10km.",,GDACS,https://www.gdacs.org/report.aspx?eventtype=EQ&eventid=1307515,gdacs.org,www,"['EQ', 'Green']",Tonga,TON,East Asia & Pacific,EAS,Vava‘u,Tonga,Kotomaka,,,"Kotomaka, Vava‘u, Tonga","['-20.442', '-175.4183']","['Tue, 25 Jan 2022 23:34:22 GMT', 'Tue, 25 Jan 2022 23:34:22 GMT']"
126,GDACS_1307490,1307490,7 days,"Green earthquake alert (Magnitude 4.5M, Depth:7.63km) in Haiti 25/01/2022 18:50 UTC, 6480000 people within 100km.","On 1/25/2022 6:50:57 PM, an earthquake occurred in Haiti potentially affecting 6480000 people within 100km. The earthquake had Magnitude 4.5M, Depth:7.63km.",,GDACS,https://www.gdacs.org/report.aspx?eventtype=EQ&eventid=1307490,gdacs.org,www,"['EQ', 'Green']",Haiti,HTI,Latin America & Caribbean,LCN,Ouest,Haiti,Daverne,,,"Daverne, Ouest, Haiti","['18.5511', '-72.683']","['Tue, 25 Jan 2022 18:50:57 GMT', 'Tue, 25 Jan 2022 18:50:57 GMT']"
127,GDACS_1307483,1307483,7 days,"Green earthquake alert (Magnitude 4.9M, Depth:240.26km) in Tonga 25/01/2022 17:21 UTC, Few people within 100km.","On 1/25/2022 5:21:33 PM, an earthquake occurred in Tonga potentially affecting Few people within 100km. The earthquake had Magnitude 4.9M, Depth:240.26km.",,GDACS,https://www.gdacs.org/report.aspx?eventtype=EQ&eventid=1307483,gdacs.org,www,"['EQ', 'Green']",Tonga,TON,East Asia & Pacific,EAS,,,,,,,"['-17.6122', '-175.0303']","['Tue, 25 Jan 2022 17:21:33 GMT', 'Tue, 25 Jan 2022 17:21:33 GMT']"
15,GDACS_1015187,1015187,7 days,"Drought is on going in Belize, Costa Rica, Guatemala, Honduras, Nicaragua",The  Drought alert level is Green.,,GDACS,https://www.gdacs.org/report.aspx?eventtype=DR&eventid=1015187,gdacs.org,www,"['DR', 'Green']","Belize, Costa Rica, Guatemala, Honduras, Nicaragua",BLZ,Latin America & Caribbean,LCN,Francisco Morazán,Honduras,Agua Fría,,,"Agua Fría, Francisco Morazán, Honduras","['14.417', '-86.837']","['Tue, 21 Sep 2021 00:00:00 GMT', 'Tue, 01 Feb 2022 00:00:00 GMT']"
0,GDACS_1308444,1308444,7 days,"Green earthquake alert (Magnitude 4.9M, Depth:10km) in Kermadec Islands Region 01/02/2022 14:30 UTC, No people within 100km.","On 2/1/2022 2:30:03 PM, an earthquake occurred in Kermadec Islands Region potentially affecting No people within 100km. The earthquake had Magnitude 4.9M, Depth:10km.",,GDACS,https://www.gdacs.org/report.aspx?eventtype=EQ&eventid=1308444,gdacs.org,www,"['EQ', 'Green']",Kermadec Islands Region,,,,,,,,,,"['-29.7937', '-176.225']","['Tue, 01 Feb 2022 14:30:03 GMT', 'Tue, 01 Feb 2022 14:30:03 GMT']"
1,GDACS_1308443,1308443,7 days,"Green earthquake alert (Magnitude 5.4M, Depth:177.9km) in Papua New Guinea 01/02/2022 14:05 UTC, 490000 people within 100km.","On 2/1/2022 2:05:02 PM, an earthquake occurred in Papua New Guinea potentially affecting 490000 people within 100km. The earthquake had Magnitude 5.4M, Depth:177.9km.",,GDACS,https://www.gdacs.org/report.aspx?eventtype=EQ&eventid=1308443,gdacs.org,www,"['EQ', 'Green']",Papua New Guinea,PNG,East Asia & Pacific,EAS,Morobe,Papua New Guinea,Tsinjangogwi,,,"Tsinjangogwi, Morobe, Papua New Guinea","['-7.1084', '145.9978']","['Tue, 01 Feb 2022 14:05:02 GMT', 'Tue, 01 Feb 2022 14:05:02 GMT']"
4,GDACS_1308426,1308426,7 days,"Green earthquake alert (Magnitude 4.6M, Depth:10km) in New Caledonia 01/02/2022 11:41 UTC, No people within 100km.","On 2/1/2022 11:41:35 AM, an earthquake occurred in New Caledonia potentially affecting No people within 100km. The earthquake had Magnitude 4.6M, Depth:10km.",,GDACS,https://www.gdacs.org/report.aspx?eventtype=EQ&eventid=1308426,gdacs.org,www,"['EQ', 'Green']",New Caledonia,NCL,East Asia & Pacific,EAS,,,,,,,"['-23.0802', '170.4347']","['Tue, 01 Feb 2022 11:41:35 GMT', 'Tue, 01 Feb 2022 11:41:35 GMT']"
5,GDACS_1308409,1308409,7 days,"Green earthquake alert (Magnitude 4.7M, Depth:32.23km) in Japan 01/02/2022 09:18 UTC, No people within 100km.","On 2/1/2022 9:18:36 AM, an earthquake occurred in Japan potentially affecting No people within 100km. The earthquake had Magnitude 4.7M, Depth:32.23km.",,GDACS,https://www.gdacs.org/report.aspx?eventtype=EQ&eventid=1308409,gdacs.org,www,"['EQ', 'Green']",Japan,JPN,East Asia & Pacific,EAS,,,,,,,"['32.6869', '141.774']","['Tue, 01 Feb 2022 09:18:36 GMT', 'Tue, 01 Feb 2022 09:18:36 GMT']"
6,GDACS_1308404,1308404,7 days,"Green earthquake alert (Magnitude 4.8M, Depth:10km) in Northern Mid-Atlantic Ridge 01/02/2022 05:48 UTC, No people within 100km.","On 2/1/2022 5:48:56 AM, an earthquake occurred in Northern Mid-Atlantic Ridge potentially affecting No people within 100km. The earthquake had Magnitude 4.8M, Depth:10km.",,GDACS,https://www.gdacs.org/report.aspx?eventtype=EQ&eventid=1308404,gdacs.org,www,"['EQ', 'Green']",Northern Mid-Atlantic Ridge,,,,,,,,,,"['28.8616', '-43.6394']","['Tue, 01 Feb 2022 05:48:56 GMT', 'Tue, 01 Feb 2022 05:48:56 GMT']"
7,GDACS_1308349,1308349,7 days,"Green earthquake alert (Magnitude 4.7M, Depth:25.7km) in Chile 01/02/2022 01:39 UTC, 430000 people within 100km.","On 2/1/2022 1:39:51 AM, an earthquake occurred in Chile potentially affecting 430000 people within 100km. The earthquake had Magnitude 4.7M, Depth:25.7km.",,GDACS,https://www.gdacs.org/report.aspx?eventtype=EQ&eventid=1308349,gdacs.org,www,"['EQ', 'Green']",Chile,CHL,Latin America & Caribbean,LCN,Los Lagos Region,Chile,Huitrapulli,,,"Huitrapulli, Los Lagos Region, Chile","['-40.3281', '-74.0512']","['Tue, 01 Feb 2022 01:39:51 GMT', 'Tue, 01 Feb 2022 01:39:51 GMT']"
8,GDACS_1308348,1308348,7 days,"Green earthquake alert (Magnitude 4.6M, Depth:10km) in Chile 01/02/2022 01:33 UTC, 230000 people within 100km.","On 2/1/2022 1:33:21 AM, an earthquake occurred in Chile potentially affecting 230000 people within 100km. The earthquake had Magnitude 4.6M, Depth:10km.",,GDACS,https://www.gdacs.org/report.aspx?eventtype=EQ&eventid=1308348,gdacs.org,www,"['EQ', 'Green']",Chile,CHL,Latin America & Caribbean,LCN,Los Lagos Region,Chile,Huitrapulli,,,"Huitrapulli, Los Lagos Region, Chile","['-40.3578', '-74.2316']","['Tue, 01 Feb 2022 01:33:21 GMT', 'Tue, 01 Feb 2022 01:33:21 GMT']"
9,GDACS_1308346,1308346,7 days,"Green earthquake alert (Magnitude 4.9M, Depth:107.42km) in Argentina 01/02/2022 00:52 UTC, 690000 people within 100km.","On 2/1/2022 12:52:42 AM, an earthquake occurred in Argentina potentially affecting 690000 people within 100km. The earthquake had Magnitude 4.9M, Depth:107.42km.",,GDACS,https://www.gdacs.org/report.aspx?eventtype=EQ&eventid=1308346,gdacs.org,www,"['EQ', 'Green']",Argentina,ARG,Latin America & Caribbean,LCN,San Juan,Argentina,La Laja,,,"La Laja, San Juan, Argentina","['-31.3306', '-68.5308']","['Tue, 01 Feb 2022 00:52:42 GMT', 'Tue, 01 Feb 2022 00:52:42 GMT']"
10,GDACS_1308344,1308344,7 days,"Green earthquake alert (Magnitude 4.7M, Depth:177.58km) in Indonesia 01/02/2022 00:18 UTC, About 71000 people within 100km.","On 2/1/2022 12:18:52 AM, an earthquake occurred in Indonesia potentially affecting About 71000 people within 100km. The earthquake had Magnitude 4.7M, Depth:177.58km.",,GDACS,https://www.gdacs.org/report.aspx?eventtype=EQ&eventid=1308344,gdacs.org,www,"['EQ', 'Green']",Indonesia,IDN,East Asia & Pacific,EAS,Maluku,Indonesia,Jerusu,,,"Jerusu, Maluku, Indonesia","['-7.5493', '127.5443']","['Tue, 01 Feb 2022 00:18:52 GMT', 'Tue, 01 Feb 2022 00:18:52 GMT']"
96,GDACS_1307778,1307778,7 days,"Green earthquake alert (Magnitude 4.6M, Depth:141.75km) in Papua New Guinea 27/01/2022 23:39 UTC, 180000 people within 100km.","On 1/27/2022 11:39:28 PM, an earthquake occurred in Papua New Guinea potentially affecting 180000 people within 100km. The earthquake had Magnitude 4.6M, Depth:141.75km.",,GDACS,https://www.gdacs.org/report.aspx?eventtype=EQ&eventid=1307778,gdacs.org,www,"['EQ', 'Green']",Papua New Guinea,PNG,East Asia & Pacific,EAS,Morobe,Papua New Guinea,Beluok,,,"Beluok, Morobe, Papua New Guinea","['-7.9474', '146.7723']","['Thu, 27 Jan 2022 23:39:28 GMT', 'Thu, 27 Jan 2022 23:39:28 GMT']"
97,GDACS_1307974,1307974,7 days,"Green earthquake alert (Magnitude 4.9M, Depth:10km) in Kermadec Islands Region 27/01/2022 22:18 UTC, No people within 100km.","On 1/27/2022 10:18:53 PM, an earthquake occurred in Kermadec Islands Region potentially affecting No people within 100km. The earthquake had Magnitude 4.9M, Depth:10km.",,GDACS,https://www.gdacs.org/report.aspx?eventtype=EQ&eventid=1307974,gdacs.org,www,"['EQ', 'Green']",Kermadec Islands Region,,,,,,,,,,"['-28.882', '-176.6122']","['Thu, 27 Jan 2022 22:18:53 GMT', 'Thu, 27 Jan 2022 22:18:53 GMT']"
98,GDACS_1307763,1307763,7 days,"Green earthquake alert (Magnitude 5M, Depth:23.82km) in Indonesia 27/01/2022 16:03 UTC, No people within 100km.","On 1/27/2022 4:03:03 PM, an earthquake occurred in Indonesia potentially affecting No people within 100km. The earthquake had Magnitude 5M, Depth:23.82km.",,GDACS,https://www.gdacs.org/report.aspx?eventtype=EQ&eventid=1307763,gdacs.org,www,"['EQ', 'Green']",Indonesia,IDN,East Asia & Pacific,EAS,,,,,,,"['-8.7448', '108.0816']","['Thu, 27 Jan 2022 16:03:03 GMT', 'Thu, 27 Jan 2022 16:03:03 GMT']"
99,GDACS_1307758,1307758,7 days,"Green earthquake alert (Magnitude 4.5M, Depth:10km) in Haiti 27/01/2022 14:59 UTC, 2440000 people within 100km.","On 1/27/2022 2:59:20 PM, an earthquake occurred in Haiti potentially affecting 2440000 people within 100km. The earthquake had Magnitude 4.5M, Depth:10km.",,GDACS,https://www.gdacs.org/report.aspx?eventtype=EQ&eventid=1307758,gdacs.org,www,"['EQ', 'Green']",Haiti,HTI,Latin America & Caribbean,LCN,Nippes,Haiti,Didier,,,"Didier, Nippes, Haiti","['18.4262', '-73.3898']","['Thu, 27 Jan 2022 14:59:20 GMT', 'Thu, 27 Jan 2022 14:59:20 GMT']"
100,GDACS_1307737,1307737,7 days,"Green earthquake alert (Magnitude 4.8M, Depth:33.17km) in Indonesia 27/01/2022 13:20 UTC, 120000 people within 100km.","On 1/27/2022 1:20:05 PM, an earthquake occurred in Indonesia potentially affecting 120000 people within 100km. The earthquake had Magnitude 4.8M, Depth:33.17km.",,GDACS,https://www.gdacs.org/report.aspx?eventtype=EQ&eventid=1307737,gdacs.org,www,"['EQ', 'Green']",Indonesia,IDN,East Asia & Pacific,EAS,South Sulawesi,Indonesia,Bonelambere,,,"Bonelambere, South Sulawesi, Indonesia","['-6.6866', '120.6265']","['Thu, 27 Jan 2022 13:20:05 GMT', 'Thu, 27 Jan 2022 13:20:05 GMT']"
101,GDACS_1307970,1307970,7 days,"Green earthquake alert (Magnitude 4.7M, Depth:10km) in Tonga 27/01/2022 11:14 UTC, About 84000 people within 100km.","On 1/27/2022 11:14:22 AM, an earthquake occurred in Tonga potentially affecting About 84000 people within 100km. The earthquake had Magnitude 4.7M, Depth:10km.",,GDACS,https://www.gdacs.org/report.aspx?eventtype=EQ&eventid=1307970,gdacs.org,www,"['EQ', 'Green']",Tonga,TON,East Asia & Pacific,EAS,Tongatapu,Tonga,Ha‘atafu,,,"Ha‘atafu, Tongatapu, Tonga","['-20.6757', '-175.3475']","['Thu, 27 Jan 2022 11:14:22 GMT', 'Thu, 27 Jan 2022 11:14:22 GMT']"
102,GDACS_1307708,1307708,7 days,"Green earthquake alert (Magnitude 6.2M, Depth:4.17km) in Tonga 27/01/2022 06:40 UTC, No people within 100km.","On 1/27/2022 6:40:07 AM, an earthquake occurred in Tonga potentially affecting No people within 100km. The earthquake had Magnitude 6.2M, Depth:4.17km.",,GDACS,https://www.gdacs.org/report.aspx?eventtype=EQ&eventid=1307708,gdacs.org,www,"['EQ', 'Green']",Tonga,TON,East Asia & Pacific,EAS,,,,,,,"['-19.0681', '-176.3494']","['Thu, 27 Jan 2022 06:40:07 GMT', 'Thu, 27 Jan 2022 06:40:07 GMT']"
103,GDACS_1307702,1307702,7 days,"Green earthquake alert (Magnitude 5M, Depth:75.92km) in Indonesia 27/01/2022 06:15 UTC, About 41000 people within 100km.","On 1/27/2022 6:15:10 AM, an earthquake occurred in Indonesia potentially affecting About 41000 people within 100km. The earthquake had Magnitude 5M, Depth:75.92km.",,GDACS,https://www.gdacs.org/report.aspx?eventtype=EQ&eventid=1307702,gdacs.org,www,"['EQ', 'Green']",Indonesia,IDN,East Asia & Pacific,EAS,,,,,,,"['3.0969', '127.9481']","['Thu, 27 Jan 2022 06:15:10 GMT', 'Thu, 27 Jan 2022 06:15:10 GMT']"
104,GDACS_1307697,1307697,7 days,"Green earthquake alert (Magnitude 4.6M, Depth:10km) in Greenland 27/01/2022 04:52 UTC, About 2000 people within 100km.","On 1/27/2022 4:52:48 AM, an earthquake occurred in Greenland potentially affecting About 2000 people within 100km. The earthquake had Magnitude 4.6M, Depth:10km.",,GDACS,https://www.gdacs.org/report.aspx?eventtype=EQ&eventid=1307697,gdacs.org,www,"['EQ', 'Green']",Greenland,GRL,Europe & Central Asia,ECS,Kujalleq,Greenland,Kangikitsoq,,,"Kangikitsoq, Kujalleq, Greenland","['60.7498', '-44.1483']","['Thu, 27 Jan 2022 04:52:48 GMT', 'Thu, 27 Jan 2022 04:52:48 GMT']"
105,GDACS_1307688,1307688,7 days,"Green earthquake alert (Magnitude 4.7M, Depth:116.22km) in Argentina 27/01/2022 03:00 UTC, 1790000 people within 100km.","On 1/27/2022 3:00:47 AM, an earthquake occurred in Argentina potentially affecting 1790000 people within 100km. The earthquake had Magnitude 4.7M, Depth:116.22km.",,GDACS,https://www.gdacs.org/report.aspx?eventtype=EQ&eventid=1307688,gdacs.org,www,"['EQ', 'Green']",Argentina,ARG,Latin America & Caribbean,LCN,San Juan,Argentina,Ramblón,,,"Ramblón, San Juan, Argentina","['-32.4246', '-68.679']","['Thu, 27 Jan 2022 03:00:47 GMT', 'Thu, 27 Jan 2022 03:00:47 GMT']"
106,GDACS_1307687,1307687,7 days,"Green earthquake alert (Magnitude 5.1M, Depth:10km) in Papua New Guinea 27/01/2022 02:49 UTC, 240000 people within 100km.","On 1/27/2022 2:49:45 AM, an earthquake occurred in Papua New Guinea potentially affecting 240000 people within 100km. The earthquake had Magnitude 5.1M, Depth:10km.",,GDACS,https://www.gdacs.org/report.aspx?eventtype=EQ&eventid=1307687,gdacs.org,www,"['EQ', 'Green']",Papua New Guinea,PNG,East Asia & Pacific,EAS,New Ireland,Papua New Guinea,Danu,,,"Danu, New Ireland, Papua New Guinea","['-3.7623', '151.7749']","['Thu, 27 Jan 2022 02:49:45 GMT', 'Thu, 27 Jan 2022 02:49:45 GMT']"
107,GDACS_1307686,1307686,7 days,"Green earthquake alert (Magnitude 4.7M, Depth:600.26km) in Fiji 27/01/2022 02:08 UTC, About 300 people within 100km.","On 1/27/2022 2:08:50 AM, an earthquake occurred in Fiji potentially affecting About 300 people within 100km. The earthquake had Magnitude 4.7M, Depth:600.26km.",,GDACS,https://www.gdacs.org/report.aspx?eventtype=EQ&eventid=1307686,gdacs.org,www,"['EQ', 'Green']",Fiji,FJI,East Asia & Pacific,EAS,,,,,,,"['-18.123', '-177.7745']","['Thu, 27 Jan 2022 02:08:50 GMT', 'Thu, 27 Jan 2022 02:08:50 GMT']"
108,GDACS_1307671,1307671,7 days,"Green earthquake alert (Magnitude 4.9M, Depth:503.39km) in South Of Fiji Islands 27/01/2022 01:50 UTC, No people within 100km.","On 1/27/2022 1:50:11 AM, an earthquake occurred in South Of Fiji Islands potentially affecting No people within 100km. The earthquake had Magnitude 4.9M, Depth:503.39km.",,GDACS,https://www.gdacs.org/report.aspx?eventtype=EQ&eventid=1307671,gdacs.org,www,"['EQ', 'Green']",South Of Fiji Islands,,,,,,,,,,"['-25.9416', '179.815']","['Thu, 27 Jan 2022 01:50:11 GMT', 'Thu, 27 Jan 2022 01:50:11 GMT']"
109,GDACS_1307668,1307668,7 days,"Green earthquake alert (Magnitude 5M, Depth:10km) in Tonga 27/01/2022 00:55 UTC, About 83000 people within 100km.","On 1/27/2022 12:55:31 AM, an earthquake occurred in Tonga potentially affecting About 83000 people within 100km. The earthquake had Magnitude 5M, Depth:10km.",,GDACS,https://www.gdacs.org/report.aspx?eventtype=EQ&eventid=1307668,gdacs.org,www,"['EQ', 'Green']",Tonga,TON,East Asia & Pacific,EAS,Tongatapu,Tonga,Ha‘atafu,,,"Ha‘atafu, Tongatapu, Tonga","['-20.5906', '-175.3992']","['Thu, 27 Jan 2022 00:55:31 GMT', 'Thu, 27 Jan 2022 00:55:31 GMT']"
3,GDACS_1000859,1000859,7 days,Red alert for tropical cyclone BATSIRAI-22. Population affected by Category 1 (120 km/h) wind speeds or higher is 3.788 million .,"From 27/01/2022 to 01/02/2022, a Hurricane/Typhoon > 74 mph (maximum wind speed of 204 km/h) BATSIRAI-22 was active in SWIndian. The cyclone affects these countries: Madagascar (vulnerability High). Estimated population affected by category 1 (120 km/h) wind speeds or higher is 3.788 million .",,GDACS,https://www.gdacs.org/report.aspx?eventtype=TC&eventid=1000859,gdacs.org,www,"['TC', 'Red']",Madagascar,MDG,Sub-Saharan Africa,SSF,,,,,,,"['-17.2', '60.1']","['Thu, 27 Jan 2022 00:00:00 GMT', 'Tue, 01 Feb 2022 12:00:00 GMT']"
11,GDACS_1015249,1015249,7 days,Drought is on going in Spain,The  Drought alert level is Green.,,GDACS,https://www.gdacs.org/report.aspx?eventtype=DR&eventid=1015249,gdacs.org,www,"['DR', 'Green']",Spain,ESP,Europe & Central Asia,ECS,Andalusia,Spain,Torres,,,"Torres, Andalusia, Spain","['37.743', '-3.533']","['Thu, 21 Oct 2021 00:00:00 GMT', 'Tue, 01 Feb 2022 00:00:00 GMT']"
13,GDACS_1015281,1015281,7 days,"Drought is on going in Democratic Republic of Congo, Malawi, Mozambique, Tanzania, Zambia, Zimbabwe",The  Drought alert level is Orange.,,GDACS,https://www.gdacs.org/report.aspx?eventtype=DR&eventid=1015281,gdacs.org,www,"['DR', 'Orange']","Democratic Republic of Congo, Malawi, Mozambique, Tanzania, Zambia, Zimbabwe",COD,Sub-Saharan Africa,SSF,Northern Region,Malawi,Chiziwa,,,"Chiziwa, Northern Region, Malawi","['-11.206', '34.436']","['Thu, 21 Oct 2021 00:00:00 GMT', 'Tue, 01 Feb 2022 00:00:00 GMT']"
14,GDACS_1015257,1015257,7 days,"Drought is on going in Syria, Turkey",The  Drought alert level is Green.,,GDACS,https://www.gdacs.org/report.aspx?eventtype=DR&eventid=1015257,gdacs.org,www,"['DR', 'Green']","Syria, Turkey",SYR,Middle East & North Africa,MEA,Aleppo,Syria,Khirbat Muḩammad Halīl,,,"Khirbat Muḩammad Halīl, Aleppo, Syria","['35.743', '37.997']","['Thu, 21 Oct 2021 00:00:00 GMT', 'Tue, 01 Feb 2022 00:00:00 GMT']"
40,GDACS_1308184,1308184,7 days,"Green earthquake alert (Magnitude 4.5M, Depth:10km) in Honduras 30/01/2022 22:01 UTC, About 79000 people within 100km.","On 1/30/2022 10:01:10 PM, an earthquake occurred in Honduras potentially affecting About 79000 people within 100km. The earthquake had Magnitude 4.5M, Depth:10km.",,GDACS,https://www.gdacs.org/report.aspx?eventtype=EQ&eventid=1308184,gdacs.org,www,"['EQ', 'Green']",Honduras,HND,Latin America & Caribbean,LCN,Atlántida,Honduras,Pocalis,,,"Pocalis, Atlántida, Honduras","['16.8092', '-86.0896']","['Sun, 30 Jan 2022 22:01:10 GMT', 'Sun, 30 Jan 2022 22:01:10 GMT']"
41,GDACS_1308182,1308182,7 days,"Green earthquake alert (Magnitude 4.5M, Depth:10km) in Northern East Pacfic Rise 30/01/2022 21:51 UTC, No people within 100km.","On 1/30/2022 9:51:00 PM, an earthquake occurred in Northern East Pacfic Rise potentially affecting No people within 100km. The earthquake had Magnitude 4.5M, Depth:10km.",,GDACS,https://www.gdacs.org/report.aspx?eventtype=EQ&eventid=1308182,gdacs.org,www,"['EQ', 'Green']",Northern East Pacfic Rise,,,,,,,,,,"['8.1852', '-104.251']","['Sun, 30 Jan 2022 21:51:00 GMT', 'Sun, 30 Jan 2022 21:51:00 GMT']"
42,GDACS_1308176,1308176,7 days,"Green earthquake alert (Magnitude 4.9M, Depth:59.27km) in Indonesia 30/01/2022 20:22 UTC, About 89000 people within 100km.","On 1/30/2022 8:22:20 PM, an earthquake occurred in Indonesia potentially affecting About 89000 people within 100km. The earthquake had Magnitude 4.9M, Depth:59.27km.",,GDACS,https://www.gdacs.org/report.aspx?eventtype=EQ&eventid=1308176,gdacs.org,www,"['EQ', 'Green']",Indonesia,IDN,East Asia & Pacific,EAS,East Nusa Tenggara,Indonesia,Nyiuwudu,,,"Nyiuwudu, East Nusa Tenggara, Indonesia","['-10.21', '122.3001']","['Sun, 30 Jan 2022 20:22:20 GMT', 'Sun, 30 Jan 2022 20:22:20 GMT']"
43,GDACS_1308175,1308175,7 days,"Green earthquake alert (Magnitude 4.5M, Depth:55.49km) in United States 30/01/2022 19:58 UTC, About 4000 people within 100km.","On 1/30/2022 7:58:10 PM, an earthquake occurred in United States potentially affecting About 4000 people within 100km. The earthquake had Magnitude 4.5M, Depth:55.49km.",,GDACS,https://www.gdacs.org/report.aspx?eventtype=EQ&eventid=1308175,gdacs.org,www,"['EQ', 'Green']",United States,USA,North America,NAC,Alaska,United States,Kashega,,,"Kashega, Alaska, United States","['53.2442', '-166.7876']","['Sun, 30 Jan 2022 19:58:10 GMT', 'Sun, 30 Jan 2022 19:58:10 GMT']"
44,GDACS_1308219,1308219,7 days,"Green earthquake alert (Magnitude 4.6M, Depth:10km) in Tonga 30/01/2022 17:53 UTC, About 84000 people within 100km.","On 1/30/2022 5:53:26 PM, an earthquake occurred in Tonga potentially affecting About 84000 people within 100km. The earthquake had Magnitude 4.6M, Depth:10km.",,GDACS,https://www.gdacs.org/report.aspx?eventtype=EQ&eventid=1308219,gdacs.org,www,"['EQ', 'Green']",Tonga,TON,East Asia & Pacific,EAS,Tongatapu,Tonga,Navutoka,,,"Navutoka, Tongatapu, Tonga","['-20.7439', '-175.0581']","['Sun, 30 Jan 2022 17:53:26 GMT', 'Sun, 30 Jan 2022 17:53:26 GMT']"
45,GDACS_1308152,1308152,7 days,"Green earthquake alert (Magnitude 4.5M, Depth:225.14km) in Argentina 30/01/2022 15:08 UTC, About 10000 people within 100km.","On 1/30/2022 3:08:20 PM, an earthquake occurred in Argentina potentially affecting About 10000 people within 100km. The earthquake had Magnitude 4.5M, Depth:225.14km.",,GDACS,https://www.gdacs.org/report.aspx?eventtype=EQ&eventid=1308152,gdacs.org,www,"['EQ', 'Green']",Argentina,ARG,Latin America & Caribbean,LCN,Jujuy,Argentina,Catúa,,,"Catúa, Jujuy, Argentina","['-24.0759', '-67.0847']","['Sun, 30 Jan 2022 15:08:20 GMT', 'Sun, 30 Jan 2022 15:08:20 GMT']"
46,GDACS_1308151,1308151,7 days,"Green earthquake alert (Magnitude 4.6M, Depth:548.36km) in Tonga 30/01/2022 14:48 UTC, Few people within 100km.","On 1/30/2022 2:48:28 PM, an earthquake occurred in Tonga potentially affecting Few people within 100km. The earthquake had Magnitude 4.6M, Depth:548.36km.",,GDACS,https://www.gdacs.org/report.aspx?eventtype=EQ&eventid=1308151,gdacs.org,www,"['EQ', 'Green']",Tonga,TON,East Asia & Pacific,EAS,,,,,,,"['-19.9602', '-177.4275']","['Sun, 30 Jan 2022 14:48:28 GMT', 'Sun, 30 Jan 2022 14:48:28 GMT']"
47,GDACS_1308124,1308124,7 days,"Green earthquake alert (Magnitude 4.6M, Depth:42.64km) in Indonesia 30/01/2022 11:31 UTC, No people within 100km.","On 1/30/2022 11:31:34 AM, an earthquake occurred in Indonesia potentially affecting No people within 100km. The earthquake had Magnitude 4.6M, Depth:42.64km.",,GDACS,https://www.gdacs.org/report.aspx?eventtype=EQ&eventid=1308124,gdacs.org,www,"['EQ', 'Green']",Indonesia,IDN,East Asia & Pacific,EAS,,,,,,,"['-10.1627', '117.423']","['Sun, 30 Jan 2022 11:31:34 GMT', 'Sun, 30 Jan 2022 11:31:34 GMT']"
48,GDACS_1308122,1308122,7 days,"Green earthquake alert (Magnitude 5.7M, Depth:10km) in Southern East Pacific Rise 30/01/2022 11:07 UTC, No people within 100km.","On 1/30/2022 11:07:33 AM, an earthquake occurred in Southern East Pacific Rise potentially affecting No people within 100km. The earthquake had Magnitude 5.7M, Depth:10km.",,GDACS,https://www.gdacs.org/report.aspx?eventtype=EQ&eventid=1308122,gdacs.org,www,"['EQ', 'Green']",Southern East Pacific Rise,,,,,,,,,,"['-32.0938', '-111.8029']","['Sun, 30 Jan 2022 11:07:33 GMT', 'Sun, 30 Jan 2022 11:07:33 GMT']"
49,GDACS_1308119,1308119,7 days,"Green earthquake alert (Magnitude 4.5M, Depth:114.67km) in Papua New Guinea 30/01/2022 10:23 UTC, 270000 people within 100km.","On 1/30/2022 10:23:33 AM, an earthquake occurred in Papua New Guinea potentially affecting 270000 people within 100km. The earthquake had Magnitude 4.5M, Depth:114.67km.",,GDACS,https://www.gdacs.org/report.aspx?eventtype=EQ&eventid=1308119,gdacs.org,www,"['EQ', 'Green']",Papua New Guinea,PNG,East Asia & Pacific,EAS,East Sepik,Papua New Guinea,Kitchikan,,,"Kitchikan, East Sepik, Papua New Guinea","['-4.4405', '144.4012']","['Sun, 30 Jan 2022 10:23:33 GMT', 'Sun, 30 Jan 2022 10:23:33 GMT']"
50,GDACS_1308117,1308117,7 days,"Green earthquake alert (Magnitude 4.7M, Depth:44.57km) in Russian Federation 30/01/2022 10:14 UTC, About 900 people within 100km.","On 1/30/2022 10:14:38 AM, an earthquake occurred in Russian Federation potentially affecting About 900 people within 100km. The earthquake had Magnitude 4.7M, Depth:44.57km.",,GDACS,https://www.gdacs.org/report.aspx?eventtype=EQ&eventid=1308117,gdacs.org,www,"['EQ', 'Green']",Russian Federation,RUS,Europe & Central Asia,ECS,,,,,,,"['53.7408', '161.1058']","['Sun, 30 Jan 2022 10:14:38 GMT', 'Sun, 30 Jan 2022 10:14:38 GMT']"
51,GDACS_1308104,1308104,7 days,"Green earthquake alert (Magnitude 4.8M, Depth:103.2km) in South Of Kermadec Islands 30/01/2022 04:47 UTC, No people within 100km.","On 1/30/2022 4:47:01 AM, an earthquake occurred in South Of Kermadec Islands potentially affecting No people within 100km. The earthquake had Magnitude 4.8M, Depth:103.2km.",,GDACS,https://www.gdacs.org/report.aspx?eventtype=EQ&eventid=1308104,gdacs.org,www,"['EQ', 'Green']",South Of Kermadec Islands,,,,,,,,,,"['-33.0594', '-179.6306']","['Sun, 30 Jan 2022 04:47:01 GMT', 'Sun, 30 Jan 2022 04:47:01 GMT']"
52,GDACS_1308095,1308095,7 days,"Green earthquake alert (Magnitude 4.9M, Depth:10km) in Argentina 30/01/2022 02:44 UTC, 360000 people within 100km.","On 1/30/2022 2:44:56 AM, an earthquake occurred in Argentina potentially affecting 360000 people within 100km. The earthquake had Magnitude 4.9M, Depth:10km.",,GDACS,https://www.gdacs.org/report.aspx?eventtype=EQ&eventid=1308095,gdacs.org,www,"['EQ', 'Green']",Argentina,ARG,Latin America & Caribbean,LCN,Salta,Argentina,Paraní,,,"Paraní, Salta, Argentina","['-23.313', '-64.9048']","['Sun, 30 Jan 2022 02:44:56 GMT', 'Sun, 30 Jan 2022 02:44:56 GMT']"
53,GDACS_1308072,1308072,7 days,"Green earthquake alert (Magnitude 5.2M, Depth:10km) in Philippines 30/01/2022 00:17 UTC, No people within 100km.","On 1/30/2022 12:17:13 AM, an earthquake occurred in Philippines potentially affecting No people within 100km. The earthquake had Magnitude 5.2M, Depth:10km.",,GDACS,https://www.gdacs.org/report.aspx?eventtype=EQ&eventid=1308072,gdacs.org,www,"['EQ', 'Green']",Philippines,PHL,East Asia & Pacific,EAS,,,,,,,"['15.5817', '118.284']","['Sun, 30 Jan 2022 00:17:13 GMT', 'Sun, 30 Jan 2022 00:17:13 GMT']"
18,GDACS_1014742,1014742,7 days,"Drought is on going in Ethiopia, Uganda",The  Drought alert level is Orange.,,GDACS,https://www.gdacs.org/report.aspx?eventtype=DR&eventid=1014742,gdacs.org,www,"['DR', 'Orange']","Ethiopia, Uganda",ETH,Sub-Saharan Africa,SSF,Oromiya,Ethiopia,Galu,,,"Galu, Oromiya, Ethiopia","['5.249', '39.249']","['Sun, 21 Feb 2021 00:00:00 GMT', 'Tue, 01 Feb 2022 00:00:00 GMT']"
54,GDACS_1308068,1308068,7 days,"Green earthquake alert (Magnitude 4.6M, Depth:10km) in Indonesia 29/01/2022 23:08 UTC, 310000 people within 100km.","On 1/29/2022 11:08:27 PM, an earthquake occurred in Indonesia potentially affecting 310000 people within 100km. The earthquake had Magnitude 4.6M, Depth:10km.",,GDACS,https://www.gdacs.org/report.aspx?eventtype=EQ&eventid=1308068,gdacs.org,www,"['EQ', 'Green']",Indonesia,IDN,East Asia & Pacific,EAS,Maluku,Indonesia,Lisiela,,,"Lisiela, Maluku, Indonesia","['-2.6715', '128.9841']","['Sat, 29 Jan 2022 23:08:27 GMT', 'Sat, 29 Jan 2022 23:08:27 GMT']"
55,GDACS_1308057,1308057,7 days,"Green earthquake alert (Magnitude 4.9M, Depth:10km) in Tonga 29/01/2022 21:21 UTC, About 78000 people within 100km.","On 1/29/2022 9:21:49 PM, an earthquake occurred in Tonga potentially affecting About 78000 people within 100km. The earthquake had Magnitude 4.9M, Depth:10km.",,GDACS,https://www.gdacs.org/report.aspx?eventtype=EQ&eventid=1308057,gdacs.org,www,"['EQ', 'Green']",Tonga,TON,East Asia & Pacific,EAS,Tongatapu,Tonga,Ha‘atafu,,,"Ha‘atafu, Tongatapu, Tonga","['-20.609', '-175.5317']","['Sat, 29 Jan 2022 21:21:49 GMT', 'Sat, 29 Jan 2022 21:21:49 GMT']"
56,GDACS_1308053,1308053,7 days,"Green earthquake alert (Magnitude 4.6M, Depth:198.28km) in Bolivia 29/01/2022 20:46 UTC, About 15000 people within 100km.","On 1/29/2022 8:46:05 PM, an earthquake occurred in Bolivia potentially affecting About 15000 people within 100km. The earthquake had Magnitude 4.6M, Depth:198.28km.",,GDACS,https://www.gdacs.org/report.aspx?eventtype=EQ&eventid=1308053,gdacs.org,www,"['EQ', 'Green']",Bolivia,BOL,Latin America & Caribbean,LCN,Potosí,Bolivia,Aguas Calientes,,,"Aguas Calientes, Potosí, Bolivia","['-21.9207', '-67.5516']","['Sat, 29 Jan 2022 20:46:05 GMT', 'Sat, 29 Jan 2022 20:46:05 GMT']"
57,GDACS_1308028,1308028,7 days,"Green earthquake alert (Magnitude 4.6M, Depth:14.34km) in Indonesia 29/01/2022 14:36 UTC, 200000 people within 100km.","On 1/29/2022 2:36:03 PM, an earthquake occurred in Indonesia potentially affecting 200000 people within 100km. The earthquake had Magnitude 4.6M, Depth:14.34km.",,GDACS,https://www.gdacs.org/report.aspx?eventtype=EQ&eventid=1308028,gdacs.org,www,"['EQ', 'Green']",Indonesia,IDN,East Asia & Pacific,EAS,,Indonesia,Birang,,,"Birang, , Indonesia","['3.8003', '126.8074']","['Sat, 29 Jan 2022 14:36:03 GMT', 'Sat, 29 Jan 2022 14:36:03 GMT']"
58,GDACS_1308027,1308027,7 days,"Green earthquake alert (Magnitude 4.9M, Depth:10km) in Kermadec Islands Region 29/01/2022 14:09 UTC, No people within 100km.","On 1/29/2022 2:09:04 PM, an earthquake occurred in Kermadec Islands Region potentially affecting No people within 100km. The earthquake had Magnitude 4.9M, Depth:10km.",,GDACS,https://www.gdacs.org/report.aspx?eventtype=EQ&eventid=1308027,gdacs.org,www,"['EQ', 'Green']",Kermadec Islands Region,,,,,,,,,,"['-29.6507', '-176.5951']","['Sat, 29 Jan 2022 14:09:04 GMT', 'Sat, 29 Jan 2022 14:09:04 GMT']"
59,GDACS_1308008,1308008,7 days,"Green earthquake alert (Magnitude 5.1M, Depth:10km) in Trinidad and Tobago 29/01/2022 13:40 UTC, 1080000 people within 100km.","On 1/29/2022 1:40:07 PM, an earthquake occurred in Trinidad and Tobago potentially affecting 1080000 people within 100km. The earthquake had Magnitude 5.1M, Depth:10km.",,GDACS,https://www.gdacs.org/report.aspx?eventtype=EQ&eventid=1308008,gdacs.org,www,"['EQ', 'Green']",Trinidad and Tobago,TTO,Latin America & Caribbean,LCN,Sangre Grande,Trinidad and Tobago,L’Anse Noire,,,"L’Anse Noire, Sangre Grande, Trinidad and Tobago","['10.9713', '-60.987']","['Sat, 29 Jan 2022 13:40:07 GMT', 'Sat, 29 Jan 2022 13:40:07 GMT']"
60,GDACS_1308005,1308005,7 days,"Green earthquake alert (Magnitude 4.5M, Depth:121.03km) in Argentina 29/01/2022 12:56 UTC, About 80000 people within 100km.","On 1/29/2022 12:56:53 PM, an earthquake occurred in Argentina potentially affecting About 80000 people within 100km. The earthquake had Magnitude 4.5M, Depth:121.03km.",,GDACS,https://www.gdacs.org/report.aspx?eventtype=EQ&eventid=1308005,gdacs.org,www,"['EQ', 'Green']",Argentina,ARG,Latin America & Caribbean,LCN,Catamarca,Argentina,La Puntilla,,,"La Puntilla, Catamarca, Argentina","['-28.155', '-67.4906']","['Sat, 29 Jan 2022 12:56:53 GMT', 'Sat, 29 Jan 2022 12:56:53 GMT']"
61,GDACS_1307999,1307999,7 days,"Green earthquake alert (Magnitude 4.6M, Depth:10km) in Kermadec Islands, New Zealand 29/01/2022 11:12 UTC, No people within 100km.","On 1/29/2022 11:12:15 AM, an earthquake occurred in Kermadec Islands, New Zealand potentially affecting No people within 100km. The earthquake had Magnitude 4.6M, Depth:10km.",,GDACS,https://www.gdacs.org/report.aspx?eventtype=EQ&eventid=1307999,gdacs.org,www,"['EQ', 'Green']","Kermadec Islands, New Zealand",,,,,,,,,,"['-29.8508', '-177.2141']","['Sat, 29 Jan 2022 11:12:15 GMT', 'Sat, 29 Jan 2022 11:12:15 GMT']"
62,GDACS_1307993,1307993,7 days,"Green earthquake alert (Magnitude 4.7M, Depth:35km) in United States 29/01/2022 10:23 UTC, Few people within 100km.","On 1/29/2022 10:23:00 AM, an earthquake occurred in United States potentially affecting Few people within 100km. The earthquake had Magnitude 4.7M, Depth:35km.",,GDACS,https://www.gdacs.org/report.aspx?eventtype=EQ&eventid=1307993,gdacs.org,www,"['EQ', 'Green']",United States,USA,North America,NAC,Alaska,United States,Tigalda (historical),,,"Tigalda (historical), Alaska, United States","['53.8054', '-164.0669']","['Sat, 29 Jan 2022 10:23:00 GMT', 'Sat, 29 Jan 2022 10:23:00 GMT']"
63,GDACS_1307992,1307992,7 days,"Green earthquake alert (Magnitude 4.6M, Depth:35km) in United States 29/01/2022 09:56 UTC, Few people within 100km.","On 1/29/2022 9:56:16 AM, an earthquake occurred in United States potentially affecting Few people within 100km. The earthquake had Magnitude 4.6M, Depth:35km.",,GDACS,https://www.gdacs.org/report.aspx?eventtype=EQ&eventid=1307992,gdacs.org,www,"['EQ', 'Green']",United States,USA,North America,NAC,Alaska,United States,Tigalda (historical),,,"Tigalda (historical), Alaska, United States","['53.8797', '-164.0614']","['Sat, 29 Jan 2022 09:56:16 GMT', 'Sat, 29 Jan 2022 09:56:16 GMT']"
64,GDACS_1307990,1307990,7 days,"Green earthquake alert (Magnitude 4.8M, Depth:35km) in United States 29/01/2022 09:33 UTC, No people within 100km.","On 1/29/2022 9:33:54 AM, an earthquake occurred in United States potentially affecting No people within 100km. The earthquake had Magnitude 4.8M, Depth:35km.",,GDACS,https://www.gdacs.org/report.aspx?eventtype=EQ&eventid=1307990,gdacs.org,www,"['EQ', 'Green']",United States,USA,North America,NAC,Alaska,United States,Tigalda (historical),,,"Tigalda (historical), Alaska, United States","['53.7894', '-164.0271']","['Sat, 29 Jan 2022 09:33:54 GMT', 'Sat, 29 Jan 2022 09:33:54 GMT']"
65,GDACS_1307988,1307988,7 days,"Green earthquake alert (Magnitude 4.9M, Depth:10km) in Kermadec Islands Region 29/01/2022 08:48 UTC, No people within 100km.","On 1/29/2022 8:48:00 AM, an earthquake occurred in Kermadec Islands Region potentially affecting No people within 100km. The earthquake had Magnitude 4.9M, Depth:10km.",,GDACS,https://www.gdacs.org/report.aspx?eventtype=EQ&eventid=1307988,gdacs.org,www,"['EQ', 'Green']",Kermadec Islands Region,,,,,,,,,,"['-29.6633', '-176.6341']","['Sat, 29 Jan 2022 08:48:00 GMT', 'Sat, 29 Jan 2022 08:48:00 GMT']"
66,GDACS_1307979,1307979,7 days,"Green earthquake alert (Magnitude 4.9M, Depth:10km) in Kermadec Islands Region 29/01/2022 07:30 UTC, No people within 100km.","On 1/29/2022 7:30:27 AM, an earthquake occurred in Kermadec Islands Region potentially affecting No people within 100km. The earthquake had Magnitude 4.9M, Depth:10km.",,GDACS,https://www.gdacs.org/report.aspx?eventtype=EQ&eventid=1307979,gdacs.org,www,"['EQ', 'Green']",Kermadec Islands Region,,,,,,,,,,"['-29.3155', '-176.6452']","['Sat, 29 Jan 2022 07:30:27 GMT', 'Sat, 29 Jan 2022 07:30:27 GMT']"
67,GDACS_1307965,1307965,7 days,"Green earthquake alert (Magnitude 5.8M, Depth:10km) in Kermadec Islands Region 29/01/2022 04:59 UTC, No people within 100km.","On 1/29/2022 4:59:10 AM, an earthquake occurred in Kermadec Islands Region potentially affecting No people within 100km. The earthquake had Magnitude 5.8M, Depth:10km.",,GDACS,https://www.gdacs.org/report.aspx?eventtype=EQ&eventid=1307965,gdacs.org,www,"['EQ', 'Green']",Kermadec Islands Region,,,,,,,,,,"['-29.6608', '-176.9055']","['Sat, 29 Jan 2022 04:59:10 GMT', 'Sat, 29 Jan 2022 04:59:10 GMT']"
68,GDACS_1307964,1307964,7 days,"Green earthquake alert (Magnitude 5M, Depth:10km) in Kermadec Islands Region 29/01/2022 04:42 UTC, No people within 100km.","On 1/29/2022 4:42:36 AM, an earthquake occurred in Kermadec Islands Region potentially affecting No people within 100km. The earthquake had Magnitude 5M, Depth:10km.",,GDACS,https://www.gdacs.org/report.aspx?eventtype=EQ&eventid=1307964,gdacs.org,www,"['EQ', 'Green']",Kermadec Islands Region,,,,,,,,,,"['-29.6316', '-176.4856']","['Sat, 29 Jan 2022 04:42:36 GMT', 'Sat, 29 Jan 2022 04:42:36 GMT']"
69,GDACS_1307960,1307960,7 days,"Green earthquake alert (Magnitude 5.1M, Depth:10km) in Kermadec Islands Region 29/01/2022 04:38 UTC, No people within 100km.","On 1/29/2022 4:38:58 AM, an earthquake occurred in Kermadec Islands Region potentially affecting No people within 100km. The earthquake had Magnitude 5.1M, Depth:10km.",,GDACS,https://www.gdacs.org/report.aspx?eventtype=EQ&eventid=1307960,gdacs.org,www,"['EQ', 'Green']",Kermadec Islands Region,,,,,,,,,,"['-29.7775', '-176.6215']","['Sat, 29 Jan 2022 04:38:58 GMT', 'Sat, 29 Jan 2022 04:38:58 GMT']"
70,GDACS_1307953,1307953,7 days,"Green earthquake alert (Magnitude 4.9M, Depth:83.32km) in El Salvador 29/01/2022 03:19 UTC, 3780000 people within 100km.","On 1/29/2022 3:19:29 AM, an earthquake occurred in El Salvador potentially affecting 3780000 people within 100km. The earthquake had Magnitude 4.9M, Depth:83.32km.",,GDACS,https://www.gdacs.org/report.aspx?eventtype=EQ&eventid=1307953,gdacs.org,www,"['EQ', 'Green']",El Salvador,SLV,Latin America & Caribbean,LCN,Usulután,El Salvador,Isla de Méndez,,,"Isla de Méndez, Usulután, El Salvador","['13.0505', '-88.6847']","['Sat, 29 Jan 2022 03:19:29 GMT', 'Sat, 29 Jan 2022 03:19:29 GMT']"
71,GDACS_1307959,1307959,7 days,"Green earthquake alert (Magnitude 5.1M, Depth:10km) in Kermadec Islands Region 29/01/2022 03:04 UTC, No people within 100km.","On 1/29/2022 3:04:51 AM, an earthquake occurred in Kermadec Islands Region potentially affecting No people within 100km. The earthquake had Magnitude 5.1M, Depth:10km.",,GDACS,https://www.gdacs.org/report.aspx?eventtype=EQ&eventid=1307959,gdacs.org,www,"['EQ', 'Green']",Kermadec Islands Region,,,,,,,,,,"['-29.7927', '-176.8112']","['Sat, 29 Jan 2022 03:04:51 GMT', 'Sat, 29 Jan 2022 03:04:51 GMT']"
72,GDACS_1307951,1307951,7 days,"Green earthquake alert (Magnitude 5.3M, Depth:10km) in Kermadec Islands Region 29/01/2022 03:01 UTC, No people within 100km.","On 1/29/2022 3:01:29 AM, an earthquake occurred in Kermadec Islands Region potentially affecting No people within 100km. The earthquake had Magnitude 5.3M, Depth:10km.",,GDACS,https://www.gdacs.org/report.aspx?eventtype=EQ&eventid=1307951,gdacs.org,www,"['EQ', 'Green']",Kermadec Islands Region,,,,,,,,,,"['-29.7553', '-176.7022']","['Sat, 29 Jan 2022 03:01:29 GMT', 'Sat, 29 Jan 2022 03:01:29 GMT']"
73,GDACS_1307956,1307956,7 days,"Green earthquake alert (Magnitude 5.3M, Depth:10km) in Kermadec Islands Region 29/01/2022 02:53 UTC, No people within 100km.","On 1/29/2022 2:53:25 AM, an earthquake occurred in Kermadec Islands Region potentially affecting No people within 100km. The earthquake had Magnitude 5.3M, Depth:10km.",,GDACS,https://www.gdacs.org/report.aspx?eventtype=EQ&eventid=1307956,gdacs.org,www,"['EQ', 'Green']",Kermadec Islands Region,,,,,,,,,,"['-29.6247', '-176.759']","['Sat, 29 Jan 2022 02:53:25 GMT', 'Sat, 29 Jan 2022 02:53:25 GMT']"
74,GDACS_1307946,1307946,7 days,"Green earthquake alert (Magnitude 6.5M, Depth:10km) in Kermadec Islands Region 29/01/2022 02:46 UTC, No people within 100km.","On 1/29/2022 2:46:39 AM, an earthquake occurred in Kermadec Islands Region potentially affecting No people within 100km. The earthquake had Magnitude 6.5M, Depth:10km.",,GDACS,https://www.gdacs.org/report.aspx?eventtype=EQ&eventid=1307946,gdacs.org,www,"['EQ', 'Green']",Kermadec Islands Region,,,,,,,,,,"['-29.5308', '-176.7488']","['Sat, 29 Jan 2022 02:46:39 GMT', 'Sat, 29 Jan 2022 02:46:39 GMT']"
22,GDACS_1013868,1013868,7 days,"Drought is on going in Argentina, Bolivia, Brazil, Paraguay, Uruguay",The  Drought alert level is Orange.,,GDACS,https://www.gdacs.org/report.aspx?eventtype=DR&eventid=1013868,gdacs.org,www,"['DR', 'Orange']","Argentina, Bolivia, Brazil, Paraguay, Uruguay",ARG,Latin America & Caribbean,LCN,Rondônia,Brazil,Aldeia Capitão Moa,,,"Aldeia Capitão Moa, Rondônia, Brazil","['-11.21', '-60.237']","['Sat, 21 Dec 2019 00:00:00 GMT', 'Tue, 01 Feb 2022 00:00:00 GMT']"
24,GDACS_1308351,1308351,7 days,"Green earthquake alert (Magnitude 4.6M, Depth:10km) in Tonga 31/01/2022 22:18 UTC, About 83000 people within 100km.","On 1/31/2022 10:18:32 PM, an earthquake occurred in Tonga potentially affecting About 83000 people within 100km. The earthquake had Magnitude 4.6M, Depth:10km.",,GDACS,https://www.gdacs.org/report.aspx?eventtype=EQ&eventid=1308351,gdacs.org,www,"['EQ', 'Green']",Tonga,TON,East Asia & Pacific,EAS,Tongatapu,Tonga,Ha‘atafu,,,"Ha‘atafu, Tongatapu, Tonga","['-20.8299', '-175.3351']","['Mon, 31 Jan 2022 22:18:32 GMT', 'Mon, 31 Jan 2022 22:18:32 GMT']"
25,GDACS_1308340,1308340,7 days,"Green earthquake alert (Magnitude 4.6M, Depth:10km) in China 31/01/2022 22:01 UTC, 6040000 people within 100km.","On 1/31/2022 10:01:27 PM, an earthquake occurred in China potentially affecting 6040000 people within 100km. The earthquake had Magnitude 4.6M, Depth:10km.",,GDACS,https://www.gdacs.org/report.aspx?eventtype=EQ&eventid=1308340,gdacs.org,www,"['EQ', 'Green']",China,CHN,East Asia & Pacific,EAS,Sichuan,China,Maluoping,,,"Maluoping, Sichuan, China","['31.9577', '104.3423']","['Mon, 31 Jan 2022 22:01:27 GMT', 'Mon, 31 Jan 2022 22:01:27 GMT']"
26,GDACS_1308332,1308332,7 days,"Green earthquake alert (Magnitude 4.5M, Depth:12.45km) in Chile 31/01/2022 21:36 UTC, 450000 people within 100km.","On 1/31/2022 9:36:17 PM, an earthquake occurred in Chile potentially affecting 450000 people within 100km. The earthquake had Magnitude 4.5M, Depth:12.45km.",,GDACS,https://www.gdacs.org/report.aspx?eventtype=EQ&eventid=1308332,gdacs.org,www,"['EQ', 'Green']",Chile,CHL,Latin America & Caribbean,LCN,Coquimbo Region,Chile,Lengua de Vaca,,,"Lengua de Vaca, Coquimbo Region, Chile","['-29.9048', '-71.9961']","['Mon, 31 Jan 2022 21:36:17 GMT', 'Mon, 31 Jan 2022 21:36:17 GMT']"
27,GDACS_1308350,1308350,7 days,"Green earthquake alert (Magnitude 4.7M, Depth:10km) in Tonga 31/01/2022 20:07 UTC, About 83000 people within 100km.","On 1/31/2022 8:07:13 PM, an earthquake occurred in Tonga potentially affecting About 83000 people within 100km. The earthquake had Magnitude 4.7M, Depth:10km.",,GDACS,https://www.gdacs.org/report.aspx?eventtype=EQ&eventid=1308350,gdacs.org,www,"['EQ', 'Green']",Tonga,TON,East Asia & Pacific,EAS,Tongatapu,Tonga,Ha‘atafu,,,"Ha‘atafu, Tongatapu, Tonga","['-20.6601', '-175.4481']","['Mon, 31 Jan 2022 20:07:13 GMT', 'Mon, 31 Jan 2022 20:07:13 GMT']"
2,GDACS_1000862,1000862,7 days,Green alert for tropical cyclone NINE-22. Population affected by Category 1 (120 km/h) wind speeds or higher is 0  (0 in Tropical Storm).,"From 31/01/2022 to 01/02/2022, a Tropical Storm (maximum wind speed of 102 km/h) NINE-22 was active in SWPacific. The cyclone affects these countries: New Caledonia, Vanuatu (vulnerability Medium). Estimated population affected by category 1 (120 km/h) wind speeds or higher is 0  (0 in tropical storm).",,GDACS,https://www.gdacs.org/report.aspx?eventtype=TC&eventid=1000862,gdacs.org,www,"['TC', 'Green']","New Caledonia, Vanuatu",NCL,East Asia & Pacific,EAS,,,,,,,"['-15.4', '153.9']","['Mon, 31 Jan 2022 18:00:00 GMT', 'Tue, 01 Feb 2022 12:00:00 GMT']"
28,GDACS_1308299,1308299,7 days,"Green earthquake alert (Magnitude 4.5M, Depth:12.03km) in United States 31/01/2022 17:10 UTC, 460000 people within 100km.","On 1/31/2022 5:10:21 PM, an earthquake occurred in United States potentially affecting 460000 people within 100km. The earthquake had Magnitude 4.5M, Depth:12.03km.",,GDACS,https://www.gdacs.org/report.aspx?eventtype=EQ&eventid=1308299,gdacs.org,www,"['EQ', 'Green']",United States,USA,North America,NAC,Oklahoma,United States,Clyde,,,"Clyde, Oklahoma, United States","['36.8563', '-97.8025']","['Mon, 31 Jan 2022 17:10:21 GMT', 'Mon, 31 Jan 2022 17:10:21 GMT']"
29,GDACS_1308281,1308281,7 days,"Green earthquake alert (Magnitude 4.9M, Depth:10km) in Kermadec Islands Region 31/01/2022 14:15 UTC, No people within 100km.","On 1/31/2022 2:15:08 PM, an earthquake occurred in Kermadec Islands Region potentially affecting No people within 100km. The earthquake had Magnitude 4.9M, Depth:10km.",,GDACS,https://www.gdacs.org/report.aspx?eventtype=EQ&eventid=1308281,gdacs.org,www,"['EQ', 'Green']",Kermadec Islands Region,,,,,,,,,,"['-29.5358', '-176.9171']","['Mon, 31 Jan 2022 14:15:08 GMT', 'Mon, 31 Jan 2022 14:15:08 GMT']"
30,GDACS_1308265,1308265,7 days,"Green earthquake alert (Magnitude 4.6M, Depth:10km) in Kermadec Islands Region 31/01/2022 13:16 UTC, No people within 100km.","On 1/31/2022 1:16:42 PM, an earthquake occurred in Kermadec Islands Region potentially affecting No people within 100km. The earthquake had Magnitude 4.6M, Depth:10km.",,GDACS,https://www.gdacs.org/report.aspx?eventtype=EQ&eventid=1308265,gdacs.org,www,"['EQ', 'Green']",Kermadec Islands Region,,,,,,,,,,"['-29.6862', '-176.8862']","['Mon, 31 Jan 2022 13:16:42 GMT', 'Mon, 31 Jan 2022 13:16:42 GMT']"
31,GDACS_1308259,1308259,7 days,"Green earthquake alert (Magnitude 5.2M, Depth:10km) in Yemen 31/01/2022 12:42 UTC, No people within 100km.","On 1/31/2022 12:42:18 PM, an earthquake occurred in Yemen potentially affecting No people within 100km. The earthquake had Magnitude 5.2M, Depth:10km.",,GDACS,https://www.gdacs.org/report.aspx?eventtype=EQ&eventid=1308259,gdacs.org,www,"['EQ', 'Green']",Yemen,YEM,Middle East & North Africa,MEA,,,,,,,"['14.4453', '56.3702']","['Mon, 31 Jan 2022 12:42:18 GMT', 'Mon, 31 Jan 2022 12:42:18 GMT']"
32,GDACS_1308258,1308258,7 days,"Green earthquake alert (Magnitude 5.2M, Depth:10km) in Yemen 31/01/2022 12:38 UTC, No people within 100km.","On 1/31/2022 12:38:15 PM, an earthquake occurred in Yemen potentially affecting No people within 100km. The earthquake had Magnitude 5.2M, Depth:10km.",,GDACS,https://www.gdacs.org/report.aspx?eventtype=EQ&eventid=1308258,gdacs.org,www,"['EQ', 'Green']",Yemen,YEM,Middle East & North Africa,MEA,,,,,,,"['14.4243', '56.2756']","['Mon, 31 Jan 2022 12:38:15 GMT', 'Mon, 31 Jan 2022 12:38:15 GMT']"
33,GDACS_1308256,1308256,7 days,"Green earthquake alert (Magnitude 5.9M, Depth:10km) in Kermadec Islands Region 31/01/2022 12:14 UTC, No people within 100km.","On 1/31/2022 12:14:35 PM, an earthquake occurred in Kermadec Islands Region potentially affecting No people within 100km. The earthquake had Magnitude 5.9M, Depth:10km.",,GDACS,https://www.gdacs.org/report.aspx?eventtype=EQ&eventid=1308256,gdacs.org,www,"['EQ', 'Green']",Kermadec Islands Region,,,,,,,,,,"['-29.5255', '-176.7864']","['Mon, 31 Jan 2022 12:14:35 GMT', 'Mon, 31 Jan 2022 12:14:35 GMT']"
34,GDACS_1308253,1308253,7 days,"Green earthquake alert (Magnitude 5.2M, Depth:10km) in Yemen 31/01/2022 11:56 UTC, No people within 100km.","On 1/31/2022 11:56:37 AM, an earthquake occurred in Yemen potentially affecting No people within 100km. The earthquake had Magnitude 5.2M, Depth:10km.",,GDACS,https://www.gdacs.org/report.aspx?eventtype=EQ&eventid=1308253,gdacs.org,www,"['EQ', 'Green']",Yemen,YEM,Middle East & North Africa,MEA,,,,,,,"['14.5056', '56.3894']","['Mon, 31 Jan 2022 11:56:37 GMT', 'Mon, 31 Jan 2022 11:56:37 GMT']"
35,GDACS_1308248,1308248,7 days,"Green earthquake alert (Magnitude 5.4M, Depth:10km) in Kermadec Islands Region 31/01/2022 11:26 UTC, No people within 100km.","On 1/31/2022 11:26:53 AM, an earthquake occurred in Kermadec Islands Region potentially affecting No people within 100km. The earthquake had Magnitude 5.4M, Depth:10km.",,GDACS,https://www.gdacs.org/report.aspx?eventtype=EQ&eventid=1308248,gdacs.org,www,"['EQ', 'Green']",Kermadec Islands Region,,,,,,,,,,"['-29.5677', '-176.9735']","['Mon, 31 Jan 2022 11:26:53 GMT', 'Mon, 31 Jan 2022 11:26:53 GMT']"
36,GDACS_1308247,1308247,7 days,"Green earthquake alert (Magnitude 5.7M, Depth:10km) in Kermadec Islands, New Zealand 31/01/2022 11:21 UTC, No people within 100km.","On 1/31/2022 11:21:45 AM, an earthquake occurred in Kermadec Islands, New Zealand potentially affecting No people within 100km. The earthquake had Magnitude 5.7M, Depth:10km.",,GDACS,https://www.gdacs.org/report.aspx?eventtype=EQ&eventid=1308247,gdacs.org,www,"['EQ', 'Green']","Kermadec Islands, New Zealand",,,,,,,,,,"['-29.6471', '-177.0327']","['Mon, 31 Jan 2022 11:21:45 GMT', 'Mon, 31 Jan 2022 11:21:45 GMT']"
37,GDACS_1308238,1308238,7 days,"Green earthquake alert (Magnitude 4.5M, Depth:10km) in Turkey 31/01/2022 09:30 UTC, 2190000 people within 100km.","On 1/31/2022 9:30:37 AM, an earthquake occurred in Turkey potentially affecting 2190000 people within 100km. The earthquake had Magnitude 4.5M, Depth:10km.",,GDACS,https://www.gdacs.org/report.aspx?eventtype=EQ&eventid=1308238,gdacs.org,www,"['EQ', 'Green']",Turkey,TUR,Europe & Central Asia,ECS,Konya,Turkey,Mülayim,,,"Mülayim, Konya, Turkey","['37.972', '32.0739']","['Mon, 31 Jan 2022 09:30:37 GMT', 'Mon, 31 Jan 2022 09:30:37 GMT']"
38,GDACS_1308194,1308194,7 days,"Green earthquake alert (Magnitude 4.7M, Depth:10km) in Turkey 31/01/2022 00:49 UTC, 1410000 people within 100km.","On 1/31/2022 12:49:57 AM, an earthquake occurred in Turkey potentially affecting 1410000 people within 100km. The earthquake had Magnitude 4.7M, Depth:10km.",,GDACS,https://www.gdacs.org/report.aspx?eventtype=EQ&eventid=1308194,gdacs.org,www,"['EQ', 'Green']",Turkey,TUR,Europe & Central Asia,ECS,Bingöl,Turkey,Günlük,,,"Günlük, Bingöl, Turkey","['39.1661', '40.1204']","['Mon, 31 Jan 2022 00:49:57 GMT', 'Mon, 31 Jan 2022 00:49:57 GMT']"
39,GDACS_1308191,1308191,7 days,"Green earthquake alert (Magnitude 5.1M, Depth:78.31km) in Peru 31/01/2022 00:08 UTC, 170000 people within 100km.","On 1/31/2022 12:08:15 AM, an earthquake occurred in Peru potentially affecting 170000 people within 100km. The earthquake had Magnitude 5.1M, Depth:78.31km.",,GDACS,https://www.gdacs.org/report.aspx?eventtype=EQ&eventid=1308191,gdacs.org,www,"['EQ', 'Green']",Peru,PER,Latin America & Caribbean,LCN,Ayacucho,Peru,Quishuarcancha,,,"Quishuarcancha, Ayacucho, Peru","['-14.9659', '-73.9859']","['Mon, 31 Jan 2022 00:08:15 GMT', 'Mon, 31 Jan 2022 00:08:15 GMT']"
121,GDACS_1101271,1101271,7 days,Green flood alert in Uganda,"On 24/01/2022, a flood started in Uganda, lasting until 26/01/2022 (last update). The flood caused 9 deaths and 0 displaced .",,GDACS,https://www.gdacs.org/report.aspx?eventtype=FL&eventid=1101271,gdacs.org,www,"['FL', 'Green']",Uganda,UGA,Sub-Saharan Africa,SSF,Western Region,Uganda,Chahi,,,"Chahi, Western Region, Uganda","['-1.2837883', '29.6976906']","['Mon, 24 Jan 2022 01:00:00 GMT', 'Wed, 26 Jan 2022 01:00:00 GMT']"
122,GDACS_1101269,1101269,7 days,Green flood alert in Mozambique,"On 24/01/2022, a flood started in Mozambique, lasting until 26/01/2022 (last update). The flood caused 2 deaths and 0 displaced .",,GDACS,https://www.gdacs.org/report.aspx?eventtype=FL&eventid=1101269,gdacs.org,www,"['FL', 'Green']",Mozambique,MOZ,Sub-Saharan Africa,SSF,Cabo Delgado,Mozambique,Utane,,,"Utane, Cabo Delgado, Mozambique","['-12.0750306', '40.1091813']","['Mon, 24 Jan 2022 01:00:00 GMT', 'Wed, 26 Jan 2022 01:00:00 GMT']"
123,GDACS_1101268,1101268,7 days,Green flood alert in Malawi,"On 24/01/2022, a flood started in Malawi, lasting until 26/01/2022 (last update). The flood caused 0 deaths and 50 displaced .",,GDACS,https://www.gdacs.org/report.aspx?eventtype=FL&eventid=1101268,gdacs.org,www,"['FL', 'Green']",Malawi,MWI,Sub-Saharan Africa,SSF,Southern Region,Malawi,Alumenda,,,"Alumenda, Southern Region, Malawi","['-16.21538195', '34.7228393243151']","['Mon, 24 Jan 2022 01:00:00 GMT', 'Wed, 26 Jan 2022 01:00:00 GMT']"
23,GDACS_1014695,1014695,7 days,"Drought is on going in Algeria, Spain, Morocco, Tunisia",The  Drought alert level is Green.,,GDACS,https://www.gdacs.org/report.aspx?eventtype=DR&eventid=1014695,gdacs.org,www,"['DR', 'Green']","Algeria, Spain, Morocco, Tunisia",DZA,Middle East & North Africa,MEA,Al Qaşrayn,Tunisia,Borj Mejen Bel Abbès,,,"Borj Mejen Bel Abbès, Al Qaşrayn, Tunisia","['34.768', '8.637']","['Mon, 21 Dec 2020 00:00:00 GMT', 'Tue, 01 Feb 2022 00:00:00 GMT']"
75,GDACS_1307922,1307922,7 days,"Green earthquake alert (Magnitude 4.5M, Depth:32.04km) in Indonesia 28/01/2022 23:38 UTC, About 84000 people within 100km.","On 1/28/2022 11:38:14 PM, an earthquake occurred in Indonesia potentially affecting About 84000 people within 100km. The earthquake had Magnitude 4.5M, Depth:32.04km.",,GDACS,https://www.gdacs.org/report.aspx?eventtype=EQ&eventid=1307922,gdacs.org,www,"['EQ', 'Green']",Indonesia,IDN,East Asia & Pacific,EAS,Bengkulu,Indonesia,Lakoaha,,,"Lakoaha, Bengkulu, Indonesia","['-5.0393', '102.2844']","['Fri, 28 Jan 2022 23:38:14 GMT', 'Fri, 28 Jan 2022 23:38:14 GMT']"
76,GDACS_1308071,1308071,7 days,"Green earthquake alert (Magnitude 4.9M, Depth:10km) in Tonga 28/01/2022 21:12 UTC, About 83000 people within 100km.","On 1/28/2022 9:12:20 PM, an earthquake occurred in Tonga potentially affecting About 83000 people within 100km. The earthquake had Magnitude 4.9M, Depth:10km.",,GDACS,https://www.gdacs.org/report.aspx?eventtype=EQ&eventid=1308071,gdacs.org,www,"['EQ', 'Green']",Tonga,TON,East Asia & Pacific,EAS,Tongatapu,Tonga,Ha‘atafu,,,"Ha‘atafu, Tongatapu, Tonga","['-20.8398', '-175.4065']","['Fri, 28 Jan 2022 21:12:20 GMT', 'Fri, 28 Jan 2022 21:12:20 GMT']"
77,GDACS_1307910,1307910,7 days,"Green earthquake alert (Magnitude 4.8M, Depth:54.91km) in Japan 28/01/2022 21:00 UTC, 370000 people within 100km.","On 1/28/2022 9:00:33 PM, an earthquake occurred in Japan potentially affecting 370000 people within 100km. The earthquake had Magnitude 4.8M, Depth:54.91km.",,GDACS,https://www.gdacs.org/report.aspx?eventtype=EQ&eventid=1307910,gdacs.org,www,"['EQ', 'Green']",Japan,JPN,East Asia & Pacific,EAS,Iwate,Japan,Sasu,,,"Sasu, Iwate, Japan","['39.1514', '142.3999']","['Fri, 28 Jan 2022 21:00:33 GMT', 'Fri, 28 Jan 2022 21:00:33 GMT']"
78,GDACS_1307900,1307900,7 days,"Green earthquake alert (Magnitude 4.6M, Depth:203.64km) in Tonga 28/01/2022 18:58 UTC, No people within 100km.","On 1/28/2022 6:58:08 PM, an earthquake occurred in Tonga potentially affecting No people within 100km. The earthquake had Magnitude 4.6M, Depth:203.64km.",,GDACS,https://www.gdacs.org/report.aspx?eventtype=EQ&eventid=1307900,gdacs.org,www,"['EQ', 'Green']",Tonga,TON,East Asia & Pacific,EAS,,,,,,,"['-21.6367', '-176.478']","['Fri, 28 Jan 2022 18:58:08 GMT', 'Fri, 28 Jan 2022 18:58:08 GMT']"
79,GDACS_1307892,1307892,7 days,"Green earthquake alert (Magnitude 4.7M, Depth:86.78km) in South Georgia and the South Sandwich Islands 28/01/2022 16:52 UTC, No people within 100km.","On 1/28/2022 4:52:08 PM, an earthquake occurred in South Georgia and the South Sandwich Islands potentially affecting No people within 100km. The earthquake had Magnitude 4.7M, Depth:86.78km.",,GDACS,https://www.gdacs.org/report.aspx?eventtype=EQ&eventid=1307892,gdacs.org,www,"['EQ', 'Green']",South Georgia and the South Sandwich Islands,SGS,,,,,,,,,"['-59.3185', '-25.4108']","['Fri, 28 Jan 2022 16:52:08 GMT', 'Fri, 28 Jan 2022 16:52:08 GMT']"
80,GDACS_1307893,1307893,7 days,"Green earthquake alert (Magnitude 4.5M, Depth:120.09km) in Afghanistan 28/01/2022 16:49 UTC, 790000 people within 100km.","On 1/28/2022 4:49:10 PM, an earthquake occurred in Afghanistan potentially affecting 790000 people within 100km. The earthquake had Magnitude 4.5M, Depth:120.09km.",,GDACS,https://www.gdacs.org/report.aspx?eventtype=EQ&eventid=1307893,gdacs.org,www,"['EQ', 'Green']",Afghanistan,AFG,South Asia,SAS,Badakhshan,Afghanistan,Yamak,,,"Yamak, Badakhshan, Afghanistan","['36.0855', '70.4709']","['Fri, 28 Jan 2022 16:49:10 GMT', 'Fri, 28 Jan 2022 16:49:10 GMT']"
81,GDACS_1307886,1307886,7 days,"Green earthquake alert (Magnitude 4.8M, Depth:10km) in Antarctica 28/01/2022 13:46 UTC, No people within 100km.","On 1/28/2022 1:46:29 PM, an earthquake occurred in Antarctica potentially affecting No people within 100km. The earthquake had Magnitude 4.8M, Depth:10km.",,GDACS,https://www.gdacs.org/report.aspx?eventtype=EQ&eventid=1307886,gdacs.org,www,"['EQ', 'Green']",Antarctica,ATA,,,,,,,,,"['-61.4438', '-37.0094']","['Fri, 28 Jan 2022 13:46:29 GMT', 'Fri, 28 Jan 2022 13:46:29 GMT']"
82,GDACS_1307864,1307864,7 days,"Green earthquake alert (Magnitude 5.2M, Depth:131.49km) in Chile 28/01/2022 13:43 UTC, 240000 people within 100km.","On 1/28/2022 1:43:26 PM, an earthquake occurred in Chile potentially affecting 240000 people within 100km. The earthquake had Magnitude 5.2M, Depth:131.49km.",,GDACS,https://www.gdacs.org/report.aspx?eventtype=EQ&eventid=1307864,gdacs.org,www,"['EQ', 'Green']",Chile,CHL,Latin America & Caribbean,LCN,Arica y Parinacota,Chile,Guatanave,,,"Guatanave, Arica y Parinacota, Chile","['-18.7824', '-69.6263']","['Fri, 28 Jan 2022 13:43:26 GMT', 'Fri, 28 Jan 2022 13:43:26 GMT']"
83,GDACS_1307863,1307863,7 days,"Green earthquake alert (Magnitude 4.6M, Depth:547.13km) in Fiji 28/01/2022 13:02 UTC, No people within 100km.","On 1/28/2022 1:02:58 PM, an earthquake occurred in Fiji potentially affecting No people within 100km. The earthquake had Magnitude 4.6M, Depth:547.13km.",,GDACS,https://www.gdacs.org/report.aspx?eventtype=EQ&eventid=1307863,gdacs.org,www,"['EQ', 'Green']",Fiji,FJI,East Asia & Pacific,EAS,,,,,,,"['-17.7352', '-177.1923']","['Fri, 28 Jan 2022 13:02:58 GMT', 'Fri, 28 Jan 2022 13:02:58 GMT']"
84,GDACS_1307849,1307849,7 days,"Green earthquake alert (Magnitude 4.9M, Depth:10km) in Indonesia 28/01/2022 11:20 UTC, No people within 100km.","On 1/28/2022 11:20:37 AM, an earthquake occurred in Indonesia potentially affecting No people within 100km. The earthquake had Magnitude 4.9M, Depth:10km.",,GDACS,https://www.gdacs.org/report.aspx?eventtype=EQ&eventid=1307849,gdacs.org,www,"['EQ', 'Green']",Indonesia,IDN,East Asia & Pacific,EAS,,,,,,,"['-12.0752', '112.8863']","['Fri, 28 Jan 2022 11:20:37 GMT', 'Fri, 28 Jan 2022 11:20:37 GMT']"
85,GDACS_1307844,1307844,7 days,"Green earthquake alert (Magnitude 6.1M, Depth:10km) in Panama 28/01/2022 11:14 UTC, No people within 100km.","On 1/28/2022 11:14:09 AM, an earthquake occurred in Panama potentially affecting No people within 100km. The earthquake had Magnitude 6.1M, Depth:10km.",,GDACS,https://www.gdacs.org/report.aspx?eventtype=EQ&eventid=1307844,gdacs.org,www,"['EQ', 'Green']",Panama,PAN,Latin America & Caribbean,LCN,,,,,,,"['5.4909', '-82.5881']","['Fri, 28 Jan 2022 11:14:09 GMT', 'Fri, 28 Jan 2022 11:14:09 GMT']"
86,GDACS_1307831,1307831,7 days,"Green earthquake alert (Magnitude 4.9M, Depth:511.51km) in South Of Fiji Islands 28/01/2022 08:03 UTC, No people within 100km.","On 1/28/2022 8:03:28 AM, an earthquake occurred in South Of Fiji Islands potentially affecting No people within 100km. The earthquake had Magnitude 4.9M, Depth:511.51km.",,GDACS,https://www.gdacs.org/report.aspx?eventtype=EQ&eventid=1307831,gdacs.org,www,"['EQ', 'Green']",South Of Fiji Islands,,,,,,,,,,"['-24.7241', '179.7909']","['Fri, 28 Jan 2022 08:03:28 GMT', 'Fri, 28 Jan 2022 08:03:28 GMT']"
87,GDACS_1307825,1307825,7 days,"Green earthquake alert (Magnitude 4.9M, Depth:132.68km) in South Georgia and the South Sandwich Islands 28/01/2022 07:03 UTC, No people within 100km.","On 1/28/2022 7:03:20 AM, an earthquake occurred in South Georgia and the South Sandwich Islands potentially affecting No people within 100km. The earthquake had Magnitude 4.9M, Depth:132.68km.",,GDACS,https://www.gdacs.org/report.aspx?eventtype=EQ&eventid=1307825,gdacs.org,www,"['EQ', 'Green']",South Georgia and the South Sandwich Islands,SGS,,,,,,,,,"['-56.8013', '-26.9915']","['Fri, 28 Jan 2022 07:03:20 GMT', 'Fri, 28 Jan 2022 07:03:20 GMT']"
88,GDACS_1307824,1307824,7 days,"Green earthquake alert (Magnitude 4.8M, Depth:641.93km) in Fiji 28/01/2022 06:57 UTC, About 300 people within 100km.","On 1/28/2022 6:57:31 AM, an earthquake occurred in Fiji potentially affecting About 300 people within 100km. The earthquake had Magnitude 4.8M, Depth:641.93km.",,GDACS,https://www.gdacs.org/report.aspx?eventtype=EQ&eventid=1307824,gdacs.org,www,"['EQ', 'Green']",Fiji,FJI,East Asia & Pacific,EAS,,,,,,,"['-18.1204', '-177.789']","['Fri, 28 Jan 2022 06:57:31 GMT', 'Fri, 28 Jan 2022 06:57:31 GMT']"
89,GDACS_1307822,1307822,7 days,"Green earthquake alert (Magnitude 4.9M, Depth:72.15km) in Indonesia 28/01/2022 06:54 UTC, 210000 people within 100km.","On 1/28/2022 6:54:00 AM, an earthquake occurred in Indonesia potentially affecting 210000 people within 100km. The earthquake had Magnitude 4.9M, Depth:72.15km.",,GDACS,https://www.gdacs.org/report.aspx?eventtype=EQ&eventid=1307822,gdacs.org,www,"['EQ', 'Green']",Indonesia,IDN,East Asia & Pacific,EAS,North Sulawesi,Indonesia,Dusun Empat Mataindo,,,"Dusun Empat Mataindo, North Sulawesi, Indonesia","['-0.1631', '124.4014']","['Fri, 28 Jan 2022 06:54:00 GMT', 'Fri, 28 Jan 2022 06:54:00 GMT']"
90,GDACS_1307814,1307814,7 days,"Green earthquake alert (Magnitude 4.6M, Depth:130.91km) in Chile 28/01/2022 05:20 UTC, About 9000 people within 100km.","On 1/28/2022 5:20:37 AM, an earthquake occurred in Chile potentially affecting About 9000 people within 100km. The earthquake had Magnitude 4.6M, Depth:130.91km.",,GDACS,https://www.gdacs.org/report.aspx?eventtype=EQ&eventid=1307814,gdacs.org,www,"['EQ', 'Green']",Chile,CHL,Latin America & Caribbean,LCN,Antofagasta,Chile,Chela,,,"Chela, Antofagasta, Chile","['-21.407', '-68.5939']","['Fri, 28 Jan 2022 05:20:37 GMT', 'Fri, 28 Jan 2022 05:20:37 GMT']"
91,GDACS_1307813,1307813,7 days,"Green earthquake alert (Magnitude 4.7M, Depth:63.31km) in Philippines 28/01/2022 04:56 UTC, About 1000 people within 100km.","On 1/28/2022 4:56:13 AM, an earthquake occurred in Philippines potentially affecting About 1000 people within 100km. The earthquake had Magnitude 4.7M, Depth:63.31km.",,GDACS,https://www.gdacs.org/report.aspx?eventtype=EQ&eventid=1307813,gdacs.org,www,"['EQ', 'Green']",Philippines,PHL,East Asia & Pacific,EAS,,,,,,,"['6.1416', '127.0714']","['Fri, 28 Jan 2022 04:56:13 GMT', 'Fri, 28 Jan 2022 04:56:13 GMT']"
92,GDACS_1307807,1307807,7 days,"Green earthquake alert (Magnitude 4.9M, Depth:10km) in Cyprus 28/01/2022 03:57 UTC, 190000 people within 100km.","On 1/28/2022 3:57:44 AM, an earthquake occurred in Cyprus potentially affecting 190000 people within 100km. The earthquake had Magnitude 4.9M, Depth:10km.",,GDACS,https://www.gdacs.org/report.aspx?eventtype=EQ&eventid=1307807,gdacs.org,www,"['EQ', 'Green']",Cyprus,CYP,Europe & Central Asia,ECS,Pafos,Cyprus,Neo Chorio,,,"Neo Chorio, Pafos, Cyprus","['35.1013', '31.9579']","['Fri, 28 Jan 2022 03:57:44 GMT', 'Fri, 28 Jan 2022 03:57:44 GMT']"
93,GDACS_1307784,1307784,7 days,"Green earthquake alert (Magnitude 4.5M, Depth:66.6km) in Japan 28/01/2022 01:35 UTC, 2450000 people within 100km.","On 1/28/2022 1:35:05 AM, an earthquake occurred in Japan potentially affecting 2450000 people within 100km. The earthquake had Magnitude 4.5M, Depth:66.6km.",,GDACS,https://www.gdacs.org/report.aspx?eventtype=EQ&eventid=1307784,gdacs.org,www,"['EQ', 'Green']",Japan,JPN,East Asia & Pacific,EAS,Miyagi,Japan,Yamadori,,,"Yamadori, Miyagi, Japan","['38.2417', '141.6968']","['Fri, 28 Jan 2022 01:35:05 GMT', 'Fri, 28 Jan 2022 01:35:05 GMT']"
94,GDACS_1307785,1307785,7 days,"Green earthquake alert (Magnitude 4.9M, Depth:10km) in Tonga 28/01/2022 01:33 UTC, About 83000 people within 100km.","On 1/28/2022 1:33:38 AM, an earthquake occurred in Tonga potentially affecting About 83000 people within 100km. The earthquake had Magnitude 4.9M, Depth:10km.",,GDACS,https://www.gdacs.org/report.aspx?eventtype=EQ&eventid=1307785,gdacs.org,www,"['EQ', 'Green']",Tonga,TON,East Asia & Pacific,EAS,Tongatapu,Tonga,Ha‘atafu,,,"Ha‘atafu, Tongatapu, Tonga","['-20.6329', '-175.4463']","['Fri, 28 Jan 2022 01:33:38 GMT', 'Fri, 28 Jan 2022 01:33:38 GMT']"
95,GDACS_1307779,1307779,7 days,"Green earthquake alert (Magnitude 5.5M, Depth:92.47km) in Chile 28/01/2022 00:31 UTC, About 17000 people within 100km.","On 1/28/2022 12:31:25 AM, an earthquake occurred in Chile potentially affecting About 17000 people within 100km. The earthquake had Magnitude 5.5M, Depth:92.47km.",,GDACS,https://www.gdacs.org/report.aspx?eventtype=EQ&eventid=1307779,gdacs.org,www,"['EQ', 'Green']",Chile,CHL,Latin America & Caribbean,LCN,Tarapacá,Chile,Paga,,,"Paga, Tarapacá, Chile","['-19.1264', '-69.3571']","['Fri, 28 Jan 2022 00:31:25 GMT', 'Fri, 28 Jan 2022 00:31:25 GMT']"
19,GDACS_1014320,1014320,7 days,"Drought is on going in Canada, United States",The  Drought alert level is Green.,,GDACS,https://www.gdacs.org/report.aspx?eventtype=DR&eventid=1014320,gdacs.org,www,"['DR', 'Green']","Canada, United States",CAN,North America,NAC,Montana,United States,East Community,,,"East Community, Montana, United States","['47.995', '-111.5']","['Fri, 21 Feb 2020 00:00:00 GMT', 'Tue, 01 Feb 2022 00:00:00 GMT']"
