,aug_id,gdacs:eventid,sample_frequency,title,description,units,source_abbr,link,domain,subdomain,tags,gdacs:country,gdacs:iso3,timestamps,lonlat,fromdate,region_name,region_code,location,state,country,city,locality,nieghbourhood
0,GDACS_1308444,1308444,7 days,"Green earthquake alert (Magnitude 4.9M, Depth:10km) in Kermadec Islands Region 01/02/2022 14:30 UTC, No people within 100km.","On 2/1/2022 2:30:03 PM, an earthquake occurred in Kermadec Islands Region potentially affecting No people within 100km. The earthquake had Magnitude 4.9M, Depth:10km.",,GDACS,https://www.gdacs.org/report.aspx?eventtype=EQ&eventid=1308444,gdacs.org,www,"['EQ', 'Green']",Kermadec Islands Region,,"['Tue, 01 Feb 2022 14:30:03 GMT', 'Tue, 01 Feb 2022 14:30:03 GMT']","['-29.7937', '-176.225']","Tue, 01 Feb 2022 14:30:03 GMT",,,,,,,,
1,GDACS_1308443,1308443,7 days,"Green earthquake alert (Magnitude 5.4M, Depth:177.9km) in Papua New Guinea 01/02/2022 14:05 UTC, 490000 people within 100km.","On 2/1/2022 2:05:02 PM, an earthquake occurred in Papua New Guinea potentially affecting 490000 people within 100km. The earthquake had Magnitude 5.4M, Depth:177.9km.",,GDACS,https://www.gdacs.org/report.aspx?eventtype=EQ&eventid=1308443,gdacs.org,www,"['EQ', 'Green']",Papua New Guinea,PNG,"['Tue, 01 Feb 2022 14:05:02 GMT', 'Tue, 01 Feb 2022 14:05:02 GMT']","['-7.1084', '145.9978']","Tue, 01 Feb 2022 14:05:02 GMT",East Asia & Pacific,EAS,"Tsinjangogwi, Morobe, Papua New Guinea",Morobe,Papua New Guinea,Tsinjangogwi,,
2,GDACS_1000862,1000862,7 days,Green alert for tropical cyclone NINE-22. Population affected by Category 1 (120 km/h) wind speeds or higher is 0  (0 in Tropical Storm).,"From 31/01/2022 to 01/02/2022, a Tropical Storm (maximum wind speed of 102 km/h) NINE-22 was active in SWPacific. The cyclone affects these countries: New Caledonia, Vanuatu (vulnerability Medium). Estimated population affected by category 1 (120 km/h) wind speeds or higher is 0  (0 in tropical storm).",,GDACS,https://www.gdacs.org/report.aspx?eventtype=TC&eventid=1000862,gdacs.org,www,"['TC', 'Green']","New Caledonia, Vanuatu",NCL,"['Mon, 31 Jan 2022 18:00:00 GMT', 'Tue, 01 Feb 2022 12:00:00 GMT']","['-15.4', '153.9']","Mon, 31 Jan 2022 18:00:00 GMT",East Asia & Pacific,EAS,,,,,,
3,GDACS_1000859,1000859,7 days,Red alert for tropical cyclone BATSIRAI-22. Population affected by Category 1 (120 km/h) wind speeds or higher is 3.788 million .,"From 27/01/2022 to 01/02/2022, a Hurricane/Typhoon > 74 mph (maximum wind speed of 204 km/h) BATSIRAI-22 was active in SWIndian. The cyclone affects these countries: Madagascar (vulnerability High). Estimated population affected by category 1 (120 km/h) wind speeds or higher is 3.788 million .",,GDACS,https://www.gdacs.org/report.aspx?eventtype=TC&eventid=1000859,gdacs.org,www,"['TC', 'Red']",Madagascar,MDG,"['Thu, 27 Jan 2022 00:00:00 GMT', 'Tue, 01 Feb 2022 12:00:00 GMT']","['-17.2', '60.1']","Thu, 27 Jan 2022 00:00:00 GMT",Sub-Saharan Africa,SSF,,,,,,
4,GDACS_1308426,1308426,7 days,"Green earthquake alert (Magnitude 4.6M, Depth:10km) in New Caledonia 01/02/2022 11:41 UTC, No people within 100km.","On 2/1/2022 11:41:35 AM, an earthquake occurred in New Caledonia potentially affecting No people within 100km. The earthquake had Magnitude 4.6M, Depth:10km.",,GDACS,https://www.gdacs.org/report.aspx?eventtype=EQ&eventid=1308426,gdacs.org,www,"['EQ', 'Green']",New Caledonia,NCL,"['Tue, 01 Feb 2022 11:41:35 GMT', 'Tue, 01 Feb 2022 11:41:35 GMT']","['-23.0802', '170.4347']","Tue, 01 Feb 2022 11:41:35 GMT",East Asia & Pacific,EAS,,,,,,
5,GDACS_1308409,1308409,7 days,"Green earthquake alert (Magnitude 4.7M, Depth:32.23km) in Japan 01/02/2022 09:18 UTC, No people within 100km.","On 2/1/2022 9:18:36 AM, an earthquake occurred in Japan potentially affecting No people within 100km. The earthquake had Magnitude 4.7M, Depth:32.23km.",,GDACS,https://www.gdacs.org/report.aspx?eventtype=EQ&eventid=1308409,gdacs.org,www,"['EQ', 'Green']",Japan,JPN,"['Tue, 01 Feb 2022 09:18:36 GMT', 'Tue, 01 Feb 2022 09:18:36 GMT']","['32.6869', '141.774']","Tue, 01 Feb 2022 09:18:36 GMT",East Asia & Pacific,EAS,,,,,,
6,GDACS_1308404,1308404,7 days,"Green earthquake alert (Magnitude 4.8M, Depth:10km) in Northern Mid-Atlantic Ridge 01/02/2022 05:48 UTC, No people within 100km.","On 2/1/2022 5:48:56 AM, an earthquake occurred in Northern Mid-Atlantic Ridge potentially affecting No people within 100km. The earthquake had Magnitude 4.8M, Depth:10km.",,GDACS,https://www.gdacs.org/report.aspx?eventtype=EQ&eventid=1308404,gdacs.org,www,"['EQ', 'Green']",Northern Mid-Atlantic Ridge,,"['Tue, 01 Feb 2022 05:48:56 GMT', 'Tue, 01 Feb 2022 05:48:56 GMT']","['28.8616', '-43.6394']","Tue, 01 Feb 2022 05:48:56 GMT",,,,,,,,
7,GDACS_1308349,1308349,7 days,"Green earthquake alert (Magnitude 4.7M, Depth:25.7km) in Chile 01/02/2022 01:39 UTC, 430000 people within 100km.","On 2/1/2022 1:39:51 AM, an earthquake occurred in Chile potentially affecting 430000 people within 100km. The earthquake had Magnitude 4.7M, Depth:25.7km.",,GDACS,https://www.gdacs.org/report.aspx?eventtype=EQ&eventid=1308349,gdacs.org,www,"['EQ', 'Green']",Chile,CHL,"['Tue, 01 Feb 2022 01:39:51 GMT', 'Tue, 01 Feb 2022 01:39:51 GMT']","['-40.3281', '-74.0512']","Tue, 01 Feb 2022 01:39:51 GMT",Latin America & Caribbean,LCN,"Huitrapulli, Los Lagos Region, Chile",Los Lagos Region,Chile,Huitrapulli,,
8,GDACS_1308348,1308348,7 days,"Green earthquake alert (Magnitude 4.6M, Depth:10km) in Chile 01/02/2022 01:33 UTC, 230000 people within 100km.","On 2/1/2022 1:33:21 AM, an earthquake occurred in Chile potentially affecting 230000 people within 100km. The earthquake had Magnitude 4.6M, Depth:10km.",,GDACS,https://www.gdacs.org/report.aspx?eventtype=EQ&eventid=1308348,gdacs.org,www,"['EQ', 'Green']",Chile,CHL,"['Tue, 01 Feb 2022 01:33:21 GMT', 'Tue, 01 Feb 2022 01:33:21 GMT']","['-40.3578', '-74.2316']","Tue, 01 Feb 2022 01:33:21 GMT",Latin America & Caribbean,LCN,"Huitrapulli, Los Lagos Region, Chile",Los Lagos Region,Chile,Huitrapulli,,
9,GDACS_1308346,1308346,7 days,"Green earthquake alert (Magnitude 4.9M, Depth:107.42km) in Argentina 01/02/2022 00:52 UTC, 690000 people within 100km.","On 2/1/2022 12:52:42 AM, an earthquake occurred in Argentina potentially affecting 690000 people within 100km. The earthquake had Magnitude 4.9M, Depth:107.42km.",,GDACS,https://www.gdacs.org/report.aspx?eventtype=EQ&eventid=1308346,gdacs.org,www,"['EQ', 'Green']",Argentina,ARG,"['Tue, 01 Feb 2022 00:52:42 GMT', 'Tue, 01 Feb 2022 00:52:42 GMT']","['-31.3306', '-68.5308']","Tue, 01 Feb 2022 00:52:42 GMT",Latin America & Caribbean,LCN,"La Laja, San Juan, Argentina",San Juan,Argentina,La Laja,,
10,GDACS_1308344,1308344,7 days,"Green earthquake alert (Magnitude 4.7M, Depth:177.58km) in Indonesia 01/02/2022 00:18 UTC, About 71000 people within 100km.","On 2/1/2022 12:18:52 AM, an earthquake occurred in Indonesia potentially affecting About 71000 people within 100km. The earthquake had Magnitude 4.7M, Depth:177.58km.",,GDACS,https://www.gdacs.org/report.aspx?eventtype=EQ&eventid=1308344,gdacs.org,www,"['EQ', 'Green']",Indonesia,IDN,"['Tue, 01 Feb 2022 00:18:52 GMT', 'Tue, 01 Feb 2022 00:18:52 GMT']","['-7.5493', '127.5443']","Tue, 01 Feb 2022 00:18:52 GMT",East Asia & Pacific,EAS,"Jerusu, Maluku, Indonesia",Maluku,Indonesia,Jerusu,,
11,GDACS_1015249,1015249,7 days,Drought is on going in Spain,The  Drought alert level is Green.,,GDACS,https://www.gdacs.org/report.aspx?eventtype=DR&eventid=1015249,gdacs.org,www,"['DR', 'Green']",Spain,ESP,"['Thu, 21 Oct 2021 00:00:00 GMT', 'Tue, 01 Feb 2022 00:00:00 GMT']","['37.743', '-3.533']","Thu, 21 Oct 2021 00:00:00 GMT",Europe & Central Asia,ECS,"Torres, Andalusia, Spain",Andalusia,Spain,Torres,,
12,GDACS_1015088,1015088,7 days,Drought is on going in United States,The  Drought alert level is Green.,,GDACS,https://www.gdacs.org/report.aspx?eventtype=DR&eventid=1015088,gdacs.org,www,"['DR', 'Green']",United States,USA,"['Wed, 21 Jul 2021 00:00:00 GMT', 'Tue, 01 Feb 2022 00:00:00 GMT']","['39.072', '-103.218']","Wed, 21 Jul 2021 00:00:00 GMT",North America,NAC,"Wareland, Colorado, United States",Colorado,United States,Wareland,,
13,GDACS_1015281,1015281,7 days,"Drought is on going in Democratic Republic of Congo, Malawi, Mozambique, Tanzania, Zambia, Zimbabwe",The  Drought alert level is Orange.,,GDACS,https://www.gdacs.org/report.aspx?eventtype=DR&eventid=1015281,gdacs.org,www,"['DR', 'Orange']","Democratic Republic of Congo, Malawi, Mozambique, Tanzania, Zambia, Zimbabwe",COD,"['Thu, 21 Oct 2021 00:00:00 GMT', 'Tue, 01 Feb 2022 00:00:00 GMT']","['-11.206', '34.436']","Thu, 21 Oct 2021 00:00:00 GMT",Sub-Saharan Africa,SSF,"Chiziwa, Northern Region, Malawi",Northern Region,Malawi,Chiziwa,,
14,GDACS_1015257,1015257,7 days,"Drought is on going in Syria, Turkey",The  Drought alert level is Green.,,GDACS,https://www.gdacs.org/report.aspx?eventtype=DR&eventid=1015257,gdacs.org,www,"['DR', 'Green']","Syria, Turkey",SYR,"['Thu, 21 Oct 2021 00:00:00 GMT', 'Tue, 01 Feb 2022 00:00:00 GMT']","['35.743', '37.997']","Thu, 21 Oct 2021 00:00:00 GMT",Middle East & North Africa,MEA,"Khirbat Muḩammad Halīl, Aleppo, Syria",Aleppo,Syria,Khirbat Muḩammad Halīl,,
15,GDACS_1015187,1015187,7 days,"Drought is on going in Belize, Costa Rica, Guatemala, Honduras, Nicaragua",The  Drought alert level is Green.,,GDACS,https://www.gdacs.org/report.aspx?eventtype=DR&eventid=1015187,gdacs.org,www,"['DR', 'Green']","Belize, Costa Rica, Guatemala, Honduras, Nicaragua",BLZ,"['Tue, 21 Sep 2021 00:00:00 GMT', 'Tue, 01 Feb 2022 00:00:00 GMT']","['14.417', '-86.837']","Tue, 21 Sep 2021 00:00:00 GMT",Latin America & Caribbean,LCN,"Agua Fría, Francisco Morazán, Honduras",Francisco Morazán,Honduras,Agua Fría,,
16,GDACS_1015039,1015039,7 days,"Drought is on going in Angola, Democratic Republic of Congo, Republic of Congo",The  Drought alert level is Green.,,GDACS,https://www.gdacs.org/report.aspx?eventtype=DR&eventid=1015039,gdacs.org,www,"['DR', 'Green']","Angola, Democratic Republic of Congo, Republic of Congo",AGO,"['Wed, 21 Jul 2021 00:00:00 GMT', 'Tue, 01 Feb 2022 00:00:00 GMT']","['-5', '13.5']","Wed, 21 Jul 2021 00:00:00 GMT",Sub-Saharan Africa,SSF,"Kintadi, Bas-Congo, DR Congo",Bas-Congo,DR Congo,Kintadi,,
17,GDACS_1014958,1014958,7 days,"Drought is on going in Argentina, Chile",The  Drought alert level is Green.,,GDACS,https://www.gdacs.org/report.aspx?eventtype=DR&eventid=1014958,gdacs.org,www,"['DR', 'Green']","Argentina, Chile",ARG,"['Wed, 21 Oct 2020 00:00:00 GMT', 'Tue, 01 Feb 2022 00:00:00 GMT']","['-38.225', '-72.609']","Wed, 21 Oct 2020 00:00:00 GMT",Latin America & Caribbean,LCN,"Quichamahuida, Araucanía, Chile",Araucanía,Chile,Quichamahuida,,
18,GDACS_1014742,1014742,7 days,"Drought is on going in Ethiopia, Uganda",The  Drought alert level is Orange.,,GDACS,https://www.gdacs.org/report.aspx?eventtype=DR&eventid=1014742,gdacs.org,www,"['DR', 'Orange']","Ethiopia, Uganda",ETH,"['Sun, 21 Feb 2021 00:00:00 GMT', 'Tue, 01 Feb 2022 00:00:00 GMT']","['5.249', '39.249']","Sun, 21 Feb 2021 00:00:00 GMT",Sub-Saharan Africa,SSF,"Galu, Oromiya, Ethiopia",Oromiya,Ethiopia,Galu,,
19,GDACS_1014320,1014320,7 days,"Drought is on going in Canada, United States",The  Drought alert level is Green.,,GDACS,https://www.gdacs.org/report.aspx?eventtype=DR&eventid=1014320,gdacs.org,www,"['DR', 'Green']","Canada, United States",CAN,"['Fri, 21 Feb 2020 00:00:00 GMT', 'Tue, 01 Feb 2022 00:00:00 GMT']","['47.995', '-111.5']","Fri, 21 Feb 2020 00:00:00 GMT",North America,NAC,"East Community, Montana, United States",Montana,United States,East Community,,
20,GDACS_1014473,1014473,7 days,"Drought is on going in Iran, Kyrgyzstan, Kazakhstan, Tajikistan, Turkmenistan, Uzbekistan",The  Drought alert level is Green.,,GDACS,https://www.gdacs.org/report.aspx?eventtype=DR&eventid=1014473,gdacs.org,www,"['DR', 'Green']","Iran, Kyrgyzstan, Kazakhstan, Tajikistan, Turkmenistan, Uzbekistan",IRN,"['Wed, 21 Oct 2020 00:00:00 GMT', 'Tue, 01 Feb 2022 00:00:00 GMT']","['44.684', '55.077']","Wed, 21 Oct 2020 00:00:00 GMT",Middle East & North Africa,MEA,"Kamennyy, Mangghystaū, Kazakhstan",Mangghystaū,Kazakhstan,Kamennyy,,
21,GDACS_1014495,1014495,7 days,Drought is on going in Madagascar,The  Drought alert level is Red.,,GDACS,https://www.gdacs.org/report.aspx?eventtype=DR&eventid=1014495,gdacs.org,www,"['DR', 'Red']",Madagascar,MDG,"['Wed, 21 Oct 2020 00:00:00 GMT', 'Tue, 01 Feb 2022 00:00:00 GMT']","['-20.247', '46.202']","Wed, 21 Oct 2020 00:00:00 GMT",Sub-Saharan Africa,SSF,"Ambalavato, Amoron'i Mania, Madagascar",Amoron'i Mania,Madagascar,Ambalavato,,
22,GDACS_1013868,1013868,7 days,"Drought is on going in Argentina, Bolivia, Brazil, Paraguay, Uruguay",The  Drought alert level is Orange.,,GDACS,https://www.gdacs.org/report.aspx?eventtype=DR&eventid=1013868,gdacs.org,www,"['DR', 'Orange']","Argentina, Bolivia, Brazil, Paraguay, Uruguay",ARG,"['Sat, 21 Dec 2019 00:00:00 GMT', 'Tue, 01 Feb 2022 00:00:00 GMT']","['-11.21', '-60.237']","Sat, 21 Dec 2019 00:00:00 GMT",Latin America & Caribbean,LCN,"Aldeia Capitão Moa, Rondônia, Brazil",Rondônia,Brazil,Aldeia Capitão Moa,,
23,GDACS_1014695,1014695,7 days,"Drought is on going in Algeria, Spain, Morocco, Tunisia",The  Drought alert level is Green.,,GDACS,https://www.gdacs.org/report.aspx?eventtype=DR&eventid=1014695,gdacs.org,www,"['DR', 'Green']","Algeria, Spain, Morocco, Tunisia",DZA,"['Mon, 21 Dec 2020 00:00:00 GMT', 'Tue, 01 Feb 2022 00:00:00 GMT']","['34.768', '8.637']","Mon, 21 Dec 2020 00:00:00 GMT",Middle East & North Africa,MEA,"Borj Mejen Bel Abbès, Al Qaşrayn, Tunisia",Al Qaşrayn,Tunisia,Borj Mejen Bel Abbès,,
24,GDACS_1308351,1308351,7 days,"Green earthquake alert (Magnitude 4.6M, Depth:10km) in Tonga 31/01/2022 22:18 UTC, About 83000 people within 100km.","On 1/31/2022 10:18:32 PM, an earthquake occurred in Tonga potentially affecting About 83000 people within 100km. The earthquake had Magnitude 4.6M, Depth:10km.",,GDACS,https://www.gdacs.org/report.aspx?eventtype=EQ&eventid=1308351,gdacs.org,www,"['EQ', 'Green']",Tonga,TON,"['Mon, 31 Jan 2022 22:18:32 GMT', 'Mon, 31 Jan 2022 22:18:32 GMT']","['-20.8299', '-175.3351']","Mon, 31 Jan 2022 22:18:32 GMT",East Asia & Pacific,EAS,"Ha‘atafu, Tongatapu, Tonga",Tongatapu,Tonga,Ha‘atafu,,
25,GDACS_1308340,1308340,7 days,"Green earthquake alert (Magnitude 4.6M, Depth:10km) in China 31/01/2022 22:01 UTC, 6040000 people within 100km.","On 1/31/2022 10:01:27 PM, an earthquake occurred in China potentially affecting 6040000 people within 100km. The earthquake had Magnitude 4.6M, Depth:10km.",,GDACS,https://www.gdacs.org/report.aspx?eventtype=EQ&eventid=1308340,gdacs.org,www,"['EQ', 'Green']",China,CHN,"['Mon, 31 Jan 2022 22:01:27 GMT', 'Mon, 31 Jan 2022 22:01:27 GMT']","['31.9577', '104.3423']","Mon, 31 Jan 2022 22:01:27 GMT",East Asia & Pacific,EAS,"Maluoping, Sichuan, China",Sichuan,China,Maluoping,,
26,GDACS_1308332,1308332,7 days,"Green earthquake alert (Magnitude 4.5M, Depth:12.45km) in Chile 31/01/2022 21:36 UTC, 450000 people within 100km.","On 1/31/2022 9:36:17 PM, an earthquake occurred in Chile potentially affecting 450000 people within 100km. The earthquake had Magnitude 4.5M, Depth:12.45km.",,GDACS,https://www.gdacs.org/report.aspx?eventtype=EQ&eventid=1308332,gdacs.org,www,"['EQ', 'Green']",Chile,CHL,"['Mon, 31 Jan 2022 21:36:17 GMT', 'Mon, 31 Jan 2022 21:36:17 GMT']","['-29.9048', '-71.9961']","Mon, 31 Jan 2022 21:36:17 GMT",Latin America & Caribbean,LCN,"Lengua de Vaca, Coquimbo Region, Chile",Coquimbo Region,Chile,Lengua de Vaca,,
27,GDACS_1308350,1308350,7 days,"Green earthquake alert (Magnitude 4.7M, Depth:10km) in Tonga 31/01/2022 20:07 UTC, About 83000 people within 100km.","On 1/31/2022 8:07:13 PM, an earthquake occurred in Tonga potentially affecting About 83000 people within 100km. The earthquake had Magnitude 4.7M, Depth:10km.",,GDACS,https://www.gdacs.org/report.aspx?eventtype=EQ&eventid=1308350,gdacs.org,www,"['EQ', 'Green']",Tonga,TON,"['Mon, 31 Jan 2022 20:07:13 GMT', 'Mon, 31 Jan 2022 20:07:13 GMT']","['-20.6601', '-175.4481']","Mon, 31 Jan 2022 20:07:13 GMT",East Asia & Pacific,EAS,"Ha‘atafu, Tongatapu, Tonga",Tongatapu,Tonga,Ha‘atafu,,
28,GDACS_1308299,1308299,7 days,"Green earthquake alert (Magnitude 4.5M, Depth:12.03km) in United States 31/01/2022 17:10 UTC, 460000 people within 100km.","On 1/31/2022 5:10:21 PM, an earthquake occurred in United States potentially affecting 460000 people within 100km. The earthquake had Magnitude 4.5M, Depth:12.03km.",,GDACS,https://www.gdacs.org/report.aspx?eventtype=EQ&eventid=1308299,gdacs.org,www,"['EQ', 'Green']",United States,USA,"['Mon, 31 Jan 2022 17:10:21 GMT', 'Mon, 31 Jan 2022 17:10:21 GMT']","['36.8563', '-97.8025']","Mon, 31 Jan 2022 17:10:21 GMT",North America,NAC,"Clyde, Oklahoma, United States",Oklahoma,United States,Clyde,,
29,GDACS_1308281,1308281,7 days,"Green earthquake alert (Magnitude 4.9M, Depth:10km) in Kermadec Islands Region 31/01/2022 14:15 UTC, No people within 100km.","On 1/31/2022 2:15:08 PM, an earthquake occurred in Kermadec Islands Region potentially affecting No people within 100km. The earthquake had Magnitude 4.9M, Depth:10km.",,GDACS,https://www.gdacs.org/report.aspx?eventtype=EQ&eventid=1308281,gdacs.org,www,"['EQ', 'Green']",Kermadec Islands Region,,"['Mon, 31 Jan 2022 14:15:08 GMT', 'Mon, 31 Jan 2022 14:15:08 GMT']","['-29.5358', '-176.9171']","Mon, 31 Jan 2022 14:15:08 GMT",,,,,,,,
30,GDACS_1308265,1308265,7 days,"Green earthquake alert (Magnitude 4.6M, Depth:10km) in Kermadec Islands Region 31/01/2022 13:16 UTC, No people within 100km.","On 1/31/2022 1:16:42 PM, an earthquake occurred in Kermadec Islands Region potentially affecting No people within 100km. The earthquake had Magnitude 4.6M, Depth:10km.",,GDACS,https://www.gdacs.org/report.aspx?eventtype=EQ&eventid=1308265,gdacs.org,www,"['EQ', 'Green']",Kermadec Islands Region,,"['Mon, 31 Jan 2022 13:16:42 GMT', 'Mon, 31 Jan 2022 13:16:42 GMT']","['-29.6862', '-176.8862']","Mon, 31 Jan 2022 13:16:42 GMT",,,,,,,,
31,GDACS_1308259,1308259,7 days,"Green earthquake alert (Magnitude 5.2M, Depth:10km) in Yemen 31/01/2022 12:42 UTC, No people within 100km.","On 1/31/2022 12:42:18 PM, an earthquake occurred in Yemen potentially affecting No people within 100km. The earthquake had Magnitude 5.2M, Depth:10km.",,GDACS,https://www.gdacs.org/report.aspx?eventtype=EQ&eventid=1308259,gdacs.org,www,"['EQ', 'Green']",Yemen,YEM,"['Mon, 31 Jan 2022 12:42:18 GMT', 'Mon, 31 Jan 2022 12:42:18 GMT']","['14.4453', '56.3702']","Mon, 31 Jan 2022 12:42:18 GMT",Middle East & North Africa,MEA,,,,,,
32,GDACS_1308258,1308258,7 days,"Green earthquake alert (Magnitude 5.2M, Depth:10km) in Yemen 31/01/2022 12:38 UTC, No people within 100km.","On 1/31/2022 12:38:15 PM, an earthquake occurred in Yemen potentially affecting No people within 100km. The earthquake had Magnitude 5.2M, Depth:10km.",,GDACS,https://www.gdacs.org/report.aspx?eventtype=EQ&eventid=1308258,gdacs.org,www,"['EQ', 'Green']",Yemen,YEM,"['Mon, 31 Jan 2022 12:38:15 GMT', 'Mon, 31 Jan 2022 12:38:15 GMT']","['14.4243', '56.2756']","Mon, 31 Jan 2022 12:38:15 GMT",Middle East & North Africa,MEA,,,,,,
33,GDACS_1308256,1308256,7 days,"Green earthquake alert (Magnitude 5.9M, Depth:10km) in Kermadec Islands Region 31/01/2022 12:14 UTC, No people within 100km.","On 1/31/2022 12:14:35 PM, an earthquake occurred in Kermadec Islands Region potentially affecting No people within 100km. The earthquake had Magnitude 5.9M, Depth:10km.",,GDACS,https://www.gdacs.org/report.aspx?eventtype=EQ&eventid=1308256,gdacs.org,www,"['EQ', 'Green']",Kermadec Islands Region,,"['Mon, 31 Jan 2022 12:14:35 GMT', 'Mon, 31 Jan 2022 12:14:35 GMT']","['-29.5255', '-176.7864']","Mon, 31 Jan 2022 12:14:35 GMT",,,,,,,,
34,GDACS_1308253,1308253,7 days,"Green earthquake alert (Magnitude 5.2M, Depth:10km) in Yemen 31/01/2022 11:56 UTC, No people within 100km.","On 1/31/2022 11:56:37 AM, an earthquake occurred in Yemen potentially affecting No people within 100km. The earthquake had Magnitude 5.2M, Depth:10km.",,GDACS,https://www.gdacs.org/report.aspx?eventtype=EQ&eventid=1308253,gdacs.org,www,"['EQ', 'Green']",Yemen,YEM,"['Mon, 31 Jan 2022 11:56:37 GMT', 'Mon, 31 Jan 2022 11:56:37 GMT']","['14.5056', '56.3894']","Mon, 31 Jan 2022 11:56:37 GMT",Middle East & North Africa,MEA,,,,,,
35,GDACS_1308248,1308248,7 days,"Green earthquake alert (Magnitude 5.4M, Depth:10km) in Kermadec Islands Region 31/01/2022 11:26 UTC, No people within 100km.","On 1/31/2022 11:26:53 AM, an earthquake occurred in Kermadec Islands Region potentially affecting No people within 100km. The earthquake had Magnitude 5.4M, Depth:10km.",,GDACS,https://www.gdacs.org/report.aspx?eventtype=EQ&eventid=1308248,gdacs.org,www,"['EQ', 'Green']",Kermadec Islands Region,,"['Mon, 31 Jan 2022 11:26:53 GMT', 'Mon, 31 Jan 2022 11:26:53 GMT']","['-29.5677', '-176.9735']","Mon, 31 Jan 2022 11:26:53 GMT",,,,,,,,
36,GDACS_1308247,1308247,7 days,"Green earthquake alert (Magnitude 5.7M, Depth:10km) in Kermadec Islands, New Zealand 31/01/2022 11:21 UTC, No people within 100km.","On 1/31/2022 11:21:45 AM, an earthquake occurred in Kermadec Islands, New Zealand potentially affecting No people within 100km. The earthquake had Magnitude 5.7M, Depth:10km.",,GDACS,https://www.gdacs.org/report.aspx?eventtype=EQ&eventid=1308247,gdacs.org,www,"['EQ', 'Green']","Kermadec Islands, New Zealand",,"['Mon, 31 Jan 2022 11:21:45 GMT', 'Mon, 31 Jan 2022 11:21:45 GMT']","['-29.6471', '-177.0327']","Mon, 31 Jan 2022 11:21:45 GMT",,,,,,,,
37,GDACS_1308238,1308238,7 days,"Green earthquake alert (Magnitude 4.5M, Depth:10km) in Turkey 31/01/2022 09:30 UTC, 2190000 people within 100km.","On 1/31/2022 9:30:37 AM, an earthquake occurred in Turkey potentially affecting 2190000 people within 100km. The earthquake had Magnitude 4.5M, Depth:10km.",,GDACS,https://www.gdacs.org/report.aspx?eventtype=EQ&eventid=1308238,gdacs.org,www,"['EQ', 'Green']",Turkey,TUR,"['Mon, 31 Jan 2022 09:30:37 GMT', 'Mon, 31 Jan 2022 09:30:37 GMT']","['37.972', '32.0739']","Mon, 31 Jan 2022 09:30:37 GMT",Europe & Central Asia,ECS,"Mülayim, Konya, Turkey",Konya,Turkey,Mülayim,,
38,GDACS_1308194,1308194,7 days,"Green earthquake alert (Magnitude 4.7M, Depth:10km) in Turkey 31/01/2022 00:49 UTC, 1410000 people within 100km.","On 1/31/2022 12:49:57 AM, an earthquake occurred in Turkey potentially affecting 1410000 people within 100km. The earthquake had Magnitude 4.7M, Depth:10km.",,GDACS,https://www.gdacs.org/report.aspx?eventtype=EQ&eventid=1308194,gdacs.org,www,"['EQ', 'Green']",Turkey,TUR,"['Mon, 31 Jan 2022 00:49:57 GMT', 'Mon, 31 Jan 2022 00:49:57 GMT']","['39.1661', '40.1204']","Mon, 31 Jan 2022 00:49:57 GMT",Europe & Central Asia,ECS,"Günlük, Bingöl, Turkey",Bingöl,Turkey,Günlük,,
39,GDACS_1308191,1308191,7 days,"Green earthquake alert (Magnitude 5.1M, Depth:78.31km) in Peru 31/01/2022 00:08 UTC, 170000 people within 100km.","On 1/31/2022 12:08:15 AM, an earthquake occurred in Peru potentially affecting 170000 people within 100km. The earthquake had Magnitude 5.1M, Depth:78.31km.",,GDACS,https://www.gdacs.org/report.aspx?eventtype=EQ&eventid=1308191,gdacs.org,www,"['EQ', 'Green']",Peru,PER,"['Mon, 31 Jan 2022 00:08:15 GMT', 'Mon, 31 Jan 2022 00:08:15 GMT']","['-14.9659', '-73.9859']","Mon, 31 Jan 2022 00:08:15 GMT",Latin America & Caribbean,LCN,"Quishuarcancha, Ayacucho, Peru",Ayacucho,Peru,Quishuarcancha,,
40,GDACS_1308184,1308184,7 days,"Green earthquake alert (Magnitude 4.5M, Depth:10km) in Honduras 30/01/2022 22:01 UTC, About 79000 people within 100km.","On 1/30/2022 10:01:10 PM, an earthquake occurred in Honduras potentially affecting About 79000 people within 100km. The earthquake had Magnitude 4.5M, Depth:10km.",,GDACS,https://www.gdacs.org/report.aspx?eventtype=EQ&eventid=1308184,gdacs.org,www,"['EQ', 'Green']",Honduras,HND,"['Sun, 30 Jan 2022 22:01:10 GMT', 'Sun, 30 Jan 2022 22:01:10 GMT']","['16.8092', '-86.0896']","Sun, 30 Jan 2022 22:01:10 GMT",Latin America & Caribbean,LCN,"Pocalis, Atlántida, Honduras",Atlántida,Honduras,Pocalis,,
41,GDACS_1308182,1308182,7 days,"Green earthquake alert (Magnitude 4.5M, Depth:10km) in Northern East Pacfic Rise 30/01/2022 21:51 UTC, No people within 100km.","On 1/30/2022 9:51:00 PM, an earthquake occurred in Northern East Pacfic Rise potentially affecting No people within 100km. The earthquake had Magnitude 4.5M, Depth:10km.",,GDACS,https://www.gdacs.org/report.aspx?eventtype=EQ&eventid=1308182,gdacs.org,www,"['EQ', 'Green']",Northern East Pacfic Rise,,"['Sun, 30 Jan 2022 21:51:00 GMT', 'Sun, 30 Jan 2022 21:51:00 GMT']","['8.1852', '-104.251']","Sun, 30 Jan 2022 21:51:00 GMT",,,,,,,,
42,GDACS_1308176,1308176,7 days,"Green earthquake alert (Magnitude 4.9M, Depth:59.27km) in Indonesia 30/01/2022 20:22 UTC, About 89000 people within 100km.","On 1/30/2022 8:22:20 PM, an earthquake occurred in Indonesia potentially affecting About 89000 people within 100km. The earthquake had Magnitude 4.9M, Depth:59.27km.",,GDACS,https://www.gdacs.org/report.aspx?eventtype=EQ&eventid=1308176,gdacs.org,www,"['EQ', 'Green']",Indonesia,IDN,"['Sun, 30 Jan 2022 20:22:20 GMT', 'Sun, 30 Jan 2022 20:22:20 GMT']","['-10.21', '122.3001']","Sun, 30 Jan 2022 20:22:20 GMT",East Asia & Pacific,EAS,"Nyiuwudu, East Nusa Tenggara, Indonesia",East Nusa Tenggara,Indonesia,Nyiuwudu,,
43,GDACS_1308175,1308175,7 days,"Green earthquake alert (Magnitude 4.5M, Depth:55.49km) in United States 30/01/2022 19:58 UTC, About 4000 people within 100km.","On 1/30/2022 7:58:10 PM, an earthquake occurred in United States potentially affecting About 4000 people within 100km. The earthquake had Magnitude 4.5M, Depth:55.49km.",,GDACS,https://www.gdacs.org/report.aspx?eventtype=EQ&eventid=1308175,gdacs.org,www,"['EQ', 'Green']",United States,USA,"['Sun, 30 Jan 2022 19:58:10 GMT', 'Sun, 30 Jan 2022 19:58:10 GMT']","['53.2442', '-166.7876']","Sun, 30 Jan 2022 19:58:10 GMT",North America,NAC,"Kashega, Alaska, United States",Alaska,United States,Kashega,,
44,GDACS_1308219,1308219,7 days,"Green earthquake alert (Magnitude 4.6M, Depth:10km) in Tonga 30/01/2022 17:53 UTC, About 84000 people within 100km.","On 1/30/2022 5:53:26 PM, an earthquake occurred in Tonga potentially affecting About 84000 people within 100km. The earthquake had Magnitude 4.6M, Depth:10km.",,GDACS,https://www.gdacs.org/report.aspx?eventtype=EQ&eventid=1308219,gdacs.org,www,"['EQ', 'Green']",Tonga,TON,"['Sun, 30 Jan 2022 17:53:26 GMT', 'Sun, 30 Jan 2022 17:53:26 GMT']","['-20.7439', '-175.0581']","Sun, 30 Jan 2022 17:53:26 GMT",East Asia & Pacific,EAS,"Navutoka, Tongatapu, Tonga",Tongatapu,Tonga,Navutoka,,
45,GDACS_1308152,1308152,7 days,"Green earthquake alert (Magnitude 4.5M, Depth:225.14km) in Argentina 30/01/2022 15:08 UTC, About 10000 people within 100km.","On 1/30/2022 3:08:20 PM, an earthquake occurred in Argentina potentially affecting About 10000 people within 100km. The earthquake had Magnitude 4.5M, Depth:225.14km.",,GDACS,https://www.gdacs.org/report.aspx?eventtype=EQ&eventid=1308152,gdacs.org,www,"['EQ', 'Green']",Argentina,ARG,"['Sun, 30 Jan 2022 15:08:20 GMT', 'Sun, 30 Jan 2022 15:08:20 GMT']","['-24.0759', '-67.0847']","Sun, 30 Jan 2022 15:08:20 GMT",Latin America & Caribbean,LCN,"Catúa, Jujuy, Argentina",Jujuy,Argentina,Catúa,,
46,GDACS_1308151,1308151,7 days,"Green earthquake alert (Magnitude 4.6M, Depth:548.36km) in Tonga 30/01/2022 14:48 UTC, Few people within 100km.","On 1/30/2022 2:48:28 PM, an earthquake occurred in Tonga potentially affecting Few people within 100km. The earthquake had Magnitude 4.6M, Depth:548.36km.",,GDACS,https://www.gdacs.org/report.aspx?eventtype=EQ&eventid=1308151,gdacs.org,www,"['EQ', 'Green']",Tonga,TON,"['Sun, 30 Jan 2022 14:48:28 GMT', 'Sun, 30 Jan 2022 14:48:28 GMT']","['-19.9602', '-177.4275']","Sun, 30 Jan 2022 14:48:28 GMT",East Asia & Pacific,EAS,,,,,,
47,GDACS_1308124,1308124,7 days,"Green earthquake alert (Magnitude 4.6M, Depth:42.64km) in Indonesia 30/01/2022 11:31 UTC, No people within 100km.","On 1/30/2022 11:31:34 AM, an earthquake occurred in Indonesia potentially affecting No people within 100km. The earthquake had Magnitude 4.6M, Depth:42.64km.",,GDACS,https://www.gdacs.org/report.aspx?eventtype=EQ&eventid=1308124,gdacs.org,www,"['EQ', 'Green']",Indonesia,IDN,"['Sun, 30 Jan 2022 11:31:34 GMT', 'Sun, 30 Jan 2022 11:31:34 GMT']","['-10.1627', '117.423']","Sun, 30 Jan 2022 11:31:34 GMT",East Asia & Pacific,EAS,,,,,,
48,GDACS_1308122,1308122,7 days,"Green earthquake alert (Magnitude 5.7M, Depth:10km) in Southern East Pacific Rise 30/01/2022 11:07 UTC, No people within 100km.","On 1/30/2022 11:07:33 AM, an earthquake occurred in Southern East Pacific Rise potentially affecting No people within 100km. The earthquake had Magnitude 5.7M, Depth:10km.",,GDACS,https://www.gdacs.org/report.aspx?eventtype=EQ&eventid=1308122,gdacs.org,www,"['EQ', 'Green']",Southern East Pacific Rise,,"['Sun, 30 Jan 2022 11:07:33 GMT', 'Sun, 30 Jan 2022 11:07:33 GMT']","['-32.0938', '-111.8029']","Sun, 30 Jan 2022 11:07:33 GMT",,,,,,,,
49,GDACS_1308119,1308119,7 days,"Green earthquake alert (Magnitude 4.5M, Depth:114.67km) in Papua New Guinea 30/01/2022 10:23 UTC, 270000 people within 100km.","On 1/30/2022 10:23:33 AM, an earthquake occurred in Papua New Guinea potentially affecting 270000 people within 100km. The earthquake had Magnitude 4.5M, Depth:114.67km.",,GDACS,https://www.gdacs.org/report.aspx?eventtype=EQ&eventid=1308119,gdacs.org,www,"['EQ', 'Green']",Papua New Guinea,PNG,"['Sun, 30 Jan 2022 10:23:33 GMT', 'Sun, 30 Jan 2022 10:23:33 GMT']","['-4.4405', '144.4012']","Sun, 30 Jan 2022 10:23:33 GMT",East Asia & Pacific,EAS,"Kitchikan, East Sepik, Papua New Guinea",East Sepik,Papua New Guinea,Kitchikan,,
50,GDACS_1308117,1308117,7 days,"Green earthquake alert (Magnitude 4.7M, Depth:44.57km) in Russian Federation 30/01/2022 10:14 UTC, About 900 people within 100km.","On 1/30/2022 10:14:38 AM, an earthquake occurred in Russian Federation potentially affecting About 900 people within 100km. The earthquake had Magnitude 4.7M, Depth:44.57km.",,GDACS,https://www.gdacs.org/report.aspx?eventtype=EQ&eventid=1308117,gdacs.org,www,"['EQ', 'Green']",Russian Federation,RUS,"['Sun, 30 Jan 2022 10:14:38 GMT', 'Sun, 30 Jan 2022 10:14:38 GMT']","['53.7408', '161.1058']","Sun, 30 Jan 2022 10:14:38 GMT",Europe & Central Asia,ECS,,,,,,
51,GDACS_1308104,1308104,7 days,"Green earthquake alert (Magnitude 4.8M, Depth:103.2km) in South Of Kermadec Islands 30/01/2022 04:47 UTC, No people within 100km.","On 1/30/2022 4:47:01 AM, an earthquake occurred in South Of Kermadec Islands potentially affecting No people within 100km. The earthquake had Magnitude 4.8M, Depth:103.2km.",,GDACS,https://www.gdacs.org/report.aspx?eventtype=EQ&eventid=1308104,gdacs.org,www,"['EQ', 'Green']",South Of Kermadec Islands,,"['Sun, 30 Jan 2022 04:47:01 GMT', 'Sun, 30 Jan 2022 04:47:01 GMT']","['-33.0594', '-179.6306']","Sun, 30 Jan 2022 04:47:01 GMT",,,,,,,,
52,GDACS_1308095,1308095,7 days,"Green earthquake alert (Magnitude 4.9M, Depth:10km) in Argentina 30/01/2022 02:44 UTC, 360000 people within 100km.","On 1/30/2022 2:44:56 AM, an earthquake occurred in Argentina potentially affecting 360000 people within 100km. The earthquake had Magnitude 4.9M, Depth:10km.",,GDACS,https://www.gdacs.org/report.aspx?eventtype=EQ&eventid=1308095,gdacs.org,www,"['EQ', 'Green']",Argentina,ARG,"['Sun, 30 Jan 2022 02:44:56 GMT', 'Sun, 30 Jan 2022 02:44:56 GMT']","['-23.313', '-64.9048']","Sun, 30 Jan 2022 02:44:56 GMT",Latin America & Caribbean,LCN,"Paraní, Salta, Argentina",Salta,Argentina,Paraní,,
53,GDACS_1308072,1308072,7 days,"Green earthquake alert (Magnitude 5.2M, Depth:10km) in Philippines 30/01/2022 00:17 UTC, No people within 100km.","On 1/30/2022 12:17:13 AM, an earthquake occurred in Philippines potentially affecting No people within 100km. The earthquake had Magnitude 5.2M, Depth:10km.",,GDACS,https://www.gdacs.org/report.aspx?eventtype=EQ&eventid=1308072,gdacs.org,www,"['EQ', 'Green']",Philippines,PHL,"['Sun, 30 Jan 2022 00:17:13 GMT', 'Sun, 30 Jan 2022 00:17:13 GMT']","['15.5817', '118.284']","Sun, 30 Jan 2022 00:17:13 GMT",East Asia & Pacific,EAS,,,,,,
54,GDACS_1308068,1308068,7 days,"Green earthquake alert (Magnitude 4.6M, Depth:10km) in Indonesia 29/01/2022 23:08 UTC, 310000 people within 100km.","On 1/29/2022 11:08:27 PM, an earthquake occurred in Indonesia potentially affecting 310000 people within 100km. The earthquake had Magnitude 4.6M, Depth:10km.",,GDACS,https://www.gdacs.org/report.aspx?eventtype=EQ&eventid=1308068,gdacs.org,www,"['EQ', 'Green']",Indonesia,IDN,"['Sat, 29 Jan 2022 23:08:27 GMT', 'Sat, 29 Jan 2022 23:08:27 GMT']","['-2.6715', '128.9841']","Sat, 29 Jan 2022 23:08:27 GMT",East Asia & Pacific,EAS,"Lisiela, Maluku, Indonesia",Maluku,Indonesia,Lisiela,,
55,GDACS_1308057,1308057,7 days,"Green earthquake alert (Magnitude 4.9M, Depth:10km) in Tonga 29/01/2022 21:21 UTC, About 78000 people within 100km.","On 1/29/2022 9:21:49 PM, an earthquake occurred in Tonga potentially affecting About 78000 people within 100km. The earthquake had Magnitude 4.9M, Depth:10km.",,GDACS,https://www.gdacs.org/report.aspx?eventtype=EQ&eventid=1308057,gdacs.org,www,"['EQ', 'Green']",Tonga,TON,"['Sat, 29 Jan 2022 21:21:49 GMT', 'Sat, 29 Jan 2022 21:21:49 GMT']","['-20.609', '-175.5317']","Sat, 29 Jan 2022 21:21:49 GMT",East Asia & Pacific,EAS,"Ha‘atafu, Tongatapu, Tonga",Tongatapu,Tonga,Ha‘atafu,,
56,GDACS_1308053,1308053,7 days,"Green earthquake alert (Magnitude 4.6M, Depth:198.28km) in Bolivia 29/01/2022 20:46 UTC, About 15000 people within 100km.","On 1/29/2022 8:46:05 PM, an earthquake occurred in Bolivia potentially affecting About 15000 people within 100km. The earthquake had Magnitude 4.6M, Depth:198.28km.",,GDACS,https://www.gdacs.org/report.aspx?eventtype=EQ&eventid=1308053,gdacs.org,www,"['EQ', 'Green']",Bolivia,BOL,"['Sat, 29 Jan 2022 20:46:05 GMT', 'Sat, 29 Jan 2022 20:46:05 GMT']","['-21.9207', '-67.5516']","Sat, 29 Jan 2022 20:46:05 GMT",Latin America & Caribbean,LCN,"Aguas Calientes, Potosí, Bolivia",Potosí,Bolivia,Aguas Calientes,,
57,GDACS_1308028,1308028,7 days,"Green earthquake alert (Magnitude 4.6M, Depth:14.34km) in Indonesia 29/01/2022 14:36 UTC, 200000 people within 100km.","On 1/29/2022 2:36:03 PM, an earthquake occurred in Indonesia potentially affecting 200000 people within 100km. The earthquake had Magnitude 4.6M, Depth:14.34km.",,GDACS,https://www.gdacs.org/report.aspx?eventtype=EQ&eventid=1308028,gdacs.org,www,"['EQ', 'Green']",Indonesia,IDN,"['Sat, 29 Jan 2022 14:36:03 GMT', 'Sat, 29 Jan 2022 14:36:03 GMT']","['3.8003', '126.8074']","Sat, 29 Jan 2022 14:36:03 GMT",East Asia & Pacific,EAS,"Birang, , Indonesia",,Indonesia,Birang,,
58,GDACS_1308027,1308027,7 days,"Green earthquake alert (Magnitude 4.9M, Depth:10km) in Kermadec Islands Region 29/01/2022 14:09 UTC, No people within 100km.","On 1/29/2022 2:09:04 PM, an earthquake occurred in Kermadec Islands Region potentially affecting No people within 100km. The earthquake had Magnitude 4.9M, Depth:10km.",,GDACS,https://www.gdacs.org/report.aspx?eventtype=EQ&eventid=1308027,gdacs.org,www,"['EQ', 'Green']",Kermadec Islands Region,,"['Sat, 29 Jan 2022 14:09:04 GMT', 'Sat, 29 Jan 2022 14:09:04 GMT']","['-29.6507', '-176.5951']","Sat, 29 Jan 2022 14:09:04 GMT",,,,,,,,
59,GDACS_1308008,1308008,7 days,"Green earthquake alert (Magnitude 5.1M, Depth:10km) in Trinidad and Tobago 29/01/2022 13:40 UTC, 1080000 people within 100km.","On 1/29/2022 1:40:07 PM, an earthquake occurred in Trinidad and Tobago potentially affecting 1080000 people within 100km. The earthquake had Magnitude 5.1M, Depth:10km.",,GDACS,https://www.gdacs.org/report.aspx?eventtype=EQ&eventid=1308008,gdacs.org,www,"['EQ', 'Green']",Trinidad and Tobago,TTO,"['Sat, 29 Jan 2022 13:40:07 GMT', 'Sat, 29 Jan 2022 13:40:07 GMT']","['10.9713', '-60.987']","Sat, 29 Jan 2022 13:40:07 GMT",Latin America & Caribbean,LCN,"L’Anse Noire, Sangre Grande, Trinidad and Tobago",Sangre Grande,Trinidad and Tobago,L’Anse Noire,,
60,GDACS_1308005,1308005,7 days,"Green earthquake alert (Magnitude 4.5M, Depth:121.03km) in Argentina 29/01/2022 12:56 UTC, About 80000 people within 100km.","On 1/29/2022 12:56:53 PM, an earthquake occurred in Argentina potentially affecting About 80000 people within 100km. The earthquake had Magnitude 4.5M, Depth:121.03km.",,GDACS,https://www.gdacs.org/report.aspx?eventtype=EQ&eventid=1308005,gdacs.org,www,"['EQ', 'Green']",Argentina,ARG,"['Sat, 29 Jan 2022 12:56:53 GMT', 'Sat, 29 Jan 2022 12:56:53 GMT']","['-28.155', '-67.4906']","Sat, 29 Jan 2022 12:56:53 GMT",Latin America & Caribbean,LCN,"La Puntilla, Catamarca, Argentina",Catamarca,Argentina,La Puntilla,,
61,GDACS_1307999,1307999,7 days,"Green earthquake alert (Magnitude 4.6M, Depth:10km) in Kermadec Islands, New Zealand 29/01/2022 11:12 UTC, No people within 100km.","On 1/29/2022 11:12:15 AM, an earthquake occurred in Kermadec Islands, New Zealand potentially affecting No people within 100km. The earthquake had Magnitude 4.6M, Depth:10km.",,GDACS,https://www.gdacs.org/report.aspx?eventtype=EQ&eventid=1307999,gdacs.org,www,"['EQ', 'Green']","Kermadec Islands, New Zealand",,"['Sat, 29 Jan 2022 11:12:15 GMT', 'Sat, 29 Jan 2022 11:12:15 GMT']","['-29.8508', '-177.2141']","Sat, 29 Jan 2022 11:12:15 GMT",,,,,,,,
62,GDACS_1307993,1307993,7 days,"Green earthquake alert (Magnitude 4.7M, Depth:35km) in United States 29/01/2022 10:23 UTC, Few people within 100km.","On 1/29/2022 10:23:00 AM, an earthquake occurred in United States potentially affecting Few people within 100km. The earthquake had Magnitude 4.7M, Depth:35km.",,GDACS,https://www.gdacs.org/report.aspx?eventtype=EQ&eventid=1307993,gdacs.org,www,"['EQ', 'Green']",United States,USA,"['Sat, 29 Jan 2022 10:23:00 GMT', 'Sat, 29 Jan 2022 10:23:00 GMT']","['53.8054', '-164.0669']","Sat, 29 Jan 2022 10:23:00 GMT",North America,NAC,"Tigalda (historical), Alaska, United States",Alaska,United States,Tigalda (historical),,
63,GDACS_1307992,1307992,7 days,"Green earthquake alert (Magnitude 4.6M, Depth:35km) in United States 29/01/2022 09:56 UTC, Few people within 100km.","On 1/29/2022 9:56:16 AM, an earthquake occurred in United States potentially affecting Few people within 100km. The earthquake had Magnitude 4.6M, Depth:35km.",,GDACS,https://www.gdacs.org/report.aspx?eventtype=EQ&eventid=1307992,gdacs.org,www,"['EQ', 'Green']",United States,USA,"['Sat, 29 Jan 2022 09:56:16 GMT', 'Sat, 29 Jan 2022 09:56:16 GMT']","['53.8797', '-164.0614']","Sat, 29 Jan 2022 09:56:16 GMT",North America,NAC,"Tigalda (historical), Alaska, United States",Alaska,United States,Tigalda (historical),,
64,GDACS_1307990,1307990,7 days,"Green earthquake alert (Magnitude 4.8M, Depth:35km) in United States 29/01/2022 09:33 UTC, No people within 100km.","On 1/29/2022 9:33:54 AM, an earthquake occurred in United States potentially affecting No people within 100km. The earthquake had Magnitude 4.8M, Depth:35km.",,GDACS,https://www.gdacs.org/report.aspx?eventtype=EQ&eventid=1307990,gdacs.org,www,"['EQ', 'Green']",United States,USA,"['Sat, 29 Jan 2022 09:33:54 GMT', 'Sat, 29 Jan 2022 09:33:54 GMT']","['53.7894', '-164.0271']","Sat, 29 Jan 2022 09:33:54 GMT",North America,NAC,"Tigalda (historical), Alaska, United States",Alaska,United States,Tigalda (historical),,
65,GDACS_1307988,1307988,7 days,"Green earthquake alert (Magnitude 4.9M, Depth:10km) in Kermadec Islands Region 29/01/2022 08:48 UTC, No people within 100km.","On 1/29/2022 8:48:00 AM, an earthquake occurred in Kermadec Islands Region potentially affecting No people within 100km. The earthquake had Magnitude 4.9M, Depth:10km.",,GDACS,https://www.gdacs.org/report.aspx?eventtype=EQ&eventid=1307988,gdacs.org,www,"['EQ', 'Green']",Kermadec Islands Region,,"['Sat, 29 Jan 2022 08:48:00 GMT', 'Sat, 29 Jan 2022 08:48:00 GMT']","['-29.6633', '-176.6341']","Sat, 29 Jan 2022 08:48:00 GMT",,,,,,,,
66,GDACS_1307979,1307979,7 days,"Green earthquake alert (Magnitude 4.9M, Depth:10km) in Kermadec Islands Region 29/01/2022 07:30 UTC, No people within 100km.","On 1/29/2022 7:30:27 AM, an earthquake occurred in Kermadec Islands Region potentially affecting No people within 100km. The earthquake had Magnitude 4.9M, Depth:10km.",,GDACS,https://www.gdacs.org/report.aspx?eventtype=EQ&eventid=1307979,gdacs.org,www,"['EQ', 'Green']",Kermadec Islands Region,,"['Sat, 29 Jan 2022 07:30:27 GMT', 'Sat, 29 Jan 2022 07:30:27 GMT']","['-29.3155', '-176.6452']","Sat, 29 Jan 2022 07:30:27 GMT",,,,,,,,
67,GDACS_1307965,1307965,7 days,"Green earthquake alert (Magnitude 5.8M, Depth:10km) in Kermadec Islands Region 29/01/2022 04:59 UTC, No people within 100km.","On 1/29/2022 4:59:10 AM, an earthquake occurred in Kermadec Islands Region potentially affecting No people within 100km. The earthquake had Magnitude 5.8M, Depth:10km.",,GDACS,https://www.gdacs.org/report.aspx?eventtype=EQ&eventid=1307965,gdacs.org,www,"['EQ', 'Green']",Kermadec Islands Region,,"['Sat, 29 Jan 2022 04:59:10 GMT', 'Sat, 29 Jan 2022 04:59:10 GMT']","['-29.6608', '-176.9055']","Sat, 29 Jan 2022 04:59:10 GMT",,,,,,,,
68,GDACS_1307964,1307964,7 days,"Green earthquake alert (Magnitude 5M, Depth:10km) in Kermadec Islands Region 29/01/2022 04:42 UTC, No people within 100km.","On 1/29/2022 4:42:36 AM, an earthquake occurred in Kermadec Islands Region potentially affecting No people within 100km. The earthquake had Magnitude 5M, Depth:10km.",,GDACS,https://www.gdacs.org/report.aspx?eventtype=EQ&eventid=1307964,gdacs.org,www,"['EQ', 'Green']",Kermadec Islands Region,,"['Sat, 29 Jan 2022 04:42:36 GMT', 'Sat, 29 Jan 2022 04:42:36 GMT']","['-29.6316', '-176.4856']","Sat, 29 Jan 2022 04:42:36 GMT",,,,,,,,
69,GDACS_1307960,1307960,7 days,"Green earthquake alert (Magnitude 5.1M, Depth:10km) in Kermadec Islands Region 29/01/2022 04:38 UTC, No people within 100km.","On 1/29/2022 4:38:58 AM, an earthquake occurred in Kermadec Islands Region potentially affecting No people within 100km. The earthquake had Magnitude 5.1M, Depth:10km.",,GDACS,https://www.gdacs.org/report.aspx?eventtype=EQ&eventid=1307960,gdacs.org,www,"['EQ', 'Green']",Kermadec Islands Region,,"['Sat, 29 Jan 2022 04:38:58 GMT', 'Sat, 29 Jan 2022 04:38:58 GMT']","['-29.7775', '-176.6215']","Sat, 29 Jan 2022 04:38:58 GMT",,,,,,,,
70,GDACS_1307953,1307953,7 days,"Green earthquake alert (Magnitude 4.9M, Depth:83.32km) in El Salvador 29/01/2022 03:19 UTC, 3780000 people within 100km.","On 1/29/2022 3:19:29 AM, an earthquake occurred in El Salvador potentially affecting 3780000 people within 100km. The earthquake had Magnitude 4.9M, Depth:83.32km.",,GDACS,https://www.gdacs.org/report.aspx?eventtype=EQ&eventid=1307953,gdacs.org,www,"['EQ', 'Green']",El Salvador,SLV,"['Sat, 29 Jan 2022 03:19:29 GMT', 'Sat, 29 Jan 2022 03:19:29 GMT']","['13.0505', '-88.6847']","Sat, 29 Jan 2022 03:19:29 GMT",Latin America & Caribbean,LCN,"Isla de Méndez, Usulután, El Salvador",Usulután,El Salvador,Isla de Méndez,,
71,GDACS_1307959,1307959,7 days,"Green earthquake alert (Magnitude 5.1M, Depth:10km) in Kermadec Islands Region 29/01/2022 03:04 UTC, No people within 100km.","On 1/29/2022 3:04:51 AM, an earthquake occurred in Kermadec Islands Region potentially affecting No people within 100km. The earthquake had Magnitude 5.1M, Depth:10km.",,GDACS,https://www.gdacs.org/report.aspx?eventtype=EQ&eventid=1307959,gdacs.org,www,"['EQ', 'Green']",Kermadec Islands Region,,"['Sat, 29 Jan 2022 03:04:51 GMT', 'Sat, 29 Jan 2022 03:04:51 GMT']","['-29.7927', '-176.8112']","Sat, 29 Jan 2022 03:04:51 GMT",,,,,,,,
72,GDACS_1307951,1307951,7 days,"Green earthquake alert (Magnitude 5.3M, Depth:10km) in Kermadec Islands Region 29/01/2022 03:01 UTC, No people within 100km.","On 1/29/2022 3:01:29 AM, an earthquake occurred in Kermadec Islands Region potentially affecting No people within 100km. The earthquake had Magnitude 5.3M, Depth:10km.",,GDACS,https://www.gdacs.org/report.aspx?eventtype=EQ&eventid=1307951,gdacs.org,www,"['EQ', 'Green']",Kermadec Islands Region,,"['Sat, 29 Jan 2022 03:01:29 GMT', 'Sat, 29 Jan 2022 03:01:29 GMT']","['-29.7553', '-176.7022']","Sat, 29 Jan 2022 03:01:29 GMT",,,,,,,,
73,GDACS_1307956,1307956,7 days,"Green earthquake alert (Magnitude 5.3M, Depth:10km) in Kermadec Islands Region 29/01/2022 02:53 UTC, No people within 100km.","On 1/29/2022 2:53:25 AM, an earthquake occurred in Kermadec Islands Region potentially affecting No people within 100km. The earthquake had Magnitude 5.3M, Depth:10km.",,GDACS,https://www.gdacs.org/report.aspx?eventtype=EQ&eventid=1307956,gdacs.org,www,"['EQ', 'Green']",Kermadec Islands Region,,"['Sat, 29 Jan 2022 02:53:25 GMT', 'Sat, 29 Jan 2022 02:53:25 GMT']","['-29.6247', '-176.759']","Sat, 29 Jan 2022 02:53:25 GMT",,,,,,,,
74,GDACS_1307946,1307946,7 days,"Green earthquake alert (Magnitude 6.5M, Depth:10km) in Kermadec Islands Region 29/01/2022 02:46 UTC, No people within 100km.","On 1/29/2022 2:46:39 AM, an earthquake occurred in Kermadec Islands Region potentially affecting No people within 100km. The earthquake had Magnitude 6.5M, Depth:10km.",,GDACS,https://www.gdacs.org/report.aspx?eventtype=EQ&eventid=1307946,gdacs.org,www,"['EQ', 'Green']",Kermadec Islands Region,,"['Sat, 29 Jan 2022 02:46:39 GMT', 'Sat, 29 Jan 2022 02:46:39 GMT']","['-29.5308', '-176.7488']","Sat, 29 Jan 2022 02:46:39 GMT",,,,,,,,
75,GDACS_1307922,1307922,7 days,"Green earthquake alert (Magnitude 4.5M, Depth:32.04km) in Indonesia 28/01/2022 23:38 UTC, About 84000 people within 100km.","On 1/28/2022 11:38:14 PM, an earthquake occurred in Indonesia potentially affecting About 84000 people within 100km. The earthquake had Magnitude 4.5M, Depth:32.04km.",,GDACS,https://www.gdacs.org/report.aspx?eventtype=EQ&eventid=1307922,gdacs.org,www,"['EQ', 'Green']",Indonesia,IDN,"['Fri, 28 Jan 2022 23:38:14 GMT', 'Fri, 28 Jan 2022 23:38:14 GMT']","['-5.0393', '102.2844']","Fri, 28 Jan 2022 23:38:14 GMT",East Asia & Pacific,EAS,"Lakoaha, Bengkulu, Indonesia",Bengkulu,Indonesia,Lakoaha,,
76,GDACS_1308071,1308071,7 days,"Green earthquake alert (Magnitude 4.9M, Depth:10km) in Tonga 28/01/2022 21:12 UTC, About 83000 people within 100km.","On 1/28/2022 9:12:20 PM, an earthquake occurred in Tonga potentially affecting About 83000 people within 100km. The earthquake had Magnitude 4.9M, Depth:10km.",,GDACS,https://www.gdacs.org/report.aspx?eventtype=EQ&eventid=1308071,gdacs.org,www,"['EQ', 'Green']",Tonga,TON,"['Fri, 28 Jan 2022 21:12:20 GMT', 'Fri, 28 Jan 2022 21:12:20 GMT']","['-20.8398', '-175.4065']","Fri, 28 Jan 2022 21:12:20 GMT",East Asia & Pacific,EAS,"Ha‘atafu, Tongatapu, Tonga",Tongatapu,Tonga,Ha‘atafu,,
77,GDACS_1307910,1307910,7 days,"Green earthquake alert (Magnitude 4.8M, Depth:54.91km) in Japan 28/01/2022 21:00 UTC, 370000 people within 100km.","On 1/28/2022 9:00:33 PM, an earthquake occurred in Japan potentially affecting 370000 people within 100km. The earthquake had Magnitude 4.8M, Depth:54.91km.",,GDACS,https://www.gdacs.org/report.aspx?eventtype=EQ&eventid=1307910,gdacs.org,www,"['EQ', 'Green']",Japan,JPN,"['Fri, 28 Jan 2022 21:00:33 GMT', 'Fri, 28 Jan 2022 21:00:33 GMT']","['39.1514', '142.3999']","Fri, 28 Jan 2022 21:00:33 GMT",East Asia & Pacific,EAS,"Sasu, Iwate, Japan",Iwate,Japan,Sasu,,
78,GDACS_1307900,1307900,7 days,"Green earthquake alert (Magnitude 4.6M, Depth:203.64km) in Tonga 28/01/2022 18:58 UTC, No people within 100km.","On 1/28/2022 6:58:08 PM, an earthquake occurred in Tonga potentially affecting No people within 100km. The earthquake had Magnitude 4.6M, Depth:203.64km.",,GDACS,https://www.gdacs.org/report.aspx?eventtype=EQ&eventid=1307900,gdacs.org,www,"['EQ', 'Green']",Tonga,TON,"['Fri, 28 Jan 2022 18:58:08 GMT', 'Fri, 28 Jan 2022 18:58:08 GMT']","['-21.6367', '-176.478']","Fri, 28 Jan 2022 18:58:08 GMT",East Asia & Pacific,EAS,,,,,,
79,GDACS_1307892,1307892,7 days,"Green earthquake alert (Magnitude 4.7M, Depth:86.78km) in South Georgia and the South Sandwich Islands 28/01/2022 16:52 UTC, No people within 100km.","On 1/28/2022 4:52:08 PM, an earthquake occurred in South Georgia and the South Sandwich Islands potentially affecting No people within 100km. The earthquake had Magnitude 4.7M, Depth:86.78km.",,GDACS,https://www.gdacs.org/report.aspx?eventtype=EQ&eventid=1307892,gdacs.org,www,"['EQ', 'Green']",South Georgia and the South Sandwich Islands,SGS,"['Fri, 28 Jan 2022 16:52:08 GMT', 'Fri, 28 Jan 2022 16:52:08 GMT']","['-59.3185', '-25.4108']","Fri, 28 Jan 2022 16:52:08 GMT",,,,,,,,
80,GDACS_1307893,1307893,7 days,"Green earthquake alert (Magnitude 4.5M, Depth:120.09km) in Afghanistan 28/01/2022 16:49 UTC, 790000 people within 100km.","On 1/28/2022 4:49:10 PM, an earthquake occurred in Afghanistan potentially affecting 790000 people within 100km. The earthquake had Magnitude 4.5M, Depth:120.09km.",,GDACS,https://www.gdacs.org/report.aspx?eventtype=EQ&eventid=1307893,gdacs.org,www,"['EQ', 'Green']",Afghanistan,AFG,"['Fri, 28 Jan 2022 16:49:10 GMT', 'Fri, 28 Jan 2022 16:49:10 GMT']","['36.0855', '70.4709']","Fri, 28 Jan 2022 16:49:10 GMT",South Asia,SAS,"Yamak, Badakhshan, Afghanistan",Badakhshan,Afghanistan,Yamak,,
81,GDACS_1307886,1307886,7 days,"Green earthquake alert (Magnitude 4.8M, Depth:10km) in Antarctica 28/01/2022 13:46 UTC, No people within 100km.","On 1/28/2022 1:46:29 PM, an earthquake occurred in Antarctica potentially affecting No people within 100km. The earthquake had Magnitude 4.8M, Depth:10km.",,GDACS,https://www.gdacs.org/report.aspx?eventtype=EQ&eventid=1307886,gdacs.org,www,"['EQ', 'Green']",Antarctica,ATA,"['Fri, 28 Jan 2022 13:46:29 GMT', 'Fri, 28 Jan 2022 13:46:29 GMT']","['-61.4438', '-37.0094']","Fri, 28 Jan 2022 13:46:29 GMT",,,,,,,,
82,GDACS_1307864,1307864,7 days,"Green earthquake alert (Magnitude 5.2M, Depth:131.49km) in Chile 28/01/2022 13:43 UTC, 240000 people within 100km.","On 1/28/2022 1:43:26 PM, an earthquake occurred in Chile potentially affecting 240000 people within 100km. The earthquake had Magnitude 5.2M, Depth:131.49km.",,GDACS,https://www.gdacs.org/report.aspx?eventtype=EQ&eventid=1307864,gdacs.org,www,"['EQ', 'Green']",Chile,CHL,"['Fri, 28 Jan 2022 13:43:26 GMT', 'Fri, 28 Jan 2022 13:43:26 GMT']","['-18.7824', '-69.6263']","Fri, 28 Jan 2022 13:43:26 GMT",Latin America & Caribbean,LCN,"Guatanave, Arica y Parinacota, Chile",Arica y Parinacota,Chile,Guatanave,,
83,GDACS_1307863,1307863,7 days,"Green earthquake alert (Magnitude 4.6M, Depth:547.13km) in Fiji 28/01/2022 13:02 UTC, No people within 100km.","On 1/28/2022 1:02:58 PM, an earthquake occurred in Fiji potentially affecting No people within 100km. The earthquake had Magnitude 4.6M, Depth:547.13km.",,GDACS,https://www.gdacs.org/report.aspx?eventtype=EQ&eventid=1307863,gdacs.org,www,"['EQ', 'Green']",Fiji,FJI,"['Fri, 28 Jan 2022 13:02:58 GMT', 'Fri, 28 Jan 2022 13:02:58 GMT']","['-17.7352', '-177.1923']","Fri, 28 Jan 2022 13:02:58 GMT",East Asia & Pacific,EAS,,,,,,
84,GDACS_1307849,1307849,7 days,"Green earthquake alert (Magnitude 4.9M, Depth:10km) in Indonesia 28/01/2022 11:20 UTC, No people within 100km.","On 1/28/2022 11:20:37 AM, an earthquake occurred in Indonesia potentially affecting No people within 100km. The earthquake had Magnitude 4.9M, Depth:10km.",,GDACS,https://www.gdacs.org/report.aspx?eventtype=EQ&eventid=1307849,gdacs.org,www,"['EQ', 'Green']",Indonesia,IDN,"['Fri, 28 Jan 2022 11:20:37 GMT', 'Fri, 28 Jan 2022 11:20:37 GMT']","['-12.0752', '112.8863']","Fri, 28 Jan 2022 11:20:37 GMT",East Asia & Pacific,EAS,,,,,,
85,GDACS_1307844,1307844,7 days,"Green earthquake alert (Magnitude 6.1M, Depth:10km) in Panama 28/01/2022 11:14 UTC, No people within 100km.","On 1/28/2022 11:14:09 AM, an earthquake occurred in Panama potentially affecting No people within 100km. The earthquake had Magnitude 6.1M, Depth:10km.",,GDACS,https://www.gdacs.org/report.aspx?eventtype=EQ&eventid=1307844,gdacs.org,www,"['EQ', 'Green']",Panama,PAN,"['Fri, 28 Jan 2022 11:14:09 GMT', 'Fri, 28 Jan 2022 11:14:09 GMT']","['5.4909', '-82.5881']","Fri, 28 Jan 2022 11:14:09 GMT",Latin America & Caribbean,LCN,,,,,,
86,GDACS_1307831,1307831,7 days,"Green earthquake alert (Magnitude 4.9M, Depth:511.51km) in South Of Fiji Islands 28/01/2022 08:03 UTC, No people within 100km.","On 1/28/2022 8:03:28 AM, an earthquake occurred in South Of Fiji Islands potentially affecting No people within 100km. The earthquake had Magnitude 4.9M, Depth:511.51km.",,GDACS,https://www.gdacs.org/report.aspx?eventtype=EQ&eventid=1307831,gdacs.org,www,"['EQ', 'Green']",South Of Fiji Islands,,"['Fri, 28 Jan 2022 08:03:28 GMT', 'Fri, 28 Jan 2022 08:03:28 GMT']","['-24.7241', '179.7909']","Fri, 28 Jan 2022 08:03:28 GMT",,,,,,,,
87,GDACS_1307825,1307825,7 days,"Green earthquake alert (Magnitude 4.9M, Depth:132.68km) in South Georgia and the South Sandwich Islands 28/01/2022 07:03 UTC, No people within 100km.","On 1/28/2022 7:03:20 AM, an earthquake occurred in South Georgia and the South Sandwich Islands potentially affecting No people within 100km. The earthquake had Magnitude 4.9M, Depth:132.68km.",,GDACS,https://www.gdacs.org/report.aspx?eventtype=EQ&eventid=1307825,gdacs.org,www,"['EQ', 'Green']",South Georgia and the South Sandwich Islands,SGS,"['Fri, 28 Jan 2022 07:03:20 GMT', 'Fri, 28 Jan 2022 07:03:20 GMT']","['-56.8013', '-26.9915']","Fri, 28 Jan 2022 07:03:20 GMT",,,,,,,,
88,GDACS_1307824,1307824,7 days,"Green earthquake alert (Magnitude 4.8M, Depth:641.93km) in Fiji 28/01/2022 06:57 UTC, About 300 people within 100km.","On 1/28/2022 6:57:31 AM, an earthquake occurred in Fiji potentially affecting About 300 people within 100km. The earthquake had Magnitude 4.8M, Depth:641.93km.",,GDACS,https://www.gdacs.org/report.aspx?eventtype=EQ&eventid=1307824,gdacs.org,www,"['EQ', 'Green']",Fiji,FJI,"['Fri, 28 Jan 2022 06:57:31 GMT', 'Fri, 28 Jan 2022 06:57:31 GMT']","['-18.1204', '-177.789']","Fri, 28 Jan 2022 06:57:31 GMT",East Asia & Pacific,EAS,,,,,,
89,GDACS_1307822,1307822,7 days,"Green earthquake alert (Magnitude 4.9M, Depth:72.15km) in Indonesia 28/01/2022 06:54 UTC, 210000 people within 100km.","On 1/28/2022 6:54:00 AM, an earthquake occurred in Indonesia potentially affecting 210000 people within 100km. The earthquake had Magnitude 4.9M, Depth:72.15km.",,GDACS,https://www.gdacs.org/report.aspx?eventtype=EQ&eventid=1307822,gdacs.org,www,"['EQ', 'Green']",Indonesia,IDN,"['Fri, 28 Jan 2022 06:54:00 GMT', 'Fri, 28 Jan 2022 06:54:00 GMT']","['-0.1631', '124.4014']","Fri, 28 Jan 2022 06:54:00 GMT",East Asia & Pacific,EAS,"Dusun Empat Mataindo, North Sulawesi, Indonesia",North Sulawesi,Indonesia,Dusun Empat Mataindo,,
90,GDACS_1307814,1307814,7 days,"Green earthquake alert (Magnitude 4.6M, Depth:130.91km) in Chile 28/01/2022 05:20 UTC, About 9000 people within 100km.","On 1/28/2022 5:20:37 AM, an earthquake occurred in Chile potentially affecting About 9000 people within 100km. The earthquake had Magnitude 4.6M, Depth:130.91km.",,GDACS,https://www.gdacs.org/report.aspx?eventtype=EQ&eventid=1307814,gdacs.org,www,"['EQ', 'Green']",Chile,CHL,"['Fri, 28 Jan 2022 05:20:37 GMT', 'Fri, 28 Jan 2022 05:20:37 GMT']","['-21.407', '-68.5939']","Fri, 28 Jan 2022 05:20:37 GMT",Latin America & Caribbean,LCN,"Chela, Antofagasta, Chile",Antofagasta,Chile,Chela,,
91,GDACS_1307813,1307813,7 days,"Green earthquake alert (Magnitude 4.7M, Depth:63.31km) in Philippines 28/01/2022 04:56 UTC, About 1000 people within 100km.","On 1/28/2022 4:56:13 AM, an earthquake occurred in Philippines potentially affecting About 1000 people within 100km. The earthquake had Magnitude 4.7M, Depth:63.31km.",,GDACS,https://www.gdacs.org/report.aspx?eventtype=EQ&eventid=1307813,gdacs.org,www,"['EQ', 'Green']",Philippines,PHL,"['Fri, 28 Jan 2022 04:56:13 GMT', 'Fri, 28 Jan 2022 04:56:13 GMT']","['6.1416', '127.0714']","Fri, 28 Jan 2022 04:56:13 GMT",East Asia & Pacific,EAS,,,,,,
92,GDACS_1307807,1307807,7 days,"Green earthquake alert (Magnitude 4.9M, Depth:10km) in Cyprus 28/01/2022 03:57 UTC, 190000 people within 100km.","On 1/28/2022 3:57:44 AM, an earthquake occurred in Cyprus potentially affecting 190000 people within 100km. The earthquake had Magnitude 4.9M, Depth:10km.",,GDACS,https://www.gdacs.org/report.aspx?eventtype=EQ&eventid=1307807,gdacs.org,www,"['EQ', 'Green']",Cyprus,CYP,"['Fri, 28 Jan 2022 03:57:44 GMT', 'Fri, 28 Jan 2022 03:57:44 GMT']","['35.1013', '31.9579']","Fri, 28 Jan 2022 03:57:44 GMT",Europe & Central Asia,ECS,"Neo Chorio, Pafos, Cyprus",Pafos,Cyprus,Neo Chorio,,
93,GDACS_1307784,1307784,7 days,"Green earthquake alert (Magnitude 4.5M, Depth:66.6km) in Japan 28/01/2022 01:35 UTC, 2450000 people within 100km.","On 1/28/2022 1:35:05 AM, an earthquake occurred in Japan potentially affecting 2450000 people within 100km. The earthquake had Magnitude 4.5M, Depth:66.6km.",,GDACS,https://www.gdacs.org/report.aspx?eventtype=EQ&eventid=1307784,gdacs.org,www,"['EQ', 'Green']",Japan,JPN,"['Fri, 28 Jan 2022 01:35:05 GMT', 'Fri, 28 Jan 2022 01:35:05 GMT']","['38.2417', '141.6968']","Fri, 28 Jan 2022 01:35:05 GMT",East Asia & Pacific,EAS,"Yamadori, Miyagi, Japan",Miyagi,Japan,Yamadori,,
94,GDACS_1307785,1307785,7 days,"Green earthquake alert (Magnitude 4.9M, Depth:10km) in Tonga 28/01/2022 01:33 UTC, About 83000 people within 100km.","On 1/28/2022 1:33:38 AM, an earthquake occurred in Tonga potentially affecting About 83000 people within 100km. The earthquake had Magnitude 4.9M, Depth:10km.",,GDACS,https://www.gdacs.org/report.aspx?eventtype=EQ&eventid=1307785,gdacs.org,www,"['EQ', 'Green']",Tonga,TON,"['Fri, 28 Jan 2022 01:33:38 GMT', 'Fri, 28 Jan 2022 01:33:38 GMT']","['-20.6329', '-175.4463']","Fri, 28 Jan 2022 01:33:38 GMT",East Asia & Pacific,EAS,"Ha‘atafu, Tongatapu, Tonga",Tongatapu,Tonga,Ha‘atafu,,
95,GDACS_1307779,1307779,7 days,"Green earthquake alert (Magnitude 5.5M, Depth:92.47km) in Chile 28/01/2022 00:31 UTC, About 17000 people within 100km.","On 1/28/2022 12:31:25 AM, an earthquake occurred in Chile potentially affecting About 17000 people within 100km. The earthquake had Magnitude 5.5M, Depth:92.47km.",,GDACS,https://www.gdacs.org/report.aspx?eventtype=EQ&eventid=1307779,gdacs.org,www,"['EQ', 'Green']",Chile,CHL,"['Fri, 28 Jan 2022 00:31:25 GMT', 'Fri, 28 Jan 2022 00:31:25 GMT']","['-19.1264', '-69.3571']","Fri, 28 Jan 2022 00:31:25 GMT",Latin America & Caribbean,LCN,"Paga, Tarapacá, Chile",Tarapacá,Chile,Paga,,
96,GDACS_1307778,1307778,7 days,"Green earthquake alert (Magnitude 4.6M, Depth:141.75km) in Papua New Guinea 27/01/2022 23:39 UTC, 180000 people within 100km.","On 1/27/2022 11:39:28 PM, an earthquake occurred in Papua New Guinea potentially affecting 180000 people within 100km. The earthquake had Magnitude 4.6M, Depth:141.75km.",,GDACS,https://www.gdacs.org/report.aspx?eventtype=EQ&eventid=1307778,gdacs.org,www,"['EQ', 'Green']",Papua New Guinea,PNG,"['Thu, 27 Jan 2022 23:39:28 GMT', 'Thu, 27 Jan 2022 23:39:28 GMT']","['-7.9474', '146.7723']","Thu, 27 Jan 2022 23:39:28 GMT",East Asia & Pacific,EAS,"Beluok, Morobe, Papua New Guinea",Morobe,Papua New Guinea,Beluok,,
97,GDACS_1307974,1307974,7 days,"Green earthquake alert (Magnitude 4.9M, Depth:10km) in Kermadec Islands Region 27/01/2022 22:18 UTC, No people within 100km.","On 1/27/2022 10:18:53 PM, an earthquake occurred in Kermadec Islands Region potentially affecting No people within 100km. The earthquake had Magnitude 4.9M, Depth:10km.",,GDACS,https://www.gdacs.org/report.aspx?eventtype=EQ&eventid=1307974,gdacs.org,www,"['EQ', 'Green']",Kermadec Islands Region,,"['Thu, 27 Jan 2022 22:18:53 GMT', 'Thu, 27 Jan 2022 22:18:53 GMT']","['-28.882', '-176.6122']","Thu, 27 Jan 2022 22:18:53 GMT",,,,,,,,
98,GDACS_1307763,1307763,7 days,"Green earthquake alert (Magnitude 5M, Depth:23.82km) in Indonesia 27/01/2022 16:03 UTC, No people within 100km.","On 1/27/2022 4:03:03 PM, an earthquake occurred in Indonesia potentially affecting No people within 100km. The earthquake had Magnitude 5M, Depth:23.82km.",,GDACS,https://www.gdacs.org/report.aspx?eventtype=EQ&eventid=1307763,gdacs.org,www,"['EQ', 'Green']",Indonesia,IDN,"['Thu, 27 Jan 2022 16:03:03 GMT', 'Thu, 27 Jan 2022 16:03:03 GMT']","['-8.7448', '108.0816']","Thu, 27 Jan 2022 16:03:03 GMT",East Asia & Pacific,EAS,,,,,,
99,GDACS_1307758,1307758,7 days,"Green earthquake alert (Magnitude 4.5M, Depth:10km) in Haiti 27/01/2022 14:59 UTC, 2440000 people within 100km.","On 1/27/2022 2:59:20 PM, an earthquake occurred in Haiti potentially affecting 2440000 people within 100km. The earthquake had Magnitude 4.5M, Depth:10km.",,GDACS,https://www.gdacs.org/report.aspx?eventtype=EQ&eventid=1307758,gdacs.org,www,"['EQ', 'Green']",Haiti,HTI,"['Thu, 27 Jan 2022 14:59:20 GMT', 'Thu, 27 Jan 2022 14:59:20 GMT']","['18.4262', '-73.3898']","Thu, 27 Jan 2022 14:59:20 GMT",Latin America & Caribbean,LCN,"Didier, Nippes, Haiti",Nippes,Haiti,Didier,,
100,GDACS_1307737,1307737,7 days,"Green earthquake alert (Magnitude 4.8M, Depth:33.17km) in Indonesia 27/01/2022 13:20 UTC, 120000 people within 100km.","On 1/27/2022 1:20:05 PM, an earthquake occurred in Indonesia potentially affecting 120000 people within 100km. The earthquake had Magnitude 4.8M, Depth:33.17km.",,GDACS,https://www.gdacs.org/report.aspx?eventtype=EQ&eventid=1307737,gdacs.org,www,"['EQ', 'Green']",Indonesia,IDN,"['Thu, 27 Jan 2022 13:20:05 GMT', 'Thu, 27 Jan 2022 13:20:05 GMT']","['-6.6866', '120.6265']","Thu, 27 Jan 2022 13:20:05 GMT",East Asia & Pacific,EAS,"Bonelambere, South Sulawesi, Indonesia",South Sulawesi,Indonesia,Bonelambere,,
101,GDACS_1307970,1307970,7 days,"Green earthquake alert (Magnitude 4.7M, Depth:10km) in Tonga 27/01/2022 11:14 UTC, About 84000 people within 100km.","On 1/27/2022 11:14:22 AM, an earthquake occurred in Tonga potentially affecting About 84000 people within 100km. The earthquake had Magnitude 4.7M, Depth:10km.",,GDACS,https://www.gdacs.org/report.aspx?eventtype=EQ&eventid=1307970,gdacs.org,www,"['EQ', 'Green']",Tonga,TON,"['Thu, 27 Jan 2022 11:14:22 GMT', 'Thu, 27 Jan 2022 11:14:22 GMT']","['-20.6757', '-175.3475']","Thu, 27 Jan 2022 11:14:22 GMT",East Asia & Pacific,EAS,"Ha‘atafu, Tongatapu, Tonga",Tongatapu,Tonga,Ha‘atafu,,
102,GDACS_1307708,1307708,7 days,"Green earthquake alert (Magnitude 6.2M, Depth:4.17km) in Tonga 27/01/2022 06:40 UTC, No people within 100km.","On 1/27/2022 6:40:07 AM, an earthquake occurred in Tonga potentially affecting No people within 100km. The earthquake had Magnitude 6.2M, Depth:4.17km.",,GDACS,https://www.gdacs.org/report.aspx?eventtype=EQ&eventid=1307708,gdacs.org,www,"['EQ', 'Green']",Tonga,TON,"['Thu, 27 Jan 2022 06:40:07 GMT', 'Thu, 27 Jan 2022 06:40:07 GMT']","['-19.0681', '-176.3494']","Thu, 27 Jan 2022 06:40:07 GMT",East Asia & Pacific,EAS,,,,,,
103,GDACS_1307702,1307702,7 days,"Green earthquake alert (Magnitude 5M, Depth:75.92km) in Indonesia 27/01/2022 06:15 UTC, About 41000 people within 100km.","On 1/27/2022 6:15:10 AM, an earthquake occurred in Indonesia potentially affecting About 41000 people within 100km. The earthquake had Magnitude 5M, Depth:75.92km.",,GDACS,https://www.gdacs.org/report.aspx?eventtype=EQ&eventid=1307702,gdacs.org,www,"['EQ', 'Green']",Indonesia,IDN,"['Thu, 27 Jan 2022 06:15:10 GMT', 'Thu, 27 Jan 2022 06:15:10 GMT']","['3.0969', '127.9481']","Thu, 27 Jan 2022 06:15:10 GMT",East Asia & Pacific,EAS,,,,,,
104,GDACS_1307697,1307697,7 days,"Green earthquake alert (Magnitude 4.6M, Depth:10km) in Greenland 27/01/2022 04:52 UTC, About 2000 people within 100km.","On 1/27/2022 4:52:48 AM, an earthquake occurred in Greenland potentially affecting About 2000 people within 100km. The earthquake had Magnitude 4.6M, Depth:10km.",,GDACS,https://www.gdacs.org/report.aspx?eventtype=EQ&eventid=1307697,gdacs.org,www,"['EQ', 'Green']",Greenland,GRL,"['Thu, 27 Jan 2022 04:52:48 GMT', 'Thu, 27 Jan 2022 04:52:48 GMT']","['60.7498', '-44.1483']","Thu, 27 Jan 2022 04:52:48 GMT",Europe & Central Asia,ECS,"Kangikitsoq, Kujalleq, Greenland",Kujalleq,Greenland,Kangikitsoq,,
105,GDACS_1307688,1307688,7 days,"Green earthquake alert (Magnitude 4.7M, Depth:116.22km) in Argentina 27/01/2022 03:00 UTC, 1790000 people within 100km.","On 1/27/2022 3:00:47 AM, an earthquake occurred in Argentina potentially affecting 1790000 people within 100km. The earthquake had Magnitude 4.7M, Depth:116.22km.",,GDACS,https://www.gdacs.org/report.aspx?eventtype=EQ&eventid=1307688,gdacs.org,www,"['EQ', 'Green']",Argentina,ARG,"['Thu, 27 Jan 2022 03:00:47 GMT', 'Thu, 27 Jan 2022 03:00:47 GMT']","['-32.4246', '-68.679']","Thu, 27 Jan 2022 03:00:47 GMT",Latin America & Caribbean,LCN,"Ramblón, San Juan, Argentina",San Juan,Argentina,Ramblón,,
106,GDACS_1307687,1307687,7 days,"Green earthquake alert (Magnitude 5.1M, Depth:10km) in Papua New Guinea 27/01/2022 02:49 UTC, 240000 people within 100km.","On 1/27/2022 2:49:45 AM, an earthquake occurred in Papua New Guinea potentially affecting 240000 people within 100km. The earthquake had Magnitude 5.1M, Depth:10km.",,GDACS,https://www.gdacs.org/report.aspx?eventtype=EQ&eventid=1307687,gdacs.org,www,"['EQ', 'Green']",Papua New Guinea,PNG,"['Thu, 27 Jan 2022 02:49:45 GMT', 'Thu, 27 Jan 2022 02:49:45 GMT']","['-3.7623', '151.7749']","Thu, 27 Jan 2022 02:49:45 GMT",East Asia & Pacific,EAS,"Danu, New Ireland, Papua New Guinea",New Ireland,Papua New Guinea,Danu,,
107,GDACS_1307686,1307686,7 days,"Green earthquake alert (Magnitude 4.7M, Depth:600.26km) in Fiji 27/01/2022 02:08 UTC, About 300 people within 100km.","On 1/27/2022 2:08:50 AM, an earthquake occurred in Fiji potentially affecting About 300 people within 100km. The earthquake had Magnitude 4.7M, Depth:600.26km.",,GDACS,https://www.gdacs.org/report.aspx?eventtype=EQ&eventid=1307686,gdacs.org,www,"['EQ', 'Green']",Fiji,FJI,"['Thu, 27 Jan 2022 02:08:50 GMT', 'Thu, 27 Jan 2022 02:08:50 GMT']","['-18.123', '-177.7745']","Thu, 27 Jan 2022 02:08:50 GMT",East Asia & Pacific,EAS,,,,,,
108,GDACS_1307671,1307671,7 days,"Green earthquake alert (Magnitude 4.9M, Depth:503.39km) in South Of Fiji Islands 27/01/2022 01:50 UTC, No people within 100km.","On 1/27/2022 1:50:11 AM, an earthquake occurred in South Of Fiji Islands potentially affecting No people within 100km. The earthquake had Magnitude 4.9M, Depth:503.39km.",,GDACS,https://www.gdacs.org/report.aspx?eventtype=EQ&eventid=1307671,gdacs.org,www,"['EQ', 'Green']",South Of Fiji Islands,,"['Thu, 27 Jan 2022 01:50:11 GMT', 'Thu, 27 Jan 2022 01:50:11 GMT']","['-25.9416', '179.815']","Thu, 27 Jan 2022 01:50:11 GMT",,,,,,,,
109,GDACS_1307668,1307668,7 days,"Green earthquake alert (Magnitude 5M, Depth:10km) in Tonga 27/01/2022 00:55 UTC, About 83000 people within 100km.","On 1/27/2022 12:55:31 AM, an earthquake occurred in Tonga potentially affecting About 83000 people within 100km. The earthquake had Magnitude 5M, Depth:10km.",,GDACS,https://www.gdacs.org/report.aspx?eventtype=EQ&eventid=1307668,gdacs.org,www,"['EQ', 'Green']",Tonga,TON,"['Thu, 27 Jan 2022 00:55:31 GMT', 'Thu, 27 Jan 2022 00:55:31 GMT']","['-20.5906', '-175.3992']","Thu, 27 Jan 2022 00:55:31 GMT",East Asia & Pacific,EAS,"Ha‘atafu, Tongatapu, Tonga",Tongatapu,Tonga,Ha‘atafu,,
110,GDACS_1307659,1307659,7 days,"Green earthquake alert (Magnitude 4.5M, Depth:61.21km) in Japan 26/01/2022 21:09 UTC, 34630000 people within 100km.","On 1/26/2022 9:09:15 PM, an earthquake occurred in Japan potentially affecting 34630000 people within 100km. The earthquake had Magnitude 4.5M, Depth:61.21km.",,GDACS,https://www.gdacs.org/report.aspx?eventtype=EQ&eventid=1307659,gdacs.org,www,"['EQ', 'Green']",Japan,JPN,"['Wed, 26 Jan 2022 21:09:15 GMT', 'Wed, 26 Jan 2022 21:09:15 GMT']","['35.9284', '140.4239']","Wed, 26 Jan 2022 21:09:15 GMT",East Asia & Pacific,EAS,"Kōda, Ibaraki, Japan",Ibaraki,Japan,Kōda,,
111,GDACS_1307651,1307651,7 days,"Green earthquake alert (Magnitude 4.5M, Depth:10km) in Chile 26/01/2022 19:42 UTC, 150000 people within 100km.","On 1/26/2022 7:42:52 PM, an earthquake occurred in Chile potentially affecting 150000 people within 100km. The earthquake had Magnitude 4.5M, Depth:10km.",,GDACS,https://www.gdacs.org/report.aspx?eventtype=EQ&eventid=1307651,gdacs.org,www,"['EQ', 'Green']",Chile,CHL,"['Wed, 26 Jan 2022 19:42:52 GMT', 'Wed, 26 Jan 2022 19:42:52 GMT']","['-22.775', '-68.4971']","Wed, 26 Jan 2022 19:42:52 GMT",Latin America & Caribbean,LCN,"San Bartolo, Antofagasta, Chile",Antofagasta,Chile,San Bartolo,,
112,GDACS_1307637,1307637,7 days,"Green earthquake alert (Magnitude 4.7M, Depth:40.52km) in Indonesia 26/01/2022 18:02 UTC, About 2000 people within 100km.","On 1/26/2022 6:02:41 PM, an earthquake occurred in Indonesia potentially affecting About 2000 people within 100km. The earthquake had Magnitude 4.7M, Depth:40.52km.",,GDACS,https://www.gdacs.org/report.aspx?eventtype=EQ&eventid=1307637,gdacs.org,www,"['EQ', 'Green']",Indonesia,IDN,"['Wed, 26 Jan 2022 18:02:41 GMT', 'Wed, 26 Jan 2022 18:02:41 GMT']","['1.5201', '126.5777']","Wed, 26 Jan 2022 18:02:41 GMT",East Asia & Pacific,EAS,"Pasirputih, North Maluku, Indonesia",North Maluku,Indonesia,Pasirputih,,
113,GDACS_1307772,1307772,7 days,"Green earthquake alert (Magnitude 5.6M, Depth:10km) in Antarctica 26/01/2022 16:36 UTC, No people within 100km.","On 1/26/2022 4:36:19 PM, an earthquake occurred in Antarctica potentially affecting No people within 100km. The earthquake had Magnitude 5.6M, Depth:10km.",,GDACS,https://www.gdacs.org/report.aspx?eventtype=EQ&eventid=1307772,gdacs.org,www,"['EQ', 'Green']",Antarctica,ATA,"['Wed, 26 Jan 2022 16:36:19 GMT', 'Wed, 26 Jan 2022 16:36:19 GMT']","['-63.5138', '169.9041']","Wed, 26 Jan 2022 16:36:19 GMT",,,,,,,,
114,GDACS_1307587,1307587,7 days,"Green earthquake alert (Magnitude 4.9M, Depth:56.5km) in Vanuatu 26/01/2022 11:11 UTC, About 30000 people within 100km.","On 1/26/2022 11:11:41 AM, an earthquake occurred in Vanuatu potentially affecting About 30000 people within 100km. The earthquake had Magnitude 4.9M, Depth:56.5km.",,GDACS,https://www.gdacs.org/report.aspx?eventtype=EQ&eventid=1307587,gdacs.org,www,"['EQ', 'Green']",Vanuatu,VUT,"['Wed, 26 Jan 2022 11:11:41 GMT', 'Wed, 26 Jan 2022 11:11:41 GMT']","['-19.2329', '168.5554']","Wed, 26 Jan 2022 11:11:41 GMT",East Asia & Pacific,EAS,"Bouniakoup, Tafea, Vanuatu",Tafea,Vanuatu,Bouniakoup,,
115,GDACS_1307578,1307578,7 days,"Green earthquake alert (Magnitude 4.9M, Depth:62.25km) in Indonesia 26/01/2022 09:52 UTC, No people within 100km.","On 1/26/2022 9:52:42 AM, an earthquake occurred in Indonesia potentially affecting No people within 100km. The earthquake had Magnitude 4.9M, Depth:62.25km.",,GDACS,https://www.gdacs.org/report.aspx?eventtype=EQ&eventid=1307578,gdacs.org,www,"['EQ', 'Green']",Indonesia,IDN,"['Wed, 26 Jan 2022 09:52:42 GMT', 'Wed, 26 Jan 2022 09:52:42 GMT']","['4.2674', '128.285']","Wed, 26 Jan 2022 09:52:42 GMT",East Asia & Pacific,EAS,,,,,,
116,GDACS_1307667,1307667,7 days,"Green earthquake alert (Magnitude 4.6M, Depth:10km) in Tonga 26/01/2022 09:39 UTC, About 84000 people within 100km.","On 1/26/2022 9:39:49 AM, an earthquake occurred in Tonga potentially affecting About 84000 people within 100km. The earthquake had Magnitude 4.6M, Depth:10km.",,GDACS,https://www.gdacs.org/report.aspx?eventtype=EQ&eventid=1307667,gdacs.org,www,"['EQ', 'Green']",Tonga,TON,"['Wed, 26 Jan 2022 09:39:49 GMT', 'Wed, 26 Jan 2022 09:39:49 GMT']","['-20.523', '-175.2148']","Wed, 26 Jan 2022 09:39:49 GMT",East Asia & Pacific,EAS,"Kotomaka, Vava‘u, Tonga",Vava‘u,Tonga,Kotomaka,,
117,GDACS_1307554,1307554,7 days,"Green earthquake alert (Magnitude 4.8M, Depth:10km) in United States 26/01/2022 04:31 UTC, No people within 100km.","On 1/26/2022 4:31:23 AM, an earthquake occurred in United States potentially affecting No people within 100km. The earthquake had Magnitude 4.8M, Depth:10km.",,GDACS,https://www.gdacs.org/report.aspx?eventtype=EQ&eventid=1307554,gdacs.org,www,"['EQ', 'Green']",United States,USA,"['Wed, 26 Jan 2022 04:31:23 GMT', 'Wed, 26 Jan 2022 04:31:23 GMT']","['51.9689', '178.2999']","Wed, 26 Jan 2022 04:31:23 GMT",North America,NAC,"Amchitka, Alaska, United States",Alaska,United States,Amchitka,,
118,GDACS_1307582,1307582,7 days,"Green earthquake alert (Magnitude 4.6M, Depth:10km) in Venezuela 26/01/2022 03:41 UTC, No people within 100km.","On 1/26/2022 3:41:56 AM, an earthquake occurred in Venezuela potentially affecting No people within 100km. The earthquake had Magnitude 4.6M, Depth:10km.",,GDACS,https://www.gdacs.org/report.aspx?eventtype=EQ&eventid=1307582,gdacs.org,www,"['EQ', 'Green']",Venezuela,VEN,"['Wed, 26 Jan 2022 03:41:56 GMT', 'Wed, 26 Jan 2022 03:41:56 GMT']","['10.0852', '-59.5845']","Wed, 26 Jan 2022 03:41:56 GMT",Latin America & Caribbean,LCN,"Campo de Tiro, Monagas, Venezuela",Monagas,Venezuela,Campo de Tiro,,
119,GDACS_1307545,1307545,7 days,"Green earthquake alert (Magnitude 5M, Depth:10km) in The Democratic Republic of Congo 26/01/2022 02:06 UTC, 290000 people within 100km.","On 1/26/2022 2:06:10 AM, an earthquake occurred in The Democratic Republic of Congo potentially affecting 290000 people within 100km. The earthquake had Magnitude 5M, Depth:10km.",,GDACS,https://www.gdacs.org/report.aspx?eventtype=EQ&eventid=1307545,gdacs.org,www,"['EQ', 'Green']",The Democratic Republic of Congo,COD,"['Wed, 26 Jan 2022 02:06:10 GMT', 'Wed, 26 Jan 2022 02:06:10 GMT']","['-7.2773', '27.9681']","Wed, 26 Jan 2022 02:06:10 GMT",Sub-Saharan Africa,SSF,"Kabanga-Kasinda, Tanganyika, DR Congo",Tanganyika,DR Congo,Kabanga-Kasinda,,
120,GDACS_1307516,1307516,7 days,"Green earthquake alert (Magnitude 4.9M, Depth:10km) in United States 26/01/2022 01:02 UTC, No people within 100km.","On 1/26/2022 1:02:06 AM, an earthquake occurred in United States potentially affecting No people within 100km. The earthquake had Magnitude 4.9M, Depth:10km.",,GDACS,https://www.gdacs.org/report.aspx?eventtype=EQ&eventid=1307516,gdacs.org,www,"['EQ', 'Green']",United States,USA,"['Wed, 26 Jan 2022 01:02:06 GMT', 'Wed, 26 Jan 2022 01:02:06 GMT']","['51.9725', '178.2988']","Wed, 26 Jan 2022 01:02:06 GMT",North America,NAC,"Amchitka, Alaska, United States",Alaska,United States,Amchitka,,
121,GDACS_1101271,1101271,7 days,Green flood alert in Uganda,"On 24/01/2022, a flood started in Uganda, lasting until 26/01/2022 (last update). The flood caused 9 deaths and 0 displaced .",,GDACS,https://www.gdacs.org/report.aspx?eventtype=FL&eventid=1101271,gdacs.org,www,"['FL', 'Green']",Uganda,UGA,"['Mon, 24 Jan 2022 01:00:00 GMT', 'Wed, 26 Jan 2022 01:00:00 GMT']","['-1.2837883', '29.6976906']","Mon, 24 Jan 2022 01:00:00 GMT",Sub-Saharan Africa,SSF,"Chahi, Western Region, Uganda",Western Region,Uganda,Chahi,,
122,GDACS_1101269,1101269,7 days,Green flood alert in Mozambique,"On 24/01/2022, a flood started in Mozambique, lasting until 26/01/2022 (last update). The flood caused 2 deaths and 0 displaced .",,GDACS,https://www.gdacs.org/report.aspx?eventtype=FL&eventid=1101269,gdacs.org,www,"['FL', 'Green']",Mozambique,MOZ,"['Mon, 24 Jan 2022 01:00:00 GMT', 'Wed, 26 Jan 2022 01:00:00 GMT']","['-12.0750306', '40.1091813']","Mon, 24 Jan 2022 01:00:00 GMT",Sub-Saharan Africa,SSF,"Utane, Cabo Delgado, Mozambique",Cabo Delgado,Mozambique,Utane,,
123,GDACS_1101268,1101268,7 days,Green flood alert in Malawi,"On 24/01/2022, a flood started in Malawi, lasting until 26/01/2022 (last update). The flood caused 0 deaths and 50 displaced .",,GDACS,https://www.gdacs.org/report.aspx?eventtype=FL&eventid=1101268,gdacs.org,www,"['FL', 'Green']",Malawi,MWI,"['Mon, 24 Jan 2022 01:00:00 GMT', 'Wed, 26 Jan 2022 01:00:00 GMT']","['-16.21538195', '34.7228393243151']","Mon, 24 Jan 2022 01:00:00 GMT",Sub-Saharan Africa,SSF,"Alumenda, Southern Region, Malawi",Southern Region,Malawi,Alumenda,,
124,GDACS_1307511,1307511,7 days,"Green earthquake alert (Magnitude 4.5M, Depth:10km) in Philippines 25/01/2022 23:59 UTC, No people within 100km.","On 1/25/2022 11:59:17 PM, an earthquake occurred in Philippines potentially affecting No people within 100km. The earthquake had Magnitude 4.5M, Depth:10km.",,GDACS,https://www.gdacs.org/report.aspx?eventtype=EQ&eventid=1307511,gdacs.org,www,"['EQ', 'Green']",Philippines,PHL,"['Tue, 25 Jan 2022 23:59:17 GMT', 'Tue, 25 Jan 2022 23:59:17 GMT']","['5.3974', '126.4219']","Tue, 25 Jan 2022 23:59:17 GMT",East Asia & Pacific,EAS,"Miangas, , Indonesia",,Indonesia,Miangas,,
125,GDACS_1307515,1307515,7 days,"Green earthquake alert (Magnitude 4.9M, Depth:10km) in Tonga 25/01/2022 23:34 UTC, About 79000 people within 100km.","On 1/25/2022 11:34:22 PM, an earthquake occurred in Tonga potentially affecting About 79000 people within 100km. The earthquake had Magnitude 4.9M, Depth:10km.",,GDACS,https://www.gdacs.org/report.aspx?eventtype=EQ&eventid=1307515,gdacs.org,www,"['EQ', 'Green']",Tonga,TON,"['Tue, 25 Jan 2022 23:34:22 GMT', 'Tue, 25 Jan 2022 23:34:22 GMT']","['-20.442', '-175.4183']","Tue, 25 Jan 2022 23:34:22 GMT",East Asia & Pacific,EAS,"Kotomaka, Vava‘u, Tonga",Vava‘u,Tonga,Kotomaka,,
126,GDACS_1307490,1307490,7 days,"Green earthquake alert (Magnitude 4.5M, Depth:7.63km) in Haiti 25/01/2022 18:50 UTC, 6480000 people within 100km.","On 1/25/2022 6:50:57 PM, an earthquake occurred in Haiti potentially affecting 6480000 people within 100km. The earthquake had Magnitude 4.5M, Depth:7.63km.",,GDACS,https://www.gdacs.org/report.aspx?eventtype=EQ&eventid=1307490,gdacs.org,www,"['EQ', 'Green']",Haiti,HTI,"['Tue, 25 Jan 2022 18:50:57 GMT', 'Tue, 25 Jan 2022 18:50:57 GMT']","['18.5511', '-72.683']","Tue, 25 Jan 2022 18:50:57 GMT",Latin America & Caribbean,LCN,"Daverne, Ouest, Haiti",Ouest,Haiti,Daverne,,
127,GDACS_1307483,1307483,7 days,"Green earthquake alert (Magnitude 4.9M, Depth:240.26km) in Tonga 25/01/2022 17:21 UTC, Few people within 100km.","On 1/25/2022 5:21:33 PM, an earthquake occurred in Tonga potentially affecting Few people within 100km. The earthquake had Magnitude 4.9M, Depth:240.26km.",,GDACS,https://www.gdacs.org/report.aspx?eventtype=EQ&eventid=1307483,gdacs.org,www,"['EQ', 'Green']",Tonga,TON,"['Tue, 25 Jan 2022 17:21:33 GMT', 'Tue, 25 Jan 2022 17:21:33 GMT']","['-17.6122', '-175.0303']","Tue, 25 Jan 2022 17:21:33 GMT",East Asia & Pacific,EAS,,,,,,
